business_id,name,categories,city,state,postal_code,stars
PSo_C1Sfa13JHjzVNW6ziQ,Indian Walk Veterinary Center,"Pet Services, Pet Groomers, Pets, Veterinarians",Newtown,PA,18940,5.0
9LLxOjEhLNcdx8i4lL6EUQ,Banfield Pet Hospital,"Pets, Veterinarians",Indianapolis,IN,46227,2.0
xvFV3ENVa_9POy_grBs03Q,Warminster Veterinary Hospital,"Pets, Veterinarians",Warminster,PA,18974,4.0
IFDNP-n9bBN1egOsGADYYg,Elysian Fields Animal Clinic,"Pet Sitting, Veterinarians, Pet Services, Pet Groomers, Pets",New Orleans,LA,70122,4.5
lJfxS6RMzAQ7oy8F2vU3Pg,"C R Bhatia, DVM - Animal Clinic of Warrington","Pets, Veterinarians",Warrington,PA,18976,4.5
xa28v84RtUPWQKuw_UQBXQ,The Main Lion Cat Grooming Salon,"Veterinarians, Pet Stores, Pets, Pet Photography, Pet Services, Pet Sitting, Pet Groomers",Paoli,PA,19301,4.0
Htnv87XCc9GXuE6hKEHnNg,Caring Hands Veterinary Clinic,"Veterinarians, Pets",Philadelphia,PA,19114,4.0
Mp9SeTCbDFpynBhttlgwKA,Value Vet,"Veterinarians, Pets",Nashville,TN,37216,3.0
0CMmdGACj_gM8GSTOjhpWQ,The Animal Clinic,"Pet Services, Pets, Pet Groomers, Veterinarians, Pet Sitting, Pet Boarding",Hendersonville,TN,37075,3.0
Iy7_m8lKcE3dxtljcCsoJg,Turkey Creek Animal Hospital,"Veterinarians, Pets",Plant City,FL,33563,4.0
mwNRwT6Hh-8W_BjpIgaxVQ,Hamilton Animal Hospital,"Pets, Veterinarians",Roslyn,PA,19001,3.0
rEt4M2MpiFzS-nqwzKDymw,Central Animal Hospital,"Pets, Veterinarians",Tucson,AZ,85712,4.5
FRJtMz68HULioGOzI5S19g,Banfield Pet Hospital,"Pets, Veterinarians",Warminster,PA,18974,3.0
JbFsyY7pi85oaY4DoAgwCA,Cat Doctors,"Veterinarians, Pets, Pet Services",Santa Barbara,CA,93101,4.5
St0MOWhOcfipWifVUDEQbA,Pet Care Clinic,"Pet Sitting, Pet Services, Veterinarians, Pets, Pet Groomers",Meridian,ID,83642,4.0
MOBvgVwvZMV8hyngcr7hfw,Shiloh Veterinary Clinic,"Veterinarians, Pets",Shiloh,IL,62269,5.0
uMbeb4sQLjqm2rlx3Kss2g,University Pet Clinic,"Pets, Veterinarians, Pet Services",Tucson,AZ,85716,4.0
050cbgbcRB8MtSYPzR6nsg,Swedesboro Animal Hospital,"Pets, Veterinarians",Swedesboro,NJ,08085,2.5
sYRIWLyYqQaAE8WMsmK5-w,Westside Animal Clinic,"Health & Medical, Pet Stores, Veterinarians, Pets, Hospitals, Pet Boarding, Pet Services, Pet Groomers, Pet Sitting",Spring Hill,FL,34606,2.5
7JHjy3WEc_XW3FmCMELRvg,Terry Parkway Animal Hospital,"Pet Stores, Pet Services, Pet Sitting, Pets, Veterinarians",Gretna,LA,70056,4.5
woo40oMhVxDHCjgF66l2oQ,Affordable Veterinary Care,"Pet Services, Pets, Veterinarians, Emergency Pet Hospital",Mt. Juliet,TN,37122,3.5
1hvbc-mejWxnRh_9Nlyxjg,Riverview Veterinary Hospital,"Veterinarians, Pets",Riverview,FL,33578,2.5
IRsqmVGd45zAUcEHmVW8Yg,Kindness Animal Hospital,"Pets, Veterinarians",Tampa,FL,33612,4.5
HUikwo_T9mnpgk0M7oUHXg,2nd Street Animal Hospital,"Emergency Pet Hospital, Pets, Pet Services, Veterinarians, Orthopedists, Health & Medical, Doctors",Philadelphia,PA,19123,4.5
HsI2szO4K5t-EYyDxLfLjQ,The Cat Hospital Of Tampa Bay,"Pet Groomers, Health & Medical, Pet Services, Pet Sitting, Pets, Hospitals, Veterinarians, Pet Boarding",Saint Petersburg,FL,33702,1.5
6jgRI0lDt48CY8j1GAGuKQ,Red Bank Veterinary Hospital Mount Laurel,"Veterinarians, Pets",Mount Laurel Township,NJ,08054,3.5
tvETj96WGxmq-0jTrGG0GQ,Zionsville Country Veterinary Clinic,"Pets, Veterinarians",Zionsville,IN,46077,4.0
QoXgycD2U0Eyo7rbdnb5JQ,Pet Paradise New Orleans,"Pet Sitting, Pet Services, Veterinarians, Pet Groomers, Pet Training, Pets, Pet Boarding",Kenner,LA,70062,4.5
Ob3KfxvnALCS1Xdyl35nAw,Volunteer Veterinary Clinic,"Pet Services, Pet Sitting, Pets, Veterinarians, Pet Boarding, Emergency Pet Hospital",Hendersonville,TN,37075,4.0
QWBBEFlGOtND_ldvmKdprA,Radnor Veterinary Hospital,"Pet Services, Pets, Veterinarians",Wayne,PA,19087,4.0
J7fpVm9yZhhp_-ZmMsjmlA,NorthStar Vets - Maple Shade,"Pet Services, Emergency Pet Hospital, Pets, Veterinarians",Maple Shade Township,NJ,08052,3.5
cPVSw0-l8cld1XwoJmYBwg,Michigan Road Animal Hospital at 96th Street,"Pet Boarding, Pet Services, Veterinarians, Pet Groomers, Emergency Pet Hospital, Pet Sitting, Pets",Indianapolis,IN,46268,3.5
xQfndhqY4hWlNeKX4avqPw,Southbay Animal Hospital,"Veterinarians, Pets",Riverview,FL,33578,4.0
ic5sXFD3-Ou4Vj49eELSRA,Rolling Hills Pet Clinic,"Pet Adoption, Pets, Arts & Crafts, Shopping, Pet Hospice, Urgent Care, Veterinarians, Pet Services, Art Supplies, Health & Medical",Tucson,AZ,85730,4.5
uYDntnuBE-KckXRZXbo4iQ,Ewing Animal Hospital,"Pets, Veterinarians, Pet Sitting, Pet Services, Pet Boarding, Pet Groomers",Boise,ID,83703,3.0
ScnZfskF50VacnWdiVYL5A,Quality Pet Care,"Pet Groomers, Pets, Veterinarians, Pet Services, Pet Sitting",Gretna,LA,70056,5.0
DSXdF5VHrzQx24d_QI1NTQ,Pet Community Center,"Pets, Veterinarians, Pet Services",Nashville,TN,37207,4.5
FvsoAgtOyBwoAuTyApGpWg,Colmar Veterinary Hospital,"Pet Groomers, Health & Medical, Pets, Hospice, Pet Services, Veterinarians",Colmar,PA,18915,4.5
obkZonuJTC_Qng9AwAEjMg,Hernando Animal Hospital,"Veterinarians, Pet Sitting, Pet Services, Pet Boarding, Pets",Spring Hill,FL,34606,2.5
x8JXTCYYSt1JTSG9huJrQQ,Cats Bridge To Rescue,"Veterinarians, Pet Adoption, Pets, Animal Shelters",Trevose,PA,19053,5.0
1oa1vyzmOFPUyy11uDiw6w,Kirkwood Animal Hospital,"Veterinarians, Pet Services, Pet Sitting, Pets",Saint Louis,MO,63122,4.5
Tgbvu1MMS_B5AT9doZ4MAw,Medicine River Animal Hospital,"Veterinarians, Pets",Madeira Beach,FL,33708,5.0
oEHg59Tk32XtAA3KOHL4Wg,Marlton Animal Hospital,"Veterinarians, Pets",Marlton,NJ,08053,2.5
YqDrFqM-dH6vsASpSbnMew,The Goodland Pet Hospital - La Concepcion,"Veterinarians, Pets",Goleta,CA,93117,3.5
TwtbaMMfka2Y9Hi9C8WTWQ,East Bay Animal Hospital,"Pet Services, Pet Sitting, Veterinarians, Pets, Pet Groomers",Largo,FL,33771,4.0
K3bPWU8daszLmjFs8UU1Gw,Southern Arizona Veterinary Specialty & Emergency Center,"Pets, Veterinarians, Pet Services",Tucson,AZ,85710,3.0
AmHKoDO88TY-re3_AKpdGw,Harris Veterinary Clinic,"Veterinarians, Pets, Pet Services",Nashville,TN,37209,5.0
6NVcMZlQkEr_rZMTBzRIWw,Shelbyville Road Veterinary Hospital,"Pet Groomers, Pet Boarding, Pet Services, Veterinarians, Pets, Pet Sitting",Indianapolis,IN,46237,2.5
_TbQ5yv_U5COLgRfWtYPNQ,Animal Protective Association,"Animal Shelters, Pet Adoption, Pet Stores, Veterinarians, Pets",Saint Louis,MO,63144,4.5
SNndBdvDfflgNPKO74LmGw,Transformation Pet Center,"Veterinarians, Pet Sitting, Pets, Pet Services, Pet Groomers",Tucson,AZ,85716,5.0
VMIsjL0oKUtDFPFbhqIVoQ,O'neal Animal Hospital,"Veterinarians, Pet Groomers, Pets, Pet Sitting, Pet Services",Philadelphia,PA,19104,4.0
nbZkxfaRTBuGmksYFyTh_g,Shelby Street Animal Clinic,"Pets, Veterinarians",Indianapolis,IN,46227,4.0
bLjFXzhUH5xogVvYw4dDzg,VCA Animal Hospital of Plainfield,"Pet Services, Pet Sitting, Pet Groomers, Veterinarians, Pets",Plainfield,IN,46168,4.5
kRSXodYq6A1wfpP8tGGkUw,MedVet Indianapolis,"Veterinarians, Pets, Health & Medical, Pet Services, Emergency Pet Hospital, Hospitals, Emergency Rooms",Carmel,IN,46032,4.0
cmGXUEe6GsjI0HI84yogrg,Bench Animal Hospital,"Veterinarians, Pets",Boise,ID,83705,4.0
pd8lx4So-ad4SpSN5QFHBg,Nevada Humane Society,"Animal Shelters, Veterinarians, Pet Sitting, Pet Services, Pet Stores, Pets",Reno,NV,89502,4.0
qSktp9YUAh7vQDsNAse1mg,Town & Country Veterinary Hospital,"Pets, Pet Services, Professional Services, Veterinarians",Town and Country,MO,63017,5.0
mgGI5eD49ga0N7iolZ_fIw,City Way Animal Clinics - Fountain Square,"Pet Groomers, Pet Services, Pets, Veterinarians",Indianapolis,IN,46203,4.5
e6xxUOTH4cYMX85ghG8jMQ,Animal Health Center of Land O'Lakes,"Pet Services, Veterinarians, Pet Sitting, Pets, Pet Groomers, Pet Boarding",Land O' Lakes,FL,34638,4.0
xM6GFqXfW0mvMvmp4am8Bg,Pet Pals Holistic Veterinary,"Veterinarians, Art Supplies, Arts & Crafts, Pet Services, Shopping, Pets",Indianapolis,IN,46240,4.5
Y8XtOzJB2_qxb1vkUwIyFw,Aardvark Animal Hospital,"Pets, Veterinarians",Downingtown,PA,19335,2.5
ZyDT4d2L_73Y1go5GHA4gw,Madden Animal Hospital,"Veterinarians, Pets",Ambler,PA,19002,4.0
rV_cP23_4Quc9zUVA2hNeg,All Pet Care Hospital,"Veterinarians, Pet Services, Pets, Pet Sitting",Clearwater,FL,33755,4.0
0jwZeXtZ91OaYP1XjId_Uw,PAWS Veterinary Center,"Pets, Veterinarians, Mass Media, Radio Stations",Tucson,AZ,85704,4.0
vYmDzAitbffV5nmgaBwGhw,Davis Pet Hospital,"Pets, Pet Services, Veterinarians",Collinsville,IL,62234,4.5
z3Ls9-cxMZhe2YoLMyAHEQ,Animal Health Care Clinic,"Pets, Pet Services, Veterinarians",Clearwater,FL,33765,2.0
a4H1mxquTjZnREriPff2-Q,Heart + Paw,"Pet Services, Pets, Pet Groomers, Veterinarians",Philadelphia,PA,19107,2.5
-iC85tr89DAhal4NKul6gQ,The Pet Doctor,"Pet Services, Pets, Veterinarians",Boise,ID,83709,5.0
S7_K5aPRDgu1L9vvQWVfeQ,Seven Oaks Pet Hospital,"Pet Sitting, Pets, Pet Services, Pet Hospice, Pet Groomers, Veterinarians, Emergency Pet Hospital",Wesley Chapel,FL,33544,2.5
2oeu9OVYbxQJVvP7rjdzYg,Downingtown Animal Hospital,"Veterinarians, Pets",Downingtown,PA,19335,3.0
DlKhZmybOwLco7EcYZYmeQ,Berwyn Veterinary Center,"Acupuncture, Pets, Veterinarians, Health & Medical",Berwyn,PA,19312,4.5
nhTzI_18eIsb4jMPRsBwxg,Banfield Pet Hospital,"Veterinarians, Pets",Manchester,MO,63011,3.5
td4F0h2pax7vlyxLND0S_Q,Love Animal Hospital,"Veterinarians, Pets, Pet Services",Clearwater,FL,33756,4.5
8pLHRpAe6YPL0FVOKkyVKw,VCA Valley Animal Hospital and Emergency Center,"Pet Groomers, Veterinarians, Pet Services, Emergency Pet Hospital, Pet Sitting, Pets",Tucson,AZ,85711,3.5
NYRVSifgNWRT3ebI_RYV9Q,Court Street Animal Hospital,"Pets, Pet Services, Pet Sitting, Veterinarians",Clearwater,FL,33756,5.0
q10gQHRRga0o0A37YsvodQ,The Pet Mechanic,"Veterinarians, Pets",Philadelphia,PA,19147,4.0
JrBMsLddiDZqzF4K6ypqag,Animal Veterinary Center,"Pets, Veterinarians",Bear,DE,19701,3.5
_RG4IByyBR528CMc7DefJA,BluePearl Pet Hospital,"Pets, Veterinarians",Levittown,PA,19056,3.5
xMimBPrOuJWOncQqC7x0Cg,Banfield Pet Hospital,"Pets, Veterinarians",Harvey,LA,70058,3.0
pTXFZ_KhkLP4gy6KLRqmhQ,Banfield Pet Hospital,"Pets, Veterinarians",Smyrna,TN,37167,2.5
1MJ4RXQ4p5nv2xHm9n6EJg,Banfield Pet Hospital,"Pets, Veterinarians",Seminole,FL,33772,4.0
C5Nwl3I2luh-k5ePQ-kLmw,Parker's Paws Animal Hospital,"Pet Stores, Pet Services, Veterinarians, Pets, Pet Training",Nashville,TN,37205,5.0
P0BB_HeVN-M8D31yty1LXw,Rainbow Veterinary Hospice,"Pet Services, Veterinarians, Pets, Pet Hospice",Saint Petersburg,FL,33704,5.0
ee9SnazVeaPXqDAyEHQjWg,Freeland Animal Hospital,"Pets, Pet Sitting, Veterinarians, Pet Services, Pet Groomers",Indianapolis,IN,46236,5.0
X0aVzWJ2VIkTon782vVohw,Banfield Pet Hospital,"Pets, Veterinarians",Tampa,FL,33618,3.5
d6bUs1pohZndzv-76YpcYw,Pet Health Center,"Pets, Veterinarians, Pet Services, Emergency Pet Hospital",Philadelphia,PA,19134,3.5
LMvlMffji1NmNJ5o6HSw0Q,Best Friends Animal Hospital & Pet Resort,"Veterinarians, Pet Sitting, Pets, Pet Services",Swansea,IL,62208,5.0
acVt-YGSnC9F9lxtbqlZLQ,South Jersey Animal Hospital,"Veterinarians, Pets",Medford,NJ,08055,4.5
66OSm_qfhfdwWNxXirZFFQ,Street Road Animal Hospital,"Pets, Pet Services, Veterinarians, Pet Groomers, Emergency Pet Hospital, Pet Sitting, Pet Boarding",Trevose,PA,19053,4.0
yTtlqTm_c5F9c3wA28EF1Q,Villa Rosa Veterinary Hospital,"Pet Services, Pets, Veterinarians",Wesley Chapel,FL,33544,5.0
mCJqxPAz__VyDWllhqUK7g,Newtown Square Veterinary Hospital,"Veterinarians, Pets",Newtown Square,PA,19073,4.5
nETqyOaGjqDwIWxFixVuyg,From The Heart Mobile Vet,"Pets, Pet Services, Veterinarians",Santa Barbara,CA,93109,4.0
4UVdviVigr9oo2YSwA0B4w,The Cat Hospital at Palm Harbor,"Pet Services, Pets, Veterinarians, Pet Sitting, Pet Boarding, Pet Groomers",Palm Harbor,FL,34683,4.0
EFOlgTAEXEd876-iGm4_xg,Santa Barbara Animal Medical Center,"Veterinarians, Pets, Pet Services, Pet Sitting",Santa Barbara,CA,93103,4.0
9eao8ptGCAPTA-9pgN3CNA,Animal Care Center of Pasco County,"Pet Services, Veterinarians, Pet Sitting, Pets",New Port Richey,FL,34655,4.0
xk2BZOP5CZfxyr4veOgSPw,Cat Clinic At Cherry Hill,"Pets, Veterinarians",Cherry Hill,NJ,08002,4.0
eGP0ITsTerqrwvty4w37MA,Harpeth Hills Animal Hospital,"Veterinarians, Pet Services, Pet Groomers, Pets, Pet Sitting",Nashville,TN,37221,4.5
qy_BTJAND9Utkmrkz1ocUg,Ludwigs Corner Veterinary Hospital,"Pets, Pet Services, Pet Groomers, Veterinarians",Chester Springs,PA,19425,5.0
2Z7vV_BUcNaGYXikJqq-Lw,Veterinary Hospital University of Pennsylvania,"Veterinarians, Pets",Philadelphia,PA,19104,3.0
3a-3SaMCrmmYSymz6pFTcg,Ivens Bronstein Veterinary Hospital,"Pet Sitting, Pets, Pet Services, Veterinarians",Ardmore,PA,19003,4.0
mdeSOSmDxj8_zr3NFY5TMQ,Eagle Veterinary Hospital,"Pets, Veterinarians",Eagle,ID,83616,3.5
w40EzHm_yGOB2WpdMrYuYg,Apache Trail Animal Hospital,"Health & Medical, Pets, Pet Services, Acupuncture, Veterinarians, Pet Sitting, Pet Boarding",Antioch,TN,37013,4.0
v0iXSoIe-BAZvtNHI9bKFQ,Enterprise Rd Animal Hospital,"Pets, Hospitals, Veterinarians, Health & Medical",Clearwater,FL,33759,3.5
Jwnl61m8RYJEP_iHH-0nxA,Ft Ben Boarding and Grooming,"Pet Groomers, Veterinarians, Pet Boarding, Pets, Pet Services, Pet Sitting",Indianapolis,IN,46236,5.0
nnoeKWNEPYPoYHqMsPTodg,Pima Pet Clinic,"Veterinarians, Pets",Tucson,AZ,85712,3.0
9qSeYLlh-vOHk9XX7v1LHA,Davis Island Animal Clinic,"Pets, Veterinarians",Tampa,FL,33606,4.5
iu4QK-WJIKQcISxbo-ptpw,Reata Equine Veterinary Group,"Veterinarians, Pets",Tucson,AZ,85749,4.5
W68Ah9eEcN1iK1B8wsE74A,Cinnaminson Animal Hospital,"Pets, Pet Services, Veterinarians, Pet Sitting",Cinnaminson,NJ,08077,4.5
eRtrcUyflgHRyrP1-yPMsg,VCA Garden State Animal Hospital,"Pets, Veterinarians",Cherry Hill,NJ,08002,4.0
8fV6orH4Oewan1BAAtCQyg,Harpeth Valley Animal Hospital PC,"Veterinarians, Pets",Nashville,TN,37221,4.5
Mb4VcZyATLrEODhqVqYTkQ,Angel Veterinary Hospital,"Veterinarians, Pets",Santa Barbara,CA,93111,2.5
pWA8iauMapGgshXWJDzLGQ,North Tampa Pet Depot,"Veterinarians, Pet Groomers, Pet Stores, Pets, Pet Services",Tampa,FL,33647,3.5
wR3jWd_FOzMoH6-hn5D0pA,Banfield Pet Hospital,"Pets, Veterinarians",Reno,NV,89523,3.5
qq5XMotJbKASY-XlwtsYzQ,"Bartz Sue, DVM","Veterinarians, Pets",Indianapolis,IN,46220,5.0
7-Vu4z0QdhCFizP-bHxoxQ,Pet's Best Friend Veterinary Hospital,"Veterinarians, Pets",Levittown,PA,19057,4.0
GKw06w1Q1C3ZCyFpOLNOxQ,Chestnut Hill Animal Hospital,"Veterinarians, Pets",Erdenheim,PA,19038,3.5
HqqU6VFDSEcV7s9FWyM9Qg,Noah's Ark Animal Hospital,"Pets, Veterinarians",Philadelphia,PA,19136,3.0
dev5NoQ2jiw8JdUNcKTc-A,Banfield Pet Hospital,"Pets, Veterinarians",Largo,FL,33771,2.5
-1OSMXiFyvq6VW4Y7UpjvQ,Dose's Pet Vets,"Veterinarians, Pets",Reno,NV,89503,4.0
i9t_nAXlGGZc11DpQS4fSA,Bridgeton Animal Hospital,"Pets, Veterinarians, Pet Services",Bridgeton,MO,63044,4.5
kH7EJSyzgLuluEOzMN5T7Q,Animal Medical Center,"Pet Sitting, Veterinarians, Pet Groomers, Emergency Pet Hospital, Pets, Pet Services",Indianapolis,IN,46219,5.0
a73RmTWQj8HCpjFRelChBw,Banfield Pet Hospital,"Pets, Veterinarians",Brentwood,TN,37027,3.5
9nxQpoej2jH85--usFISYQ,Hughes All Creatures Animal Clinic,"Veterinarians, Doctors, Pet Services, Pet Boarding, Pet Sitting, Health & Medical, Pets",Palm Harbor,FL,34685,5.0
MvYQBDrLAxItow6svS3mrw,Banfield Pet Hospital,"Veterinarians, Pets",Saint Louis,MO,63116,3.0
PqW2yYel66W0lhZXemH-ZQ,St Louis Cat Clinic,"Pets, Veterinarians",Saint Louis,MO,63139,4.5
yUIzHZ4jxv5a3HyC3fA50g,Sabino Veterinary Care,"Pets, Veterinarians",Tucson,AZ,85750,4.5
6IbjmbCFBy6EdfvMdMuwRg,St Pete Beach Veterinary Clinic,"Pets, Veterinarians",St. Pete Beach,FL,33706,3.5
PWZe9thJ785zpROlel7rGw,Briarcrest Veterinary Care Center,"Pets, Veterinarians",Tucson,AZ,85715,4.0
-j-AfgDcaCaWPXIe0yaqCg,Dermatology & Allergy Clinic For Animals,"Veterinarians, Pets",Santa Barbara,CA,93105,4.0
o6x71yy7SzXR6d3h2rL0jw,Harmony Vet Care Of Brandon,"Pet Services, Pets, Veterinarians",Brandon,FL,33511,4.5
AyTdOt9-9QB9kKu0GGZlRg,Brookville Road Animal Hospital,"Pets, Veterinarians",Indianapolis,IN,46239,4.5
V_aR5kAXPFdiuXB7KsCkpQ,Clearview Veterinary Hospital,"Pet Boarding, Veterinarians, Pets, Pet Sitting, Pet Services",Metairie,LA,70006,4.5
7Ro0gqeX2cM7LxuaV6u1hw,Eye Care for Animals,"Pet Services, Health & Medical, Veterinarians, Pets, Ophthalmologists, Doctors",Tucson,AZ,85705,4.0
xkgaH5_XZbw6BfLU1zKcCg,Mobile Vet Care Indiana,"Pets, Veterinarians, Pet Services",Indianapolis,IN,46202,4.0
dPt9QgLAIuI2a-CKdv5cSA,Santa Barbara Humane ,"Pet Stores, Pets, Pet Training, Animal Shelters, Pet Services, Pet Sitting, Pet Boarding, Veterinarians",Santa Barbara,CA,93111,3.0
armMgtmzqBZwAO6kVsn-Iw,Blackwood Animal Hospital,"Veterinarians, Pet Groomers, Pet Services, Pets",Blackwood,NJ,08012,3.0
hShugX_0KwXAP__cuOUChw,Doyle Animal Chiropractic,"Veterinarians, Pet Services, Pets, Health & Medical",Reno,NV,89441,5.0
WgHfeHZ8JJK6CQ6kAAkgIQ,Oaklandon Family Vet,"Pets, Veterinarians",Indianapolis,IN,46236,4.5
lVA9b2YoTuqQNIG1nttu-w,Highland Park Animal Hospital,"Pets, Pet Boarding, Pet Groomers, Veterinarians, Pet Sitting, Pet Services",Upper Darby,PA,19082,2.5
j3kZj3PdhQQ_LDkMNvT9gQ,Animal Hospital of Dunedin,"Pets, Pet Groomers, Pet Services, Pet Sitting, Veterinarians",Dunedin,FL,34698,3.5
nvNphpmV5egeCOvjKdAgcw,Belle Meade Animal Hospital,"Pet Groomers, Pets, Veterinarians, Pet Sitting, Pet Services, Pet Boarding",Nashville,TN,37205,4.5
tEPovjKUDljVz9Y9YGDFCw,Acupet Veterinary Care,"Pets, Veterinarians, Pet Sitting, Pet Services, Pet Groomers",Hudson,FL,34667,4.0
CWwmeeIGEqJQVLF4flzQBg,Noah's Ark Veterinary Office,"Veterinarians, Pets",Saint Louis,MO,63129,1.0
Jb5gWpkQcrL63FhOTn4kvw,Crystal Springs Veterinary Clinic PA,"Pets, Pet Services, Veterinarians, Pet Sitting",Zephyrhills,FL,33540,3.5
y6qWR_WTe1OQd3DcnFepqg,Cheekwood Animal Hospital,"Pet Services, Veterinarians, Pet Sitting, Pets",Nashville,TN,37205,4.0
6-YQyaKDpHQNYbP754waxw,Crestview Animal Hospital,"Veterinarians, Pets",Indianapolis,IN,46229,4.5
9sJtwo9F5uyey-Xk8zpiRw,Banfield Pet Hospital,"Veterinarians, Pets",Tucson,AZ,85712,3.5
_hmHH1uJsl3vA7zUx1QduQ,Artemis Animal Clinic,"Veterinarians, Pets",Santa Barbara,CA,93105,4.0
DYD7ZvvsBSi-Wakfp-vHOQ,Pantano Animal Clinic,"Pets, Veterinarians",Tucson,AZ,85710,4.0
tGvYdLzCvjZyMM9SttMj3Q,Mccormick Animal Clinic,"Veterinarians, Pets, Pet Groomers, Pet Services, Pet Sitting",Nashville,TN,37214,4.5
sCPnc0nPQs0hwU8JeV-e8g,The Pet Club,"Pet Groomers, Pets, Pet Services, Pet Adoption, Veterinarians, Pet Boarding, Pet Sitting, Pet Training",Marana,AZ,85741,4.0
NeLPYEY5fIoSM9CtHuefRg,My Best Friend Veterinary Center,"Pet Services, Pet Groomers, Veterinarians, Pets",Saint Louis,MO,63132,4.5
IB6yV9NDxExRBRBJ5L4TeA,Animal House Veterinary Hospital,"Pets, Veterinarians, Pet Groomers, Pet Services",Arnold,MO,63010,2.5
HiX0oezKazkb2rwq2pdX1g,Pets R Us Vet,"Pet Sitting, Pet Services, Pet Boarding, Veterinarians, Pets",Smyrna,TN,37167,2.5
DQeQBc4L0ZpCsbGjwOM0Hg,Canada Hills Animal Hospital,"Pets, Veterinarians",Tucson,AZ,85737,4.5
WZWN0jwMQknK37f2fc7LWQ,Imperial Animal Hospital,"Pets, Veterinarians, Pet Services, Pet Groomers, Pet Boarding, Pet Sitting",Imperial,MO,63052,4.0
5i0DSAHnQUkNe_m2jLPRGw,VCA Companion Animal Medical Center,"Veterinarians, Pet Groomers, Pet Services, Pets, Pet Boarding, Emergency Pet Hospital, Pet Sitting",Carmel,IN,46032,3.5
qxOPUvyGEpt3_Wr6WqkTOw,Veterinary Ophthalmology Services,"Veterinarians, Pets",Nashville,TN,37204,4.0
thzcRmNIhMOELKmABnWKdQ,Banfield Pet Hospital,"Veterinarians, Pets",Downingtown,PA,19335,1.5
pAMtLBnYiEsa-IxVnZeh-w,Healthy Pets Mobile Veterinary Services,"Veterinarians, Pets",Tampa,FL,33647,4.5
Y328MG-4gO1TEh0ZXvf23g,Southwest Veterinary Hospital,"Veterinarians, Pets",Reno,NV,89509,4.5
rjeH0b1F7qj2gxxOO8vzYA,VCA Care Specialty and Emergency Animal Hospital,"Emergency Pet Hospital, Pets, Pet Sitting, Veterinarians, Pet Groomers, Pet Services",Santa Barbara,CA,93101,3.5
lpsR89F2Hv6-odsv7f7EqQ,Hickory Plaza Veterinary Clinic,"Pet Groomers, Pet Sitting, Veterinarians, Pet Stores, Pets, Pet Services",Nashville,TN,37211,2.5
w38V_2rO2Z16o6VnrqYyXQ,CountryChase Veterinary,"Veterinarians, Pets, Pet Sitting, Pet Services, Pet Boarding",Tampa,FL,33626,4.0
gwFtKdjtK8Pw_6mUsWvRHw,The Dog Spot - East Nashville,"Pet Groomers, Veterinarians, Pet Sitting, Pet Services, Pets",Nashville,TN,37206,4.0
Vn7A8ZNkV_v1PUCvmzzBVg,Tarpon Animal Hospital,"Pet Groomers, Veterinarians, Pet Hospice, Pet Services, Pets, Pet Stores, Pet Boarding, Pet Sitting",Tarpon Springs,FL,34689,4.5
Ib5JTAmXHgURS3HXoIO_IQ,Paoli Vetcare,"Veterinarians, Pet Cremation Services, Pets, Pet Groomers, Pet Boarding, Pet Services, Pet Sitting",Paoli,PA,19301,4.0
UwKBjkfnIKA8c0Fci1ZJ8g,Broad Street Animal Hospital,"Veterinarians, Pet Services, Pets, Pet Sitting",Philadelphia,PA,19141,4.0
yiyEDOI_gOKgg9y_Ic5F1Q,Advanced Pet Care,"Veterinarians, Surgeons, Health & Medical, Pets, Doctors, Radiologists",Spring Hill,FL,34606,4.5
_TFEk3GwWK9qcjshCW5IVw,THRIVE Affordable Vet Care - New Orleans Mid City,"Veterinarians, Pets",New Orleans,LA,70119,4.0
Ijz7W5VjpEykzpotWcPonw,Pennell Veterinary Clinic,"Pets, Pet Services, Veterinarians",Aston,PA,19014,2.5
qRwoFN4LoGQJ4bwyloxkaQ,Family Animal Hospital,"Veterinarians, Pets",Maryland Heights,MO,63043,5.0
73hDGjIUi2GmFZ44eIQAMA,South 31 Veterinary Clinic,"Pets, Pet Sitting, Veterinarians, Pet Services, Pet Groomers",Indianapolis,IN,46227,2.5
OlxFNsvbQQWAgQ0F_E_S8w,Animal Ark Animal Hospital,"Veterinarians, Pets, Pet Services, Pet Transportation, Animal Physical Therapy",Franklin,TN,37067,4.5
z9a9bH-5pX_UgkiVewKKVA,Royal Pets Market & Resort,"Veterinarians, Pet Services, Pet Stores, Pets, Pet Sitting",Palm Harbor,FL,34684,3.5
wvfR3CRWuMvKUBtlWusOwg,Holistic Animal Care Shoppes,"Veterinarians, Pet Stores, Pet Services, Pets, Pet Sitting",Tucson,AZ,85710,4.5
rtqkGaSri0Td8VzCsBk6Aw,VCA PetMed Animal Hospital,"Veterinarians, Pet Boarding, Pets, Pet Groomers, Pet Services, Pet Sitting",Antioch,TN,37013,4.0
s14fm6lknqpv5BkHln425g,Lakeside Animal Hospital,"Pets, Pet Sitting, Pet Groomers, Veterinarians, Pet Services, Pet Boarding",Odessa,FL,33556,4.5
pnYYTkbaiYWbry7xP1jk8g,Paws and Purrs Sitters,"Pet Services, Veterinarians, Pet Sitting, Pets",Wallingford,PA,19086,3.5
YPCLEZpFyZa-3fw3-bz4Sg,Berry Hill Animal Hospital,"Veterinarians, Pets",Nashville,TN,37204,4.0
-n70odh1eJfMAfjx0Xa2hg,Dr Petfixer Veterinary Hospital,"Pets, Pet Services, Veterinarians, Pet Sitting, Pet Boarding, Pet Groomers",Harleysville,PA,19438,2.5
SyhTibQQQiF2iDruXNT1iw,Rita Ranch Pet Hospital,"Veterinarians, Pets",Tucson,AZ,85747,4.5
mxw_oSOyBKse1dMdgYOmnA,River Road Pet Clinic,"Pet Cremation Services, Pet Hospice, Pet Services, Pets, Veterinarians",Tucson,AZ,85750,4.5
PsCc9YH1QDlu6JzMaPuc7g,West Chester Veterinary Medical Clinic,"Veterinarians, Pets",West Chester,PA,19382,3.5
ct9R5mduyPOKedUgTeSfmA,Desert Hills Animal Hospital,"Pets, Veterinarians, Pet Services",Sparks,NV,89434,4.5
2BkA59doQdZVn-d01zKOTQ,Parkside Animal Hospital,"Pet Services, Pet Sitting, Veterinarians, Pets",Fishers,IN,46038,4.5
xFFbK_z8d5Ix3YHsLfp13Q,Clearwater Animal Referral and Emergency,"Pets, Veterinarians",Clearwater,FL,33764,3.0
6i43JlgyEHbk9J1I7BY3DQ,Pasco Animal Hospital,"Pets, Pet Insurance, Veterinarians, Pet Sitting, Pet Boarding, Pet Services",New Port Richey,FL,34652,4.0
5vGmauKXOsyNLY_vlMh7Ww,New Shackle Island Veterinary Hospital,"Veterinarians, Pets, Pet Sitting, Pet Services, Pet Boarding",Hendersonville,TN,37075,4.0
_jBPga10VrXcTBZoBeEbDQ,Mt Airy Animal Hospital,"Pet Services, Veterinarians, Pets, Pet Sitting",Philadelphia,PA,19119,3.0
nAn0aOhZ1LMnpAX_KCwhQg,Oakhurst Veterinary Hospital,"Pets, Pet Groomers, Pet Breeders, Pet Sitting, Veterinarians, Pet Services",Seminole,FL,33776,4.0
eO-7jJkpe0TGvGNOuFpeLw,Idaho Humane Society,"Pet Adoption, Veterinarians, Pet Services, Animal Shelters, Pets",Boise,ID,83709,4.5
BfxzDqkYgFRwsLhCCVL4vw,Buena Pet Clinic,"Veterinarians, Pets",Tucson,AZ,85711,3.5
qrdQYw0TzKdNrGKQz8dx5w,Rockhill Veterinary Associates,"Pet Groomers, Holistic Animal Care, Pet Services, Pets, Pet Sitting, Veterinarians",Sellersville,PA,18960,4.0
ZeNivxBPA79MQ6zZM0i5Hw,Benarda Veterinary Hospital,"Veterinarians, Pets",Tucson,AZ,85716,4.0
NMpTFzxE5HDHFJT3sXg-jg,Harborside Animal Hospital,"Veterinarians, Pets, Pet Services, Emergency Pet Hospital",Clearwater,FL,33759,4.5
CsDyE1qyxVu94XeqkndKZQ,Woodlands Animal Hospital,"Pets, Veterinarians",Oldsmar,FL,34677,4.5
Ku9Y3-qfkNfdO4xpf1zrDg,Conshohocken Veterinary Hospital,"Veterinarians, Pets",Conshohocken,PA,19428,3.5
f2vuR56v-Hy5tFMzQ31bVg,East Goshen Veterinary Hospital,"Pets, Pet Sitting, Veterinarians, Pet Services, Pet Groomers, Pet Boarding",West Chester,PA,19380,4.5
77cQwaP2GvD8oTfm99f5TA,Levy Veterinary Hospital,"Pet Groomers, Pets, Veterinarians, Pet Sitting, Pet Boarding, Pet Services",Kenner,LA,70065,5.0
xaTSQyHs-xmrT-mUCLtNQQ,Animal Hospital Of Regency Park,"Pet Sitting, Veterinarians, Pet Services, Pets",New Port Richey,FL,34653,4.0
W7g594za3KDFWe_cT8vG9g,Garrison Animal Hospital,"Pets, Pet Cremation Services, Pet Groomers, Veterinarians, Emergency Pet Hospital, Pet Services",Spring Hill,FL,34609,3.5
4WL8TDe7zeCequrvVJV7fA,Royersford Veterinary Hospital,"Pets, Veterinarians",Royersford,PA,19468,3.5
EW6YsOi4o4S-TgPuFfy0JQ,Beauchamp Animal Hospital,"Veterinarians, Pets, Pet Services",Franklin,TN,37069,5.0
RDChgx8DaaqOnxlpElBsRQ,Veterinary Specialty Center of Tucson,"Veterinarians, Pets",Tucson,AZ,85704,3.0
9gaiCMCu6FQPDCbphb282g,Raccoon Valley Animal Hospital,"Pets, Veterinarians",Mullica Hill,NJ,08062,3.0
5yfBd5xaPzmMrkb3D4l0lw,Paws N Claws,"Local Services, Veterinarians, Adoption Services, Pets, Pet Adoption",Burlington,NJ,08016,4.0
LD_thtNuOeDQgqAm_nBfIg,Jane Latta Vet,"Veterinarians, Pets",West Chester,PA,19380,4.5
SRGHrLJultJEaxwEKGr0Jg,Carrollton Veterinary Hospital,"Veterinarians, Pet Sitting, Pet Services, Pets, Pet Groomers, Pet Boarding",New Orleans,LA,70118,4.0
dsmp50IKQufbf1CaKl9iRw,La Cumbre Animal Hospital,"Pets, Veterinarians",Santa Barbara,CA,93105,4.5
tMBYSu6iHNdOhl0PGKJ2iA,Truckee Meadows Veterinary Hospital,"Veterinarians, Pets",Reno,NV,89509,4.0
i2rTkdbTyqgxcBopIGRT6g,Pet Vet,"Pets, Veterinarians",Franklin,TN,37069,4.5
A0wYlrB6bQnx-C1xUGLJmA,Arnold Animal Hospital,"Veterinarians, Pets",Arnold,MO,63010,4.5
SnZc-2W03ZWRmiyLVnvLIg,Veterinary Surgical Specialists,"Pets, Health & Medical, Hospitals, Veterinarians",Tampa,FL,33615,5.0
F1N5jWobRreQ_F7SHNBcVg,St. George Hunt Memorial Veterinary Hospital,"Veterinarians, Pets, Pet Services, Pet Groomers, Pet Cremation Services, Pet Adoption",Wayne,PA,19087,4.5
9TDbBKEMsppLJlfOMDyQDg,Bywood Animal Hospital,"Veterinarians, Pets",Drexel Hill,PA,19026,4.5
SfqjYO75B2Sk_5KTkCyX3w,Sycamore Veterinary Hospital,"Veterinarians, Pet Services, Pets",Newtown,PA,18940,3.5
KoNKM4QPnqmxjdgWnw1yzg,Connechusett Animal Hospital & Kennel,"Pets, Pet Services, Veterinarians, Pet Sitting",Clearwater,FL,33756,4.5
540XY9UXBi2T2x8K8hq1HA,Collingswood Veterinary Hospital,"Pets, Veterinarians",Haddon Twp,NJ,08107,2.0
uYeMZCsF6RwAkWVqqU5ffg,Care Animal Hospital of Seminole,"Veterinarians, Pets",Seminole,FL,33776,4.5
8XKjKN7SR5f448wy8OjtUg,Land O Lakes Animal Hospital,"Pet Sitting, Pets, Pet Services, Veterinarians",Land O Lakes,FL,34639,3.0
1Taf2sqGwRY3iEPqPcd6nA,New Britain Veterinary Clinic,"Pets, Health & Medical, Veterinarians",New Britain,PA,18901,4.5
6qRX8mY3CxdmYkLvVHUcsQ,Banfield Pet Hospital,"Pets, Veterinarians, Pet Stores, Animal Shelters",Woodbury,NJ,08096,1.5
Y3JldDJ6kBuvdUTZkCPMyw,Veterinary Emergency Group,"Pets, Pet Services, Emergency Pet Hospital, Veterinarians",Tampa,FL,33613,3.0
WrJ76ufOQn2RGGOY7ugbbQ,Belleville Animal Clinic,"Pet Stores, Pet Services, Pet Groomers, Veterinarians, Pets",Belleville,IL,62221,3.0
InfQq3gmwYBeRW4fRvThTg,All Pets Veterinary Hospital,"Pet Services, Pets, Veterinarians",Upper Darby,PA,19026,5.0
M9NfwN6vz3dyZyHTZND7Qw,Banfield Pet Hospital,"Veterinarians, Pets",Jenkintown,PA,19046,3.5
sqb4lMi0LI0VDKSkA2tFSA,Rockledge Veterinary Clinic,"Pets, Veterinarians, Pet Services, Pet Hospice",Jenkintown,PA,19046,4.5
nQJZEuHWI4qCFCMVh721Lw,Allpets Housecalls,"Veterinarians, Pets, Health & Medical, Doctors, Pet Services, Home Services, Internal Medicine",Philadelphia,PA,19119,4.0
s4Sv0RRwKKJgSN51J0uWWA,Fishtown Animal Hospital,"Veterinarians, Pets",Philadelphia,PA,19125,4.0
_w6BD5VnJi1RjzegipJAuA,Mission Pet Clinic,"Veterinarians, Pets",Tucson,AZ,85713,4.5
2CkAPaNdV-4WeoTQ2w2bDA,Companion Pet Hospital,"Pet Services, Pet Groomers, Veterinarians, Pets",Philadelphia,PA,19147,4.5
xjYi_MeJpTugVqc3PwFkcQ,ABC Vaccination Clinic,"Pets, Veterinarians",Tucson,AZ,85711,4.0
Y0hrPk8Cg98UBWkvSS0hxw,Banfield Pet Hospital,"Pets, Veterinarians",Tucson,AZ,85710,2.5
dWwFTg2qamBxxebXo7MFlA,Pottsgrove Animal Hospital,"Pets, Veterinarians",Pottstown,PA,19464,2.5
pG4ozrEMxHCCd24vtYoDLQ,Brownsburg Animal Clinic,"Pets, Veterinarians",Brownsburg,IN,46112,4.5
9HIvG1Ks0ucAUyoxI6AnHw,City Pets Animal Care,"Pet Groomers, Pet Sitting, Pet Boarding, Pet Services, Pets, Veterinarians",Nashville,TN,37208,4.0
E04CoucusNadKu3kM7Mzgg,Prytania Veterinary Hospital,"Veterinarians, Pet Sitting, Pets, Pet Groomers, Pet Boarding, Pet Services",New Orleans,LA,70115,4.5
9g4F346_MYge46CGoKOplw,The Cat Doctors,"Veterinarians, Pet Sitting, Pet Groomers, Pet Services, Pets",Tampa,FL,33609,4.5
iXA3giKTRv504KRH7appdQ,PAWS Northeast Adoption Center and Low-Cost Clinic,"Pets, Veterinarians, Pet Adoption, Animal Shelters",Philadelphia,PA,19115,3.5
3H6LFT4Pgv0ayy8HZPUFHQ,Green Lane Veterinary Hospital,"Emergency Pet Hospital, Veterinarians, Pets, Pet Services, Pet Hospice",Green Lane,PA,18054,4.5
mdm3669_3BI_qieEW4zrAA,Rincon Vista Veterinary Center,"Pet Services, Pets, Veterinarians",Tucson,AZ,85710,4.0
J82KXpR9fxdp1NLqEh8htw,Cottage Animal Clinic of Carmel,"Pets, Veterinarians",Carmel,IN,46032,4.5
4NgTdVOJQ4KHQc1X_8ByVA,North Hills Veterinary Clinic,"Veterinarians, Pets",Reno,NV,89506,4.0
TpN8dej3r7MxiM59bwvhJQ,Animal Emergency & Urgent Care,"Emergency Pet Hospital, Veterinarians, Pet Services, Pets",Palm Harbor,FL,34684,4.0
yiQGnvAFhcraxDbgDVbBQQ,Central West End Veterinary Clinic,"Veterinarians, Pets, Pet Services",St. Louis,MO,63108,4.5
EMH8n2yc9xjDenhRv3H-Kw,Lavergne Veterinary Clinic,"Pets, Veterinarians",La Vergne,TN,37086,3.5
0rw70HNcfQ5O_CUxCUlfzw,King of Prussia Veterinary Hospital,"Veterinarians, Pets",King of Prussia,PA,19406,4.0
E017jKWZcpaNlNF9Gp-Fuw,St Francis Pet Clinic,"Pets, Veterinarians",Santa Barbara,CA,93101,4.0
_uSaceqvo11h_-qGVFQjLQ,Indian Rocks Beach Animal Hospital,"Pets, Veterinarians",Largo,FL,33774,3.5
-ucSeEiMvgBFOoDKdmF3dQ,Veterinary House Calls,"Veterinarians, Pets",Tucson,AZ,85719,4.0
cVmZi47mbCb4Yhi1_GVViA,Heritage Veterinary Hospital,"Veterinarians, Pet Services, Pets, Pet Sitting",Creve Coeur,MO,63141,5.0
Qo_ka_tfXxrEpa_QLE0rdQ,Graham Animal Clinic,"Pet Boarding, Veterinarians, Pet Sitting, Pet Services, Pets",Hendersonville,TN,37075,4.0
-YDlZ4hCDx2TkpOrSTsXhg,Brock Animal Hospital,"Pet Services, Pet Boarding, Pet Sitting, Veterinarians, Pets, Pet Cremation Services",Pinellas Park,FL,33782,4.0
0aRs-_Y7Qq_6hScg8ixVow,Banfield Pet Hospital,"Veterinarians, Pets",Sunset Hills,MO,63127,2.5
ne854SxB7yqNXh0FIA4XeA,Boise Animal Health and Urgent Care,"Veterinarians, Pets",Boise,ID,83706,4.0
gpkN15VLcguVIMOGc5R-vg,SPCA Tampa Bay Veterinary Center,"Community Service/Non-Profit, Veterinarians, Local Services, Pets, Pet Adoption, Pet Services",Saint Petersburg,FL,33713,3.5
zW5y4BUwwLpDiW3jh0KD4A,Animal Skin Ear & Allergy Clinic of St. Louis,"Veterinarians, Doctors, Dermatologists, Pet Services, Pets, Health & Medical",Saint Louis,MO,63141,3.5
FvYj3eAcjrrNt-Kmuqt5aA,Animal Care Clinic,"Veterinarians, Pets, Pet Services, Pet Groomers, Pet Sitting, Pet Boarding",Gretna,LA,70056,5.0
UBVE3Z1LmYBAcsJPeqWTTQ,Airport Animal Clinic,"Pets, Veterinarians",Nashville,TN,37217,4.0
xAwnIKLl9zPA6fAe_1AbqA,VRC,"Personal Shopping, Shopping, Pet Services, Persian/Iranian, Restaurants, Pets, Veterinarians",Malvern,PA,19355,3.5
GRFVTbjK3Ri1zz1hisz_Bg,Columbus Central Veterinary Hospital,"Veterinarians, Pets, Pet Services, Pet Groomers",Columbus,NJ,08022,2.5
lNX43xrxv3AwWMbhIhk6cw,Bloomingdale Animal Hospital,"Pet Services, Pet Sitting, Pet Boarding, Pet Groomers, Veterinarians, Pets",Valrico,FL,33594,4.0
eoUgJ2EDuqa8wsWvPTpOqQ,Saint Francis Veterinary Center,"Veterinarians, Pets",Swedesboro,NJ,08085,2.5
41KBn8PqnuX_qpUkBSaDNA,VCA Animal Care Center of Mt. Juliet,"Pet Groomers, Veterinarians, Pets, Pet Sitting, Pet Services",Mount Juliet,TN,37122,4.5
3eN4dAC8Al3dd-WK6CATLg,Applebrook Inn Veterinary Center & Pet Resort,"Pets, Pet Groomers, Pet Services, Pet Sitting, Pet Boarding, Veterinarians, Pet Training",West Chester,PA,19382,3.5
08I7khCvyCEKyPktg1kd3A,Animal Hospital of Chester County,"Pet Services, Veterinarians, Pets, Pet Sitting",West Chester,PA,19380,5.0
b8NIaHbjDPE_OyyXiXb7kQ,Pitman Animal Hospital,"Veterinarians, Pets",Pitman,NJ,08071,3.5
B7WvU0nw3ad4mDfgIDBVzQ,Pocopson Veterinary Station,"Pets, Veterinarians",West Chester,PA,19382,5.0
MBPWVaR5kJxtFGsrLY64zQ,North Penn Animal Hospital,"Veterinarians, Pet Groomers, Pet Services, Pets, Pet Sitting, Pet Boarding",Lansdale,PA,19446,4.5
81KvpVnsuqAVk_hmIdUyxA,Academy of Animal Arts,"Veterinarians, Pets, Pet Sitting, Specialty Schools, Pet Groomers, Education, Adult Education, Special Education, Pet Services, Educational Services",Largo,FL,33770,4.5
E6q307gl2nt5q0cGHnOknQ,Caudle Veterinary Clinic,"Pets, Pet Services, Veterinarians, Pet Groomers, Pet Sitting, Pet Boarding",Nashville,TN,37216,3.0
RwF95o0ReSl_r30i9zoodg,Belmont Animal Hospital,"Pets, Veterinarians",Nashville,TN,37212,4.5
GXyqL_vPM3pNeFU2etrZAw,VCA Wellington Animal Hospital,"Pet Services, Veterinarians, Pets, Pet Groomers, Pet Boarding, Pet Sitting",Newtown Square,PA,19073,4.0
R2kH_HvHLztLMarUIPCOyA,The Neighborhood Veterinarian,"Pets, Veterinarians",Indianapolis,IN,46220,4.0
iAvSB4O6SpMAd2D0A9ueCg,Banfield Pet Hospital,"Pets, Veterinarians",Wilmington,DE,19803,2.0
1TAHFIs5ETVVB9X9R3Jwrw,VetIQ Petcare,"Veterinarians, Pets, Pet Services",Mccordsville,IN,46055,5.0
_nlNkEEMpjvcPIjs97IBIA,Animal Emergency Center,"Veterinarians, Pet Services, Emergency Pet Hospital, Pets",Collinsville,IL,62234,4.0
i8OIZHzrPhpy4MdaC1Cp_A,North Tampa Pet Hospital,"Pets, Pet Groomers, Pet Services, Veterinarians, Pet Stores",Tampa,FL,33647,3.0
5xRtZY8RW63maw1M5Le-4Q,City Cat Clinic,"Pets, Pet Stores, Veterinarians",Saint Louis,MO,63108,4.5
Nf5Y8HxkN0YJlNAgTVC9UQ,Hendricks Veterinary Hospital,"Veterinarians, Pets",Boise,ID,83703,4.5
emOsPgKHlOTqjZCt0yKn9A,Avenue Animal Wellness + Emergency,"Pet Hospice, Emergency Pet Hospital, Veterinarians, Pets, Pet Services",New Orleans,LA,70130,4.0
g7TOI4gLiofnEIwipjKjUg,Advanced Veterinary Hospital,"Pet Services, Pets, Veterinarians, Pet Boarding, Pet Sitting, Pet Groomers",Holiday,FL,34691,3.0
2gikq-ETMz-rtit02Ji9dw,Belcher Animal Clinic,"Pet Stores, Pet Sitting, Pet Services, Veterinarians, Pet Groomers, Pets",Clearwater,FL,33764,3.5
P-B7PWmnLG669ZmEQHTVrw,Leo's Pet Care,"Veterinarians, Pets",Carmel,IN,46032,4.5
i0KsavfVTGAL-qxTpUuRDQ,Banfield Pet Hospital,"Pets, Veterinarians",Tampa,FL,33647,2.0
DOV5nORyuZoljd3HWE3lhQ,Plymouth Animal Hospital,"Veterinarians, Pets",Conshohocken,PA,19428,4.0
Od6AA4JnBtoNvRayYb-W1w,Primary Veterinary Care,"Veterinarians, Pets, Pet Services, Pet Sitting",Gretna,LA,70053,3.5
AIXHlW6Y_1qUJrYQzZvKeA,Philadelphia Animal Hospital,"Pets, Veterinarians",Philadelphia,PA,19142,4.0
UVwJlQ9jZvoOmQxlFtxMDA,Noah's Stop 11 Animal Hospital,"Veterinarians, Pet Services, Pets",Indianapolis,IN,46237,3.0
6xyW0FwTkMz6f_TQvxyOFg,Klaich Animal Hospital,"Pet Boarding, Pet Services, Pets, Pet Sitting, Veterinarians",Reno,NV,89502,3.5
vqZ_kDC_1pQp8bHRmMOYjA,Pennsauken Animal Hospital,"Veterinarians, Pet Services, Pets",Pennsauken Township,NJ,08110,3.0
TCsOLjQDyxQdnI08Ed1kZg,Les Bois Veterinary Hospital,"Veterinarians, Pets",Boise,ID,83702,5.0
IG8S9LXe_PiIbbyZsiaNBQ,Hickory Pet Inn,"Veterinarians, Pet Groomers, Pet Services, Pets, Pet Boarding, Pet Sitting",Plymouth Meeting,PA,19462,3.0
Xz3GX2UyIjZuXde86qy0Hw,Boulevard Animal Hospital,"Veterinarians, Pets",Philadelphia,PA,19115,3.5
a4_6KvSONHhL0dOmJNnVVw,Girard Vetinary Clinic,"Veterinarians, Pet Services, Pets",Philadelphia,PA,19130,3.5
BI5dIh-uvATv4_3YOZLH_g,Animal Health Center of Franklin,"Veterinarians, Pets",Franklin,TN,37064,4.0
JnPYvw1rl1tVyAcO9H8SXQ,Acoma Animal Clinic,"Pet Services, Pets, Pet Groomers, Veterinarians",Tucson,AZ,85741,4.0
JxhQjCCZjsp2nohFiIFX8g,Binder Animal Hospital,"Pet Sitting, Emergency Pet Hospital, Pet Adoption, Pets, Veterinarians, Pet Boarding, Pet Services",Saint Louis,MO,63125,4.5
gRXCQLv4n2uOLeaxFESjAA,Animal Emergency of Hernando,"Pets, Veterinarians, Emergency Pet Hospital, Pet Services",Spring Hill,FL,34606,3.5
iY8FpFaR9jVyhKQHQ00Tug,Southern Veterinary Center,"Pet Stores, Pet Services, Pets, Veterinarians, Pet Boarding, Pet Sitting, Pet Groomers, Emergency Pet Hospital",Smyrna,TN,37167,4.0
LRSI_QIIKbCM-bF5GOUdKw,Brandon Lakes Animal Hospital,"Veterinarians, Pets",Riverview,FL,33578,4.5
-cokDn-wMi53d7waivm05g,Cross Keys Animal Hospital,"Veterinarians, Pets",Williamstown,NJ,08094,4.0
p_o6S-XZgn6dziGCn53yqw,Animal Medical Center,"Veterinarians, Pet Sitting, Health & Medical, Pet Services, Pets, Pet Groomers, Medical Centers",Brandon,FL,33511,3.0
7kN-O0L9DCOjlFG5tct5Lw,Hope Animal Hospital,"Veterinarians, Pets",Fenton,MO,63026,3.5
nR7GdVAJzWpjB4WT6jIVQg,Natchez Trace Veterinary Services - Franklin,"Veterinarians, Pets",Franklin,TN,37064,4.5
00BdDTt3uj5xALjq3wTLbw,Banfield Pet Hospital,"Pets, Veterinarians",St. Petersburg,FL,33709,3.0
c5wyFosnd8gmBBXBs9Bovw,Aba Abraam Animal Hospital,"Veterinarians, Pet Services, Pet Sitting, Pets",Tampa,FL,33624,4.0
k-RXK0z-_AWNr-xCGVdzQw,Pinion Veterinary Hospital,"Emergency Pet Hospital, Veterinarians, Pet Stores, Pets, Pet Services",Reno,NV,89511,4.0
VIsEKQ_i3ofOPybKVJ2THA,Elm Hill Veterinary Clinic,"Pets, Veterinarians",Nashville,TN,37214,4.5
pS2F2fM7gaE5FteQVYG79w,Nature Coast Mobile Veterinary Services,"Veterinarians, Pets",Spring Hill,FL,34609,5.0
BCyvJxdSZGsAxsyNXWkZmQ,VCA Advanced Veterinary Care Center,"Veterinarians, Pet Services, Emergency Pet Hospital, Pets",Fishers,IN,46038,3.5
ysV-2YeQpy_wY007SPj1ww,Yellow Dog Veterinary Clinic,"Pet Groomers, Veterinarians, Pets, Pet Services, Emergency Pet Hospital",Carmel,IN,46033,4.5
CAQFHyR3RIl-3ddNP0F2nA,ABC Veterinary Clinic,"Veterinarians, Pet Groomers, Pets, Pet Services, Pet Stores",Sparks,NV,89431,4.0
pNGOtya7jj220m-VRVP-CQ,Crossroads Pet Professionals,"Pet Groomers, Pet Sitting, Veterinarians, Pets, Pet Services",Nolensville,TN,37135,3.0
4Kgsxa9ZoLefEJRBABnG2A,Geist Pet Wellness Clinic,"Veterinarians, Pet Services, Pets",Indianapolis,IN,46256,5.0
Y99d3oTmU-TWo7oGDauJlQ,Central Animal Hospital on Pinellas Point,"Veterinarians, Pet Services, Pets, Pet Sitting, Pet Groomers, Pet Boarding",St Petersburg,FL,33712,4.0
M54YgTqNenGObSv1opsGEg,Bree's Animal Hospital,"Pet Services, Pet Sitting, Veterinarians, Pets",Philadelphia,PA,19136,3.5
PBY0WaOgo5a4KeMXyw3FFQ,Hillsboro Animal Hospital,"Pet Services, Veterinarians, Pets",Nashville,TN,37215,4.5
wPqxxffL_sCbsgrZOjmKqw,HousePaws Mobile Veterinary Service of Mount Laurel,"Pet Services, Pets, Veterinarians",Mt. Laurel,NJ,08054,4.0
SpxWBXGj_kOg8dL5BsCsvg,Noahs Westside Animal Hospital,"Pets, Veterinarians, Pet Sitting, Pet Groomers, Pet Services",Indianapolis,IN,46224,4.0
UzEVGBkwXkiFpFvIuQPImw,Animal Wellness Centre of Wesley Chapel,"Pet Boarding, Veterinarians, Pets, Pet Services, Pet Sitting, Pet Groomers",Wesley Chapel,FL,33544,3.5
1Xp6b7m7QqTa2KTUv-t2oQ,Ajo Veterinary Clinic,"Veterinarians, Pets",Tucson,AZ,85713,2.5
AguBcWO7jsDOgGEMJwtUkA,Sulphur Springs Veterinary Clinic,"Pets, Veterinarians",Ballwin,MO,63021,4.5
9wVRkUSzK8NveuO0vaUhEA,Rothman Animal Hospital,"Pet Services, Pet Groomers, Veterinarians, Pets, Pet Sitting, Pet Boarding",Collingswood,NJ,08107,3.5
LecjpNIHHxgCngc7vNXBuQ,Hendersonville Animal Hospital,"Pet Groomers, Pet Sitting, Pets, Pet Services, Veterinarians",Hendersonville,TN,37075,3.5
YEA2klCK_Ls6mq9DFlspSQ,Eagle Animal Hospital,"Health & Medical, Hospitals, Pet Services, Pets, Veterinarians",Chester Springs,PA,19425,4.5
s48yzPNiQg0JCGXYZmdjFg,Planned Pethood,"Veterinarians, Pet Services, Pets, Pet Groomers",Zephyrhills,FL,33542,2.5
5AFi2TdSoHyJAs21dk_9_Q,Cherry Hill Animal Hospital,"Veterinarians, Pets",Cherry Hill,NJ,08034,4.0
8z_Z1NC2MfoiJb6hzuC26w,Banfield Pet Hospital,"Pets, Veterinarians",Metairie,LA,70003,2.5
63VWgDo8Qf6z8NeIuoOrhw,River City Veterinary Hospital,"Pet Boarding, Pet Services, Veterinarians, Pet Groomers, Pets, Pet Sitting",Meridian,ID,83646,4.5
9Q5GrEg9iy_RXuRkxIENVg,Society Hill Veterinary Hospital,"Pet Boarding, Pet Sitting, Pets, Veterinarians, Pet Services",Philadelphia,PA,19147,4.0
z_261rfEMUUdDGAXeyw65Q,Pet Supermarket,"Pet Services, Pet Groomers, Pet Stores, Pets, Veterinarians, Pet Adoption",Nashville,TN,37214,4.0
mP5eg1NOruFUgLobCJ15Ug,Intermountain Pet Hospital,"Veterinarians, Pet Services, Pet Sitting, Pets",Meridian,ID,83642,3.5
bsAFO1iBqUmvR2387PKm-A,West Deptford Animal Hospital,"Veterinarians, Pets",Wenonah,NJ,08090,2.0
ah3B5TN3cYUF4v7te-qlPQ,Lashley Animal Hospital,"Pets, Veterinarians, Pet Services",Swansea,IL,62226,3.5
rTiu8OpWFVYKSwryTQPnfw,Ruskin Animal Hospital,"Animal Shelters, Pets, Pet Stores, Veterinarians",Ruskin,FL,33570,4.5
GES_MJrStN1XRsRTZjCDSQ,Animal & Exotic Medical Ctr,"Pets, Veterinarians",Lutz,FL,33548,3.5
XLdqbdbf8QhKH6n9C5Tkig,Arizona Exotic Animal Hospital - Tucson,"Pet Services, Pet Boarding, Pets, Veterinarians, Pet Groomers, Pet Sitting",Tucson,AZ,85712,4.5
HjFBTNeRyy7zLSIpWap9bA,San Roque Pet Hospital,"Pet Services, Veterinarians, Pets, Pet Sitting",Santa Barbara,CA,93105,3.5
rGfGJhWNJAggoUMXt4EzYQ,Wiseman Animal Hospital & Boarding Kennel,"Pets, Pet Services, Veterinarians, Pet Sitting",Tucson,AZ,85712,3.0
vweXEfV0OPik2SabODF2Gg,North Bay Animal Hospital,"Pets, Pet Sitting, Pet Services, Pet Boarding, Veterinarians, Pet Groomers",Tampa,FL,33615,4.5
QHccEcja9h1Wk0b1wWBnxg,Jefferson Animal Hospital,"Pets, Veterinarians",Saint Louis,MO,63104,4.5
etI6szM80bet8Ziq12nR5g,Hampton Animal Hospital,"Veterinarians, Pet Services, Pets",Saint Louis,MO,63139,4.5
nXCrbA77nrRY-fvG6zr6_A,Southern Animal Foundation Clinic,"Veterinarians, Pets, Pet Adoption",New Orleans,LA,70130,3.5
eN0Tqe0-r0BgFBFP32hCGw,Animal Allergy & Dermatology Center of Indiana,"Pets, Veterinarians",Indianapolis,IN,46268,5.0
3WEpcZHjyeevjwyiRfgOGw,Heart + Paw,"Veterinarians, Pet Services, Pets, Pet Groomers",King Of Prussia,PA,19406,4.0
gqwJxrdXimdw5LuXwEYjfQ,VCA Knightswood Animal Hospital,"Veterinarians, Pets",Philadelphia,PA,19154,4.0
hOm6-2J5vUuptJAbuoPZ9A,Pinelands Veterinary Clinic,"Veterinarians, Pets",Southampton,NJ,08088,4.0
Wuk2OinjTnS6DcqKLK7_Bg,Family Pet Hospital,"Pets, Veterinarians",Saint Louis,MO,63127,4.5
UA_U5stdkI2VKr9zJ_qjzg,Pet Wellness Clinics,"Veterinarians, Pet Boarding, Pet Services, Pet Sitting, Pet Groomers, Pets",Indianapolis,IN,46220,4.0
BVou6GarpR5u948P9PyAhQ,Acacia Animal Hospital,"Health & Medical, Pets, Pet Services, Veterinarians",Tucson,AZ,85719,4.0
nPCxCS6TVRrWjkmhqNQWQA,Essentials PetCare Veterinary Clinic,"Veterinarians, Pets, Pet Services",Port Richey,FL,34668,2.5
f_gBIZQ81YAlfh0QKNubVA,Whiteland Animal Clinic,"Pets, Veterinarians",Whiteland,IN,46184,2.0
e7hwGwixO2s_4_3guYP9ZQ,Beach Park Animal Clinic,"Doctors, Health & Medical, Pets, Veterinarians, Professional Services, Pet Boarding, Pet Services, Pet Sitting",Tampa,FL,33609,5.0
tDc9v2dYsiS8ro9r_C8jEQ,Busch Animal Hospital,"Pets, Veterinarians, Pet Services",Tampa,FL,33612,3.0
fh1C9e8S8HxvpgqCAAtUIg,Foxfield Veterinary Services,"Pet Services, Pet Groomers, Pet Training, Veterinarians, Pets",Downingtown,PA,19335,4.5
kBqIeKOU-j1NsRlXw3xCgw,Grand Central Veterinary Hospital,"Veterinarians, Pets",St Petersburg,FL,33713,3.5
iSoAybIwHuSPuT1DN_B48A,Doylestown Animal Medical Clinic,"Pets, Veterinarians",Doylestown,PA,18902,4.0
wt5UODrqq6PXmwGuH657qw,Connechusett Animal Hospital,"Veterinarians, Pets",Tampa,FL,33617,4.0
MRWGBW6CO8YrrtVDUyQ79Q,Bridgewater Veterinary Hospital,"Veterinarians, Pets",Bensalem,PA,19020,4.0
6YskAIqraecWP8Y9lE0dCA,Family Animal Hospital,"Pets, Veterinarians",Gibsonton,FL,33534,3.5
9sk5X2-wxIbc5HiwRlppWA,Horseshoe Lake Animal Hospital,"Pets, Pet Services, Veterinarians, Pet Groomers, Pet Sitting",Collinsville,IL,62234,4.0
cS4ZVC_m9Xoh2Xwi1ZhPNw,Howdershell Animal Clinic,"Pets, Pet Services, Veterinarians",Florissant,MO,63031,4.0
HHJ1GtHlkU8S-a7bTtzWgA,Roadrunner Vet Services,"Pets, Veterinarians",Plant City,FL,33565,2.0
LBpSANlxCAzyq6v-0uY7pQ,Longwood Veterinary Center,"Pets, Pet Services, Veterinarians",Kennett Square,PA,19348,5.0
h-5vG2SwsF7P2vpKXQlFoQ,Broadway Animal Hospital,"Pets, Pet Services, Pet Sitting, Veterinarians",Tucson,AZ,85719,3.5
medU2eXzP4esnvWK0FDWOA,McKays Mill Animal Hospital,"Pet Services, Pets, Veterinarians, Pet Groomers",Franklin,TN,37067,5.0
usglYqN_epkqcrEEhNNOyQ,Delaware County Animal Hospital,"Veterinarians, Pets",Upper Darby,PA,19082,4.0
-nro7PmIobE1wl-nkuK_jg,Russell C Dina Dr,"Pets, Veterinarians",Chalfont,PA,18914,4.5
WY_dcOTyRA-AgksCXiuYJA,Watson Road Veterinary Clinic,"Pets, Veterinarians",Saint Louis,MO,63109,4.0
myjPu84ts2IsQIFPlblHhg,Women's Animal Center,"Pets, Animal Shelters, Veterinarians, Pet Adoption, Pet Stores",Bensalem,PA,19020,2.5
loRvpXHsabdtkzlGOwO3sg,Pasco Veterinary Medical Center,"Health & Medical, Veterinarians, Doctors, Naturopathic/Holistic, Pets, Pet Sitting, Pet Services, Emergency Rooms",Lutz,FL,33559,2.0
m6WmvZtTYIDY0IO-RqPGHA,Valley Forge Animal Medical Center,"Pet Services, Veterinarians, Pets",Phoenixville,PA,19460,4.5
bCbqOAckEUBk31RYOOUL7g,"Fur De Lis Mobile Veterinary Services, LLC","Veterinarians, Pets",New Orleans,LA,70179,4.5
g3vLlcYE8kaXp8SiQnjpZA,Royal Pets Market & Resort,"Pets, Pet Groomers, Veterinarians, Pet Services, Pet Stores, Pet Sitting",Saint Petersburg,FL,33710,3.0
aaSjwkV4vfp21CgEhwJQbg,Trinity Oaks Pet Wellness Center,"Pet Sitting, Veterinarians, Pet Services, Pet Boarding, Pets",Trinity,FL,34655,3.5
KLrneepk6uk2aaTsTH5vbA,East Side Animal Hospital,"Veterinarians, Pets, Pet Services, Pet Sitting",Indianapolis,IN,46218,3.5
YceIYPMBP3oKcuEFhj2_Gg,BluePearl Pet Hospital,"Pet Services, Pets, Health & Medical, Emergency Rooms, Veterinarians",Langhorne,PA,19047,4.0
A0zVp_iZadoSrirJrSkpeQ,PAWS Spay/Neuter & Wellness Clinic,"Veterinarians, Pets",Philadelphia,PA,19146,3.5
kfWZmyHLlz06e2o0RmmaIg,Millis Animal Hospital,"Pets, Veterinarians",Saint Louis,MO,63117,4.5
cydvxwFaz2Na2KS7kRuIqA,Advanced Petcare,"Pet Groomers, Veterinarians, Pet Sitting, Pet Services, Pets",Reno,NV,89511,3.5
PZo_tLGVTZ3UWiJ8ATLfeg,Downtown St. Pete Vet Clinic,"Veterinarians, Pets",St. Petersburg,FL,33701,4.0
VRgaLnWRjUi16zjUfStKlw,Four Paws Animal Hospital,"Veterinarians, Pets",O'Fallon,IL,62269,3.0
Et7cp8doxT5-X_hEIHXoLQ,Olivette Veterinary Clinic,"Veterinarians, Pets",Saint Louis,MO,63132,3.5
dLbyqd8p6PDT-uHShnBSsA,Eye Care for Animals Reno,"Pets, Health & Medical, Ophthalmologists, Veterinarians, Doctors",Reno,NV,89511,4.0
8SYif-wXJy-V_ANy1TUvnw,Tyrone Veterinary Hospital,"Pets, Veterinarians",St. Petersburg,FL,33710,4.0
5eJ03HGRTrMTI6huGTSG2A,Villanova Veterinary Hospital,"Veterinarians, Pets",Wayne,PA,19087,5.0
kR-HIJxTW07phwkR5ha1ww,Orange Grove Animal Hospital,"Veterinarians, Pets, Pet Services, Pet Sitting, Pet Stores",Tucson,AZ,85741,4.0
vIuO4vXqlxq3f-O2QQerXg,Four Paws Veterinary Hospital,"Veterinarians, Pets",Riverview,FL,33569,4.5
edawMPUnXr_ZoeMPtqxB9w,River Ridge Veterinary Clinic,"Pet Services, Veterinarians, Pets, Pet Sitting",River Ridge,LA,70123,4.5
i5-SE5QnXbqYVAU3iguhFA,Banfield Pet Hospital,"Pets, Veterinarians",St. Petersburg,FL,33710,3.5
x_6WnTjBn1HPONh4m4fxLg,Big Easy Petshop and Rescue,"Pet Adoption, Pets, Pet Services, Veterinarians, Pet Groomers, Pet Stores",New Orleans,LA,70116,4.5
_Mwn4CjSoBXAc_eCeLDleg,Rover Veterinary Care,"Pet Services, Pet Hospice, Pets, Veterinarians",Reno,NV,89503,5.0
gHf8FdH8uLobt3zi3-dR4g,Hillside Animal Hospital,"Veterinarians, Pets, Pet Services, Pet Hospice",Saint Louis,MO,63110,4.5
U30mbA87ngPeyLBbn1KbfQ,Compassion Veterinary Clinic,"Pet Groomers, Pet Boarding, Pets, Pet Services, Veterinarians, Pet Sitting",Blue Bell,PA,19422,4.0
UsBbnlJH7S6P9i1exX5GFw,Bearss Animal Clinic,"Veterinarians, Pets, Pet Boarding, Doctors, Health & Medical, Pet Sitting, Pet Services, Cosmetic Surgeons",Tampa,FL,33613,4.5
B2LI33d3OdIohV4QXIzBDg,Prospect Park Veterinary Clinic,"Pet Services, Pet Sitting, Veterinarians, Pets",Prospect Park,PA,19076,4.5
639_g0sOgRqbrTRql6lcMQ,Animal Clinic South,"Veterinarians, Pets, Pet Training, Pet Groomers, Pet Services, Pet Sitting",St. Louis,MO,63129,4.5
JMXnP4yUccrKY7jgddAU6g,Fall Creek Veterinary Medical Center,"Veterinarians, Pets",McCordsville,IN,46055,4.0
zG168gCdOMBsC5T-wI22Lw,Dr.Stenzel Clearwater Animal Clinic,"Veterinarians, Pet Services, Pet Sitting, Pets",Clearwater,FL,33756,3.5
LfmKuEupt5D9HyNwAE58HQ,Chews Landing Veterinary Hospital,"Pets, Veterinarians",Laurel Springs,NJ,08021,4.0
b4z0wukKIcOT8cRcqjlIMg,Animal & Bird Medical Center,"Pet Services, Veterinarians, Pets, Pet Groomers, Pet Sitting",Palm Harbor,FL,34684,4.0
VJ5IYjesEBMjTRcWlkA96g,Animal Crackers Veterinary Clinic,"Veterinarians, Pet Services, Pets, Pet Sitting",Lansdale,PA,19446,2.0
Qwx9M_B-VIPz9dUEp7UnAQ,Normandy Animal Hospital,"Pets, Veterinarians",Saint Louis,MO,63121,5.0
LlpV9eZIDpo8-sg_cQBNDw,Paramount Animal Care,"Pets, Pet Services, Veterinarians",Meridian,ID,83646,5.0
-szUzcURg7HiWqliIplS1g,Advanced Veterinary Services,"Veterinarians, Pets",Seffner,FL,33584,4.5
yfEWxqHViPN9Eozk52S2IQ,Hazel Dell Animal Hospital,"Veterinarians, Pets",Carmel,IN,46033,4.5
7HS2Jw0172O5HY-E17h4aQ,Arizona Small Animal Clinic,"Pets, Animal Physical Therapy, Veterinarians, Pet Services",Tucson,AZ,85713,3.0
p-nrT6Vp-3MvlqQjEhKJJA,VCA Feline Medical Center,"Pets, Pet Groomers, Pet Sitting, Pet Services, Veterinarians, Pet Boarding",Reno,NV,89519,4.5
bV9H0P0wA6HGDmMdwWqEHQ,Banfield Pet Hospital,"Veterinarians, Pets",Plainfield,IN,46168,2.5
JlKFtRKMFhHs77p_1CAdGA,VCA Old Marple Animal Hospital,"Veterinarians, Pet Sitting, Emergency Pet Hospital, Pet Services, Pets, Pet Groomers",Springfield,PA,19064,2.5
O2NrKxxtjlSuIFbaR2dekQ,Keene Veterinary Hospital,"Pets, Veterinarians",Tampa,FL,33624,4.0
tc2eiIX-DAllTVoMBOYeag,Aspen Animal Wellness,"Pet Groomers, Pet Boarding, Pet Services, Pet Sitting, Pets, Veterinarians",Reno,NV,89511,4.5
0NrIUZI_THd9imP7KxqRPg,Southampton Veterinary Hospital,"Veterinarians, Pets, Hospitals, Pet Services, Health & Medical",Southampton,PA,18966,3.0
e-LFTUthOGE1IRIW3glbUg,Chalfont Veterinary Clinic,"Pets, Veterinarians",Chalfont,PA,18914,4.0
3mMzJVSWAEXPVd3Dp8_eTw,Quail Hollow Animal Hospital,"Pet Services, Pets, Veterinarians, Pet Groomers, Pet Sitting, Pet Boarding",Wesley Chapel,FL,33545,4.0
0RDBWH-rxrhrU5GLOzyOdQ,Dr. Kelly's,"Veterinarians, Pet Services, Pets",Tucson,AZ,85705,4.5
yZcXfrSxNG0nutrqe3Gccg,Veterinary Specialty and Emergency Care,"Pets, Veterinarians",Indianapolis,IN,46237,3.5
IAIvZEgTJDOm9N8zsEVPfQ,Abbott Animal Hospital,"Veterinarians, Pets",Tampa,FL,33624,5.0
oyuClKvOF8xJtouTaISCAw,Nashville Cat Clinic,"Pet Sitting, Pets, Veterinarians, Pet Services, Pet Boarding",Nashville,TN,37217,4.0
RXEAVxXxOg0STJTccxWQgg,Animal Emergency and Specialty Center,"Veterinarians, Pet Services, Pets, Emergency Pet Hospital",Reno,NV,89511,3.5
xq6r87e1NiYrNj-B3xj1Zw,Animal Medical Center of Mid-America,"Pets, Pet Adoption, Pet Groomers, Pet Services, Veterinarians",Saint Louis,MO,63110,3.5
NYLwoFp7I2K1z14oOmVuAQ,Rock Road Animal Hospital,"Veterinarians, Pet Boarding, Pet Adoption, Pet Services, Pet Groomers, Pets, Pet Sitting, Pet Stores",St Louis,MO,63114,4.0
v3jhAHsVHbte9k203-4KjQ,Abington Animal Hospital,"Pets, Veterinarians, Pet Services",Abington,PA,19001,2.0
Y0iaciHFb9vZvMhl9bbIRQ,Keystone Veterinary Emergency East,"Pets, Veterinarians",Philadelphia,PA,19127,4.5
gaVzHRfNPvLXy2BSJMhSSw,PetPT,"Veterinarians, Pet Services, Pet Hospice, Pets",Cherry Hill,NJ,08003,4.0
vPQjFux7H4phLVYeQH1oEA,Oracle Road Pet Clinic,"Pets, Veterinarians",Oro Valley,AZ,85737,5.0
LCfCcxqbbysEmz9D250qXg,VCA Neshaminy Animal Hospital,"Veterinarians, Pet Sitting, Pet Services, Pets, Pet Boarding, Pet Groomers",Oakford,PA,19053,3.0
L8Xd7I37rzXxblsmkiSGrQ,Foothill Pet Hospital,"Pets, Veterinarians",Santa Barbara,CA,93110,3.5
40SsXYsLnNIyCz8XAU0Nsw,All Valley Pet Clinic at Emerald,"Pet Groomers, Pets, Pet Services, Veterinarians",Boise,ID,83704,2.5
Qm8BdFNw9MxUnd1mlrslBA,VCA Range Pet Lodge,"Pet Training, Veterinarians, Pet Sitting, Pet Groomers, Pets, Pet Boarding, Pet Services",Carmel,IN,46032,3.5
2zznf4rq6hpNl_LixQfTRA,Morrisville Veterinary Hospital,"Pet Services, Pets, Veterinarians, Health & Medical, Doctors",Morrisville,PA,19067,3.5
XYHTCWAoz3MXgDaRzTRXWw,Valley Veterinary Clinic,"Pet Services, Pet Sitting, Pets, Veterinarians",Valley Park,MO,63088,4.0
iGBv6gINEs_EA7jmFZlMeg,Washington Crossing Animal Hospital,"Pet Services, Pets, Veterinarians",Washington Crossing,PA,18977,4.5
ikd7GPosjZNYezaQfoiWxw,Indy Paws Veterinary Hospital,"Veterinarians, Pets",Indianapolis,IN,46219,3.5
XGkqxJpcFgowB2ACFKyCnQ,Broad Ripple Animal Clinic,"Pet Services, Veterinarians, Pets",Indianapolis,IN,46220,4.5
tBoEKkOV_5NoMXqzfs_rng,Skyway Animal Hospital,"Pets, Veterinarians, Pet Sitting, Pet Services",Saint Petersburg,FL,33712,4.0
7GPO-vbaJ5EWQH24Y_V4HA,Gregory Veterinary Clinic,"Veterinarians, Pets",Tampa,FL,33612,4.0
fmz-vmPxtoLbkAij1AmdOQ,Brookhaven Veterinary Hospital,"Veterinarians, Pets",Brookhaven,PA,19015,4.0
wYOXNWBRnxe-zGMH60oETg,Starkey Ranch Animal Hospital,"Veterinarians, Pet Services, Animal Physical Therapy, Pets",Odessa,FL,33556,3.0
Y4fLQpY-VtSenkyEZ0j4yg,Dove Mountain Veterinary,"Pets, Veterinarians, Pet Groomers, Pet Services, Pet Sitting, Pet Boarding",Marana,AZ,85658,4.0
PwWCrphbmqJQfv1HrcoNvw,Liberty Veterinary Clinic,"Veterinarians, Pet Services, Pets",Philadelphia,PA,19128,4.5
Vn4ww0bYqyyR81eGSyhCEg,Valley Animal Hospital,"Pets, Veterinarians, Pet Services, Pet Groomers",Goleta,CA,93117,4.5
pvzY0w91I37xDBPM7QUPnA,Nashville Veterinary Specialists + Animal Emergency,"Health & Medical, Veterinarians, Pet Services, Neurologist, Emergency Pet Hospital, Internal Medicine, Doctors, Pets",Nashville,TN,37204,4.0
R-2x7m5HVx8Fk8xexFUS7g,Tampa Palms Animal Hospital,"Veterinarians, Pets",Tampa,FL,33647,4.0
SsWoVUQdkPR5vR_U90hCaQ,Natchez Trace Veterinary Services - Nashville,"Health & Medical, Acupuncture, Veterinarians, Pets, Alternative Medicine",Nashville,TN,37205,4.5
iKHCGFs4ckQyj1rI16cz2g,Humane Society of Southern Arizona,"Pets, Pest Control, Pet Adoption, Pet Stores, Veterinarians, Local Services, Animal Shelters",Tucson,AZ,85705,3.5
oAj2HoSzRb7PGpgD3Qai3w,Southeast Veterinary Specialists,"Veterinarians, Pet Services, Pets",Metairie,LA,70002,3.0
b3QCrODytZVWa4Rw0T7L-A,Oracle Road Pet Clinic,"Pets, Veterinarians",Tucson,AZ,85704,4.0
zJooocBtA66NaPK6mYS3Fw,Metropolitan Veterinary Associates,"Veterinarians, Pets",Norristown,PA,19403,4.0
xCGbDuoSdExS-twmCoBD2A,Companions Animal Hospital,"Veterinarians, Pets",Boise,ID,83706,4.0
fTsRRMgnR1z7rFmEW2k9Jw,Cross Creek Animal Medical Centre,"Pets, Pet Services, Veterinarians, Pet Groomers",Tampa,FL,33647,4.0
dnAOb9I2lZiw9rlnzB94nA,Your Pals Pet Hospital,"Pet Services, Veterinarians, Pets, Pet Groomers",Santa Barbara,CA,93111,3.5
XuHV-bNtFJOKrww0-OhZ8g,Atlas Rehabilitation For Canines,"Pet Services, Physical Therapy, Animal Physical Therapy, Health & Medical, Veterinarians, Pets",Santa Barbara,CA,93105,4.5
7V5CIcg00jLKKhFiJGHKOg,Sunshine Animal Hospital,"Veterinarians, Pet Services, Pet Sitting, Pets",Clearwater,FL,33759,3.0
WfGUqO5K6OP2yatM1c78jQ,Gulfport Veterinarian,"Pets, Pet Services, Pet Stores, Veterinarians",Gulfport,FL,33707,3.0
uPE5KO82vdLfJIzSfQZMfA,Low Cost Spay Neuter Clinic,"Pets, Veterinarians",Brownsburg,IN,46112,4.0
O6Q0GpcLPphh-jqKiN5nEQ,Meridian Veterinary Hospital,"Pets, Emergency Pet Hospital, Pet Services, Pet Groomers, Veterinarians",Meridian,ID,83642,4.5
S98MZJQRzoJ4KBXj1D6vFQ,Peaceful Pet In Home,"Pet Services, Veterinarians, Pet Cremation Services, Pet Hospice, Pets",Tucson,AZ,85749,5.0
l4L4Cd9zkmqluSvBmeHD4A,Meridian Veterinary Clinic,"Pet Boarding, Pet Services, Pet Sitting, Veterinarians, Pets",Greenwood,IN,46142,4.5
0iylAbRUKVOM7c2X5FUCuw,Walk-In Veterinary Care,"Veterinarians, Pets, Pet Services",Apollo Beach,FL,33572,4.5
rJdzuHoYBU1iukuBxeklqQ,Mountain View Animal Clinic,"Pet Services, Pet Training, Veterinarians, Pets",Vail,AZ,85641,4.5
CiYvbHvOlQFuF6d8yD3PDA,Dunedin Animal Medical Center & Pet Resort,"Pet Services, Veterinarians, Pet Sitting, Pets",Dunedin,FL,34698,3.0
r5uqdJ68CGhOKVhKr0QXAQ,Helping Hands Pet Care,"Pet Transportation, Veterinarians, Dog Walkers, Pet Groomers, Pet Services, Pet Sitting, Pets",Nashville,TN,37206,5.0
pa0ddoFh2ctHt7FxIMOa0Q,Avian and Exotics Center of Nashville,"Veterinarians, Pets",Old Hickory,TN,37138,3.5
uGYEgY1VSHYAdBc7w5AFjA,Loving Touch Animal Clinic PA,"Pets, Veterinarians",Newark,DE,19702,4.0
GReXjEvDNu_q5zZ6vHEUmw,Cat Calls Mobile Veterinary Service,"Pet Hospice, Home Services, Pets, Pet Services, Veterinarians",Santa Barbara,CA,93120,5.0
ENjiouurEKqvfEyDIqWj3w,Banfield Pet Hospital,"Veterinarians, Pets",Largo,FL,33770,2.5
UEbXANIwhafexfkjRg6wbA,Keystone Veterinary Emergency & Referral,"Pets, Pet Services, Veterinarians, Urgent Care, Health & Medical",Havertown,PA,19083,3.5
n9T38BkbtBk6RTGk_-HvlQ,Old Webster Animal Hospital,"Veterinarians, Pets",Saint Louis,MO,63119,4.5
xfTpjz09FW_JCiDZnpQufQ,Delaware SPCA,"Pets, Pet Services, Pet Adoption, Veterinarians, Community Service/Non-Profit, Animal Shelters, Local Services",Newark,DE,19713,4.0
2QrhyX0-nb5AQ4Ht5hONjQ,Lansdowne Veterinary Hospital,"Pets, Pet Services, Veterinarians",Lansdowne,PA,19050,5.0
e9vuO_8JVcHMf7yzwbfBGw,Donald R Kreider,"Veterinarians, Pets, Pet Services",Southampton,PA,18966,4.0
JmKSUljyPmz26QBADsVkLA,Woodbourne Animal Clinic,"Pets, Pet Cremation Services, Pet Services, Veterinarians",Woodbourne,PA,19047,4.5
vN9AYCDR5aYclwuYrr4Cgw,Veterinary Medical Clinic,"Pets, Veterinarians",Tampa,FL,33629,4.0
xoUGymbl33hY6W8fZ2m34Q,North Boise Veterinary Clinic,"Veterinarians, Pets",Boise,ID,83702,4.5
S_akgAEPaeOyKHVMoCChqw,Northwest Animal Hospital,"Veterinarians, Pets",Boise,ID,83704,3.5
5db2mcBy4V6cZpkKNweMCA,Baycrest Veterinary Hospital,"Veterinarians, Pets",St. Petersburg,FL,33704,3.0
ezw-xjnad4Q8yR8TXQAMpw,VCA Bayonet Point Animal Hospital,"Veterinarians, Pets",Port Richey,FL,34668,2.5
0q5bPDn8FVEnMnETzCBofQ,Crescent City Veterinary Hospital,"Pets, Veterinarians",New Orleans,LA,70115,4.5
CAeKVO0dKw1HPfPumsAnDw,Chesterfield Veterinary Clinic,"Pets, Veterinarians",Bordentown,NJ,08505,4.5
PlKlQvC8LMeGTNNX3fq7UA,Hyde Park Veterinary Clinic,"Pets, Holistic Animal Care, Pet Boarding, Veterinarians, Pet Sitting, Pet Transportation, Pet Services",Tampa,FL,33606,4.5
KC_xYmpNdPZ60fxcwZwaOQ,Animal Medical Center of Reno,"Veterinarians, Pets",Reno,NV,89502,4.5
m_MhARWbbYZIPHfOMnnZ6A,Liberty Vet Pets - Veterinary Hospital & Home Visit Services,"Pet Groomers, Pet Services, Veterinarians, Pets",Philadelphia,PA,19103,4.0
ph2bnD3pxMbnYO1ULRrZXw,Hermitage Animal Clinic,"Pet Services, Pet Sitting, Veterinarians, Pets, Pet Groomers",Hermitage,TN,37076,3.5
-cIDPaPrZislxaNSajI3Pg,Broad Ripple Pet Wellness Clinic,"Pets, Veterinarians",Indianapolis,IN,46220,5.0
lrDEjfPgKHDROYDabRL9bQ,THRIVE Affordable Vet Care - Metairie,"Veterinarians, Pets",Metairie,LA,70002,3.0
_bEhJ3157xoM-Sg93X6oQw,VCA Swengel Animal Hospital,"Pets, Veterinarians",Indianapolis,IN,46227,4.5
jFMB0Mc9QaXcdPxYTOEp8w,IndyHumane Downtown Clinic,"Pets, Veterinarians, Pet Adoption, Animal Shelters",Indianapolis,IN,46222,5.0
Iph3_HQqCYwOB07d0Kc_TA,Battleground Hospital For Animals,"Veterinarians, Pets, Pet Groomers, Pet Services, Pet Boarding, Pet Sitting",Franklin,TN,37064,4.0
80BS4ZsFZz4IV2WX3HLtMQ,Banfield Pet Hospital,"Veterinarians, Pets",Nashville,TN,37209,2.0
Ev6eiJULd9V4g9UteCnowg,Maple Small Animal Clinic,"Veterinarians, Pets",New Orleans,LA,70118,4.5
2oFeY8vJy_ujQPbmmnKSdw,Reno Hospital For Cats,"Pet Services, Pet Groomers, Veterinarians, Pets, Pet Sitting",Reno,NV,89502,3.5
FGBDO7cx2wLaYB8sszZ2wA,Central Animal Hospital,"Pets, Pet Groomers, Pet Services, Veterinarians, Pet Boarding, Pet Sitting",Saint Petersburg,FL,33703,3.5
7aMFNc_R-W2jOrUoNnnQoQ,BluePearl Pet Hospital,"Pets, Emergency Pet Hospital, Veterinarians, Pet Services",Goodlettsville,TN,37072,4.0
_iddVnKMw2vE5bvvPaaaNw,Banfield Pet Hospital,"Veterinarians, Health & Medical, Pets, Hospitals",Mount Juliet,TN,37122,3.5
JaXdU6w5R7rZ4M_6jHXAeQ,Allergy Ear & Skin Care For Animals,"Veterinarians, Pets",Bensalem,PA,19020,2.0
xUWjJzplLy6SiYL413VUaQ,Pet Vet Clinic,"Veterinarians, Pets",Philadelphia,PA,19148,3.5
wUcbXs4CpLxp233rWbAUbA,Low Cost Animal Medical Center,"Pets, Local Services, Veterinarians, Community Service/Non-Profit",New Orleans,LA,70125,3.5
Cx2HsovaJGPXBBuMOmPxuQ,Mount Rose Animal Hospital,"Veterinarians, Pets",Reno,NV,89511,4.0
a8Dd8uNFxfQjCSKpkP34HQ,Queen Village Animal Hospital,"Veterinarians, Pets",Philadelphia,PA,19147,4.0
jm04iLnGf4sv-_sPRjeEzg,Peticote Veterinary Clinic,"Veterinarians, Pets",Southampton,NJ,08088,3.5
Fg9n7bqs3xqjA7wFAD4WUA,Northdale Animal Hospital,"Health & Medical, Pets, Pet Groomers, Pet Services, Doctors, Veterinarians, Pet Sitting",Tampa,FL,33618,3.0
5cetuBaAPdNEi_8R2rrEEQ,Banfield Pet Hospital,"Veterinarians, Pets",Castleton,IN,46250,2.5
oNOcZiGT9rbthvcK5dJUSQ,Lebanon Road Animal Hospital,"Veterinarians, Pets",Hermitage,TN,37076,4.0
V7SYFO7IIVMTCDDfmXn3zA,Carmel Clay Animal Hospital,"Pets, Veterinarians",Carmel,IN,46032,5.0
Fzx5FLdDPAV9pqS4Vsq8Tg,Plummer Pet Hospital,"Pet Services, Veterinarians, Pets",St. Petersburg,FL,33710,5.0
6d9EbyqSm98kh-ZqAuRqLQ,VCA Cross Pointe Animal Hospital,"Pets, Pet Services, Veterinarians, Pet Sitting, Pet Groomers",Fishers,IN,46037,4.0
3KTYeRI53Xf3xL0eb2tEOQ,Bridgeport Veterinary Hospital,"Pet Boarding, Pets, Veterinarians, Pet Sitting, Pet Services",Bridgeport,PA,19405,4.0
0hYYZUVFcuYWCMUoxe_-vA,South Franklin Animal Hospital,"Pet Sitting, Veterinarians, Pet Services, Pet Groomers, Pets",Franklin,TN,37064,4.0
P0Ha6XpUbe-TKc_9ZaxeLg,Hatfield Veterinary Clinic,"Pets, Veterinarians",Hatfield,PA,19440,5.0
ism2oW6IxtrhToHtUVmv5g,Coast To Coast Cardiology,"Pets, Veterinarians",Santa Barbara,CA,93102,3.0
sCTfPizC9z-w5Uzr-hQWhw,Lakeside Animal Hospital,"Pet Services, Veterinarians, Pets",Hermitage,TN,37076,4.0
mPlLmwqNDF8S9CP0KdOsRA,Collegeville Cat Clinic,"Pets, Veterinarians",Collegeville,PA,19426,3.5
JcdhFD4MFZXYFWvY0FY5TQ,Encanto Pet Clinic,"Pet Stores, Pet Services, Pet Sitting, Pet Groomers, Veterinarians, Pets",Tucson,AZ,85711,4.5
3DTIEl6fSwCWlXXdV9Yf8A,West 56th St Veterinary Hospital,"Pets, Veterinarians",Indianapolis,IN,46254,4.0
dbctCIrcDZSieSEoqkUxcg,Lakeside Animal Hospital,"Pet Sitting, Veterinarians, Pets, Pet Groomers, Pet Services, Emergency Pet Hospital",Metairie,LA,70002,3.5
lcmJN1X9y3xNiNgL7U_TCQ,Expressway Animal Hospital,"Pet Sitting, Veterinarians, Pets, Pet Boarding, Pet Services",Westwego,LA,70094,4.0
0FRp8znYZ_-8PNYFtMvleA,Animal Medical Clinic,"Pet Services, Veterinarians, Pet Sitting, Pets, Pet Groomers",Carpinteria,CA,93013,4.0
bkQYwwJ8D6YRytXPy8HtTQ,Gilbertsville Veterinary Hospital,"Pets, Veterinarians",Gilbertsville,PA,19525,4.5
yeFJB03m3baw6OMhngSPNQ,Northgate Small Animal Hospital,"Pets, Veterinarians, Pet Services, Emergency Pet Hospital, Pet Groomers, Pet Cremation Services",Collinsville,IL,62234,4.5
T-Gla5G6qefimLPGJ0i4Bg,Pope Animal Hospital,"Pets, Veterinarians",Alton,IL,62002,4.5
DyxX_CUhgmi6NqC6FcMvzg,Temple Terrace Animal Hospital,"Veterinarians, Health & Medical, Acupuncture, Pets, Pet Services, Pet Sitting",Tampa,FL,33617,4.0
Id-d3X5McJf9M0dL5v4r6g,Grantview Animal Hospital,"Veterinarians, Pets",Saint Louis,MO,63126,4.0
3G0RPYY_n2UO2GPHA35R-g,Jewell Animal Hospital,"Pet Services, Veterinarians, Pets",Saint Louis,MO,63109,5.0
p_7NzX2bRB1sy4vOh7pNvQ,St. Francis Pet Hospital,"Pets, Veterinarians, Pet Services, Pet Groomers",Camby,IN,46113,4.5
ouN67CfI7JrUUu8p4SBvuw,Affinity Veterinary Center of Malvern,"Pets, Veterinarians, Pet Sitting, Pet Services, Pet Groomers",Malvern,PA,19355,4.5
XHt2epLtZ8LV0XwHLRz7JA,VCA Carrollwood Cat Hospital,"Pet Sitting, Pet Groomers, Pets, Veterinarians, Pet Services",Tampa,FL,33618,4.0
vHTTnNFMd9EN4rnkJ6woSg,Eye Center For Animals,"Pets, Veterinarians",New Orleans,LA,70119,3.0
zD1skrq64gXIjf5aX9llzw,Banfield Pet Hospital,"Pets, Veterinarians",Brentwood,MO,63144,3.5
S28h3LA55rerKyQbS6xgAw,Harmony Vet Care,"Veterinarians, Pets",Tampa,FL,33615,3.5
-GJCEanNnPvwW5YggyECow,BluePearl - Tampa,"Veterinarians, Pets, Emergency Pet Hospital, Pet Services",Tampa,FL,33614,3.5
sGIpffZHg1FC-B3piY56lw,Augusta Animal Clinic,"Pet Groomers, Pet Services, Pet Sitting, Veterinarians, Pet Boarding, Pets",Indianapolis,IN,46268,5.0
9u90_FSluaf9qwbw5WF6TA,Tampa Veterinary Hospital,"Pet Adoption, Pet Sitting, Pets, Pet Services, Veterinarians, Emergency Pet Hospital",Tampa,FL,33606,3.5
p3ngJh8NKX2AN1JB9OK5Rg,Canal Street Veterinary Hospital,"Veterinarians, Pet Services, Pets, Pet Sitting, Pet Groomers",New Orleans,LA,70119,4.5
hhP35cD8fnYmzn9g6ffjxA,Baycrest Animal Clinic,"Veterinarians, Pets",Tampa,FL,33615,4.0
oPype7wj8s3t7KZ4jTlWMw,Banfield Pet Hospital,"Pets, Veterinarians",Brandon,FL,33511,2.5
hdIoNPJdiwa0k6pw844oGA,The Bridge Clinic,"Veterinarians, Pets, Pet Groomers, Pet Services, Pet Adoption",Newtown,PA,18940,4.0
0UmWgTWcdj6CK_FPdM2Mnw,Limerick Veterinary Hospital,"Pets, Pet Services, Veterinarians, Pet Training, Pet Sitting",Limerick,PA,19468,3.5
0eZBo7TTOUCSB3J5TDpe9Q,Animal Health Hospital,"Veterinarians, Pets",Boise,ID,83709,4.5
IPAX0ZBMMLQ-53GKVeZDcQ,Animal Medical Center,"Veterinarians, Pets",Trappe,PA,19426,3.5
Yn93sx-GKw4mwMd2d0172g,Animal Emergency of Pasco,"Pet Services, Emergency Pet Hospital, Veterinarians, Pets",Port Richey,FL,34668,3.5
XvCGAQLC9y6lfHuf1R_L3g,Leo's Pet Care,"Pets, Veterinarians",Carmel,IN,46280,4.5
RQJ0f2vUvfDartuciAtAhw,One Love Veterinary Clinic,"Pet Services, Veterinarians, Pets, Pet Groomers, Pet Sitting",Philadelphia,PA,19144,4.0
N2o0ildiQXq3kG7I4voeNw,Banfield Pet Hospital,"Veterinarians, Pets",Richmond Heights,MO,63117,4.5
VFdcNlKVFGEncasCxdsyOQ,Vet To Pet,"Veterinarians, Pets",Reno,NV,89506,5.0
GjXVBSOEcq_LmkuNl8r42w,Westwood Hospital For Animals,"Veterinarians, Pets",Brownsburg,IN,46112,3.5
BTV1oCzHcguAMs6JnEX3rw,Adobe Pet Hospital,"Veterinarians, Pets",Santa Barbara,CA,93105,4.5
v43sH62YQMO60zIiLR65DA,Unleashed,"Pet Services, Pet Stores, Pets, Pet Training, Veterinarians, Pet Groomers",North Wales,PA,19454,5.0
65X66k6nn2YaOFANEPX69g,Bayshore Animal Hospital & Avian Practice,"Pet Services, Veterinarians, Pet Sitting, Pet Groomers, Pets",St. Petersburg,FL,33709,4.0
h2JR5PTgZh6ws04eoVfZlw,Wildlife Clinic at the Schuylkill Center,"Veterinarians, Special Education, Education, Animal Shelters, Pets, Specialty Schools",Philadelphia,PA,19128,3.0
-ep5B76zLTBdFHCbNEWTeg,VCA Algiers Animal Hospital,"Pet Boarding, Veterinarians, Pets, Pet Sitting, Pet Groomers, Pet Services",New Orleans,LA,70114,4.0
JpnxGhnPCiNrUiUg3fseUQ,Eastwood Animal Clinic,"Veterinarians, Pets",Indianapolis,IN,46220,4.0
CAdWca4gHkpiUWVaYbONjQ,Animal Birth Control,"Local Services, Veterinarians, Pest Control, Pets",Tucson,AZ,85711,3.5
XxSIrbHqVMdEzP30-DN20g,Louisiana SPCA,"Pet Stores, Pets, Veterinarians, Pet Training, Animal Shelters, Pet Services",New Orleans,LA,70114,4.0
dXY5V8-1vHaTkYnFmZdXMA,Haddon Vet,"Pets, Veterinarians",Haddon Heights,NJ,08035,5.0
jMi-FFOZMaYH9JccdBTvEA,Burl-Moor-Driben Animal Hospital,"Pet Sitting, Pet Services, Pets, Veterinarians",Moorestown,NJ,08057,4.0
OzuB2K6rH_kO7WGcs1rUEw,Pleasant View Animal Hospital,"Pets, Veterinarians",Pleasant View,TN,37146,5.0
yp3zLXEswZRxyi2NtcC-xQ,Gateway City Animal Clinic,"Veterinarians, Pets",Florissant,MO,63033,3.5
i2jIQG-Qjmy_KzDykcp6jQ,West Side Animal Clinic,"Pets, Veterinarians",Saint Louis,MO,63119,4.0
vOC0uAGl3Lo6364ik9r6-w,Banfield Pet Hospital,"Pets, Veterinarians",Wesley Chapel,FL,33544,2.0
9AKOTBgiglQzJPW35slibg,Westchase Veterinary Center and Emergency,"Pet Groomers, Pet Services, Pet Stores, Veterinarians, Pets, Animal Shelters, Dog Walkers, Pet Insurance, Pet Cremation Services, Pet Sitting, Pet Boarding, Emergency Pet Hospital",Tampa,FL,33626,4.5
Pr29174Jm462wJZdGl0JLw,Adobe Veterinary Center,"Pet Services, Pet Sitting, Pets, Veterinarians",Tucson,AZ,85749,4.0
6_cxCYuM5aXogmTLauDqwg,Creekwood Animal Hospital,"Pet Services, Hospitals, Health & Medical, Pets, Veterinarians",Pontoon Beach,IL,62040,5.0
0e_J3XCjMl4mWAuOgslOWw,Sublime Canine,"Pet Services, Pet Training, Pets, Veterinarians, Animal Shelters, Pet Stores, Dog Walkers",Tucson,AZ,85742,4.0
bGogXCmqk5JWH5LZNoSDxA,VCA Cat Hospital of Philadelphia,"Veterinarians, Pets",Philadelphia,PA,19103,3.5
Sf1WVErKrF7FeQbG4fPs2Q,Bryan Animal Hospital,"Pets, Veterinarians",Westampton,NJ,08060,3.5
dJqcU8fXtMslP6_uffRQZQ,Vista Hills Animal Hospital,"Pets, Veterinarians",Greenwood,IN,46143,3.5
e1ByAr-DGv6YUIt16-jdaw,City Way Animal Clinics - Mass Ave,"Veterinarians, Pets",Indianapolis,IN,46202,4.5
NcIL7U3U2mML-kGxRloMLA,Value Vet,"Pets, Veterinarians",Hermitage,TN,37076,3.5
KrLsMiflK9Zv8aNXiXGmXQ,Franklinville Animal Hospital,"Pets, Veterinarians",Franklinville,NJ,08322,5.0
XcJJWbEp7LoD_947ZYT17w,Steinbach Veterinary Hospital,"Pet Services, Pets, Pet Sitting, Pet Groomers, Veterinarians",Ambler,PA,19002,3.0
L1qeDOSDY3doA1Og7XzZFQ,Cat Clinic,"Veterinarians, Pet Boarding, Pet Groomers, Pets, Pet Sitting, Pet Services",Saint Louis,MO,63146,5.0
QehXrWbmkDyyFzpe8FdEhQ,Banfield Pet Hospital,"Pets, Veterinarians",O'fallon,IL,62269,3.0
eWzAsTuwi4CLxNqtoNnTzw,Animal Healing Center,"Pets, Veterinarians",Boise,ID,83706,4.0
XYRISJAPIcPSQbcmDVFkHQ,Van Alstine's Veterinary Clinic,"Pet Services, Pets, Veterinarians, Pet Sitting",Arnold,MO,63010,4.0
3WDNImmKW5yyBgzuq0h5gQ,Township Line Animal Hospital,"Pets, Pet Sitting, Veterinarians, Pet Services, Pet Boarding, Pet Groomers",Upper Darby,PA,19082,4.5
2aH6aGnelNotrH5oawGY_Q,Plaza Pet Clinic,"Veterinarians, Pets",Tucson,AZ,85741,4.5
CAZMPx9seo2c4RdwFL2r7g,Strickland Veterinary Clinic,"Veterinarians, Pets",Tucson,AZ,85716,4.0
IhKGIGNrO4LygkcXXItSCw,Spoiled Petz Grooming,"Pets, Pet Stores, Veterinarians, Pet Groomers, Pet Services, Pet Sitting",Reno,NV,89502,4.5
WSB9G-OpMRLiflzpHQ9qBQ,Ridgemoor Animal Hospital,"Veterinarians, Pets",Palm Harbor,FL,34685,5.0
HPZCMZW8ADX1Qgyul4cAcQ,Ark Animal Hospital,"Pets, Veterinarians",Edwardsville,IL,62025,5.0
bzkibO9uIGs2XM2rGfLO3A,Happy Pets Mobile Vet,"Pets, Veterinarians",Tampa,FL,33611,5.0
UB8U6X0LshmhU-3Pwdfwig,Radbill Animal Hospital,"Pets, Pet Sitting, Veterinarians, Pet Services, Pet Groomers",Philadelphia,PA,19116,4.0
uaYcwJRtybuCj2bOqADdOw,Duval Animal Hospital,"Veterinarians, Pet Sitting, Pet Services, Pets",Green Valley,AZ,85614,2.0
h8A2Xw1lCWEHBM8z6SD2lg,South Tampa Veterinary Care,"Pets, Veterinarians",Tampa,FL,33611,4.5
mPEhOHKNiDUV-hJYdo5s8w,Lemos Feed & Pet Supply,"Pet Services, Pets, Shopping, Pet Stores, Veterinarians, Livestock Feed & Supply",Goleta,CA,93117,5.0
LNbc9P1io7o6itNvXUdIyg,Circle of Life Animal Hospital,"Pets, Pet Services, Veterinarians, Pet Hospice",Tampa,FL,33613,4.5
aZTkyZzJP12Fu2QQwoABcw,All Pet Complex Veterinary Hospital,"Pet Sitting, Pet Cremation Services, Pet Insurance, Veterinarians, Pets, Pet Groomers, Pet Adoption, Pet Services",Boise,ID,83714,3.5
TefP0yKIYg0Kb5z4L39AuQ,Banfield Pet Hospital,"Veterinarians, Pets",Tampa,FL,33647,3.0
GIMOJKgjW4Izm9z6SS7r-g,Overland Animal Clinic,"Veterinarians, Pets",Saint Louis,MO,63114,4.0
5rQIUzk-rieVn0QH3AjtPw,The Vet Clinic of Palm Harbor,"Pets, Veterinarians",Palm Harbor,FL,34684,4.5
8jBNtfXZwhemfM2IxZU5zg,Sunrise Pet Clinic,"Veterinarians, Pets",Tucson,AZ,85718,4.5
gO_CCXeK06qYUdCAqzm3KQ,Gulf Animal Hospital,"Pets, Veterinarians",Saint Petersburg,FL,33707,4.5
L7dXstRtWUUV1TcehsRC1g,Richland Animal Clinic,"Pet Sitting, Pet Boarding, Health & Medical, Acupuncture, Veterinarians, Pet Services, Pet Groomers, Pets",Nashville,TN,37209,4.5
ikCYoiprokM8d7zrp1OJPw,Indy Veterinary Care,"Veterinarians, Pets",Philadelphia,PA,19123,5.0
GduVcuk-t53JHpVWRDrnZA,Two Rivers Veterinary Hospital,"Pets, Veterinarians",Nashville,TN,37214,3.5
doVHlkixgnKwkWSYsVODsg,Florissant Animal Hospital,"Veterinarians, Pet Services, Pet Sitting, Pets",Florissant,MO,63031,4.0
tf_RD35qXY86878vUY2qWQ,All Creatures Animal Hospital,"Pets, Pet Boarding, Pet Sitting, Pet Training, Veterinarians, Pet Services",Lutz,FL,33549,4.0
Bi6VtAzrGRMMyKQ1O5vasA,Ina Road Animal Hospital,"Pet Services, Veterinarians, Health & Medical, Pets",Tucson,AZ,85741,3.5
N8TKWzDx4mnVkRHTPv6q4A,World of Animals at South Philadelphia,"Pets, Veterinarians, Pet Services",Philadelphia,PA,19148,5.0
__QqLzVxwrrdBuc-5evfqA,Windermere Animal Hospital,"Pet Boarding, Pet Services, Pet Sitting, Pet Groomers, Pets, Veterinarians",Fishers,IN,46037,4.0
ba8I63THxRf2h5UGJ-d8aA,Bogey Hills Animal Hospital,"Veterinarians, Pets, Pet Groomers, Pet Services, Pet Sitting, Pet Boarding",St. Charles,MO,63303,4.0
ZbWo3VucWGvHbK_BOBS64g,Rancocas Veterinary Associates,"Veterinarians, Pets, Pet Services, Pet Groomers",Mount Holly,NJ,08060,4.0
iM0yBZJhp3ukK-JWUXSsEg,VetCheck Pet Urgent Care Center,"Veterinarians, Pets, Pet Services, Emergency Pet Hospital",Fishers,IN,46038,4.0
gKABkTrLaJ_m5APX7Lcfww,GentleCare Pet Hospital,"Veterinarians, Pets, Pet Services",Land O Lakes,FL,34639,4.0
sdlGXVPbuOfPaUmeBzs-qg,Southshore Animal Hospital at Frenchman's Creek,"Veterinarians, Pet Services, Pets, Pet Groomers, Pet Boarding, Pet Sitting",Metairie,LA,70001,4.0
iK_T56DTbThoxtI7mJpzPA,Webster Groves Animal Hospital & Urgent Care Center,"Pet Stores, Veterinarians, Pet Services, Pets, Pet Boarding, Pet Sitting",Saint Louis,MO,63119,2.5
kDtdarMoTI39hfxGunp-aQ,Big Bend Animal Hospital,"Pet Groomers, Pet Services, Veterinarians, Pet Sitting, Pet Boarding, Pets",Riverview,FL,33579,3.0
AiRBJzlYSl_Lt-rD7yJO1g,Sunset Veterinary Surgery,"Veterinarians, Pets",Clearwater,FL,33765,5.0
MlVhRaJjXS_NVj6P87Ja2g,Vetcare,"Veterinarians, Pets",Tampa,FL,33610,3.5
aKFMh6E92Z5l_X2TIogjtg,THRIVE Affordable Vet Care - New Tampa,"Pets, Veterinarians",Wesley Chapel,FL,33543,2.5
GYqKhywHhwVZpPU5jA4Swg,Gladwyne Animal Hospital,"Veterinarians, Pets",Gladwyne,PA,19035,4.0
QyNZHV-iOHuPPisR8IBjtQ,Lake Animal Hospital,"Pets, Veterinarians, Pet Sitting, Pet Services, Pet Boarding, Pet Groomers",Metairie,LA,70005,4.0
cQN-pU2TpCcf3fluq9n04Q,Animal Birth Control Wellness & Vaccination Clinic,"Pet Hospice, Veterinarians, Pets, Pet Groomers, Pet Services",Tucson,AZ,85713,3.0
iSyt-cIWCx5C-rSOY3ViHg,Montecito Pet Hospital,"Pets, Veterinarians, Pet Sitting, Pet Groomers, Pet Services",Santa Barbara,CA,93108,4.0
Ph_yIj38ktXdOTFPJCyCnA,St Francis Pet Care Center,"Veterinarians, Pets, Pet Services, Pet Sitting, Pet Groomers",Tarpon Springs,FL,34688,4.0
N7Zhs9QUcBtQjFZZouqLkQ,St Bernard Veterinary Hospital,"Pet Services, Veterinarians, Pets, Pet Sitting, Pet Groomers",Chalmette,LA,70043,5.0
9q1Gb47acLzD2UqovzjeUQ,VCA Gwynedd Animal Hospital,"Pet Services, Veterinarians, Pets",Lansdale,PA,19446,2.5
tuSe2bgcxN70Q8aRJDoLOg,Hopewell Veterinary Hospital,"Pets, Veterinarians, Pet Sitting, Pet Services, Pet Groomers",Jenkintown,PA,19046,4.0
XZ-YeHZG4Pt1Pvc2EZZGyA,Agee's Pet Crematorium,"Local Services, Pets, Pet Services, Veterinarians, Pet Cremation Services, Funeral Services & Cemeteries",Harvey,LA,70058,5.0
lssH9hidgZrH7b8aVqOlgw,Morgan Animal Hospital,"Pets, Veterinarians",Brandon,FL,33511,4.5
yw8CBHbTmB5zrChvzt82VA,Main Street Animal Clinic,"Veterinarians, Pets",Philadelphia,PA,19127,4.0
rhDLBy0khm0SrA2LleGnKA,Delaware Valley Veterinary Hospital,"Pet Sitting, Pet Services, Veterinarians, Pets",Mullica Hill,NJ,08062,3.0
SKLSw-Kwk9dwN_y_okAe2Q,Veterinary Specialty Services,"Veterinarians, Pets",Ballwin,MO,63021,3.5
HZyMkNKL35RmUqLq-9TaDQ,Rosemont Pet Clinic,"Pets, Veterinarians",Tucson,AZ,85711,4.5
lwISuq-DzbMLSVFv6_4gYA,Brandywine Hundred Veterinary Hospital,"Pet Services, Pets, Veterinarians, Pet Sitting, Pet Groomers",Wilmington,DE,19809,2.5
S1QWfLBSYDvHxaf2Ntto4g,Pusch Ridge Pet Clinic,"Animal Physical Therapy, Holistic Animal Care, Veterinarians, Pets, Health & Medical, Chiropractors, Pet Services",Oro Valley,AZ,85755,3.5
c73u9ldCzH-da14T5rBXIw,Big Bend Veterinary Clinic,"Pets, Veterinarians, Pet Groomers, Pet Services",Saint Louis,MO,63117,4.5
2tkyR7gNF7RletwcuW466A,Brinkby Animal Hospital,"Pets, Veterinarians",Reno,NV,89509,5.0
dD0kqWFGXPOpbvl5H0bLsg,Animal & Bird Health Care Center & Hospital,"Pets, Emergency Pet Hospital, Pet Services, Veterinarians",Cherry Hill,NJ,08003,4.5
QO3la4pKH4A4d6nvjuhJOQ,VCA Village Park Animal Hospital and Range Pet Lodge,"Pet Sitting, Pet Groomers, Veterinarians, Pet Services, Pets",Carmel,IN,46032,3.5
GcvH3oNHzitdRnQgGWPjPw,Animal Coalition of Tampa,"Pets, Veterinarians",Tampa,FL,33614,3.5
9s0-69sssCrmgNL5cpbXFw,Guadalupe Veterinary Clinic,"Veterinarians, Pets",Tucson,AZ,85706,3.5
K7k3xqZE8kUevbiYNGRJlw,AA Animal ER Center,"Emergency Pet Hospital, Pet Services, Pets, Veterinarians",Palm Harbor,FL,34684,4.0
G4oTqhwYJ-4vdkw1gIDkDQ,Nolensville Veterinary Hospital,"Pets, Veterinarians",Nolensville,TN,37135,3.5
SryENT0PAcWQealsjFl33Q,Habitat Veterinary Hospital,"Pets, Veterinarians",Boise,ID,83716,4.5
1xp23mog4qomnGoG0Q3tDQ,Southside Animal Hospital,"Veterinarians, Pet Boarding, Pet Services, Pet Sitting, Pets",Nashville,TN,37211,4.5
wKwCbAACZRAqyZkQzeBNeg,Broadway Veterinary Hospital,"Veterinarians, Pets, Pet Services, Pet Sitting",Boise,ID,83706,4.0
4AcdwddXEY3kwnlhv7YL7g,Fort Washington Veterinary Hospital,"Pets, Pet Services, Veterinarians",Fort Washington,PA,19034,4.5
RfeWqnkdP7xCsiVrcJb6OQ,Hometown Animal Clinic,"Veterinarians, Pets",Boise,ID,83706,5.0
ACEmlIYHWuRKRD9aoKBruA,Miller Pet Hospital,"Pet Services, Pets, Pet Sitting, Veterinarians",Tucson,AZ,85712,3.5
EH-cgqLfrYdZmKdNM7kuyA,Trenton Veterinary Hospital,"Veterinarians, Pets",Trenton,NJ,08618,4.0
Xd2Sr1OwAzoa8O2D7aJROQ,Dale Mabry Animal Hospital,"Pets, Veterinarians",Tampa,FL,33629,4.0
wPYJMwLW6lb_ehC8tj50Vg,Affton Veterinary Clinic,"Pets, Veterinarians",St. Louis,MO,63123,5.0
91RQiAlkk30lyL31KXvSqA,Noah's Caring Hands Animal Hospital at Geist,"Pet Services, Pet Sitting, Veterinarians, Pet Groomers, Pets",Indianapolis,IN,46236,3.5
INrGSHyPafc1pCiFHot2sQ,Doylestown Veterinary Hospital & Holistic Pet Care,"Veterinarians, Pet Services, Holistic Animal Care, Pets",Doylestown,PA,18901,4.0
kVy1R-pgktdm4YR2XYoQzA,Gulf Coast Veterinary Center of Tampa,"Veterinarians, Pets, Pet Services, Emergency Pet Hospital",Tampa,FL,33625,5.0
qNlIjUnr8JCimckqfEmfFQ,5 Points Animal Hospital,"Veterinarians, Pets",Nashville,TN,37206,4.0
4vDuisl-FOJQys3llg9KQA,Banfield Pet Hospital,"Veterinarians, Pets",Nashville,TN,37204,3.5
miM0Bycd3kE4QNoZ5DwXyQ,The Animedic,"Veterinarians, Pet Groomers, Pets, Pet Sitting, Pet Services",Philadelphia,PA,19127,4.5
ZKpE-gz2tWrP_Z5w1fcEwQ,Pet Care Center Chalmette,"Pets, Veterinarians, Pet Sitting, Pet Services",Chalmette,LA,70043,5.0
S2azARnqJn0Bwl7G48n1Wg,Apollo Beach Animal Hospital,"Veterinarians, Pets",Apollo Beach,FL,33572,4.5
r1jTfU0J7eAkTD1aiYiMZg,Elkins Park Veterinary Hospital,"Veterinarians, Pet Sitting, Pet Services, Pets",Elkins Park,PA,19027,3.0
W0RcqVndy81h_B02JempkQ,VCA Sugar Grove Animal Hospital,"Pet Sitting, Pet Services, Veterinarians, Pets",Greenwood,IN,46142,4.5
NpwwFkbDQJz2VEb1nazKZw,Willingboro Veterinary Clinic,"Veterinarians, Pets, Pet Services",Willingboro,NJ,08046,5.0
cWQVz9NHjf5TtJpH9qxHAg,VCA Family Pet Resort,"Pet Groomers, Pet Services, Veterinarians, Pets, Pet Sitting",Newtown Square,PA,19073,2.5
ON6SaS6xLoqYHB-Uj-_RBg,BluePearl Pet Hospital,"Veterinarians, Pets",Malvern,PA,19355,3.5
w10mlifYeI5p-km3yBPjdw,Bellshire Family Vet,"Pet Boarding, Pet Services, Veterinarians, Pet Groomers, Pets, Pet Sitting",Nashville,TN,37207,5.0
X-4ihZoTwYDQe6WBjPLYAQ,Runaway Farm Pet Hospital,"Pet Boarding, Veterinarians, Pet Sitting, Pet Groomers, Pet Services, Pets",Pennsburg,PA,18073,4.0
5aXeCFIjmhGwiiOZFkleoA,Noah's Animal Hospital & 24 Hour Emergency Center,"Veterinarians, Pets",Indianapolis,IN,46226,3.0
97DCJIPZvfMLfFfu6ano6A,Paws to Heaven Pet Crematory,"Local Services, Pets, Funeral Services & Cemeteries, Veterinarians",Pennsauken,NJ,08110,3.0
mOC0my52X0rV_p0fK50vYA,Banfield Pet Hospital,"Veterinarians, Pets",Turnersville,NJ,08012,4.0
-D7Vo2CuNfBE-vwsOyVCFg,East-West Animal Hospital,"Pets, Veterinarians, Holistic Animal Care, Pet Services, Pet Adoption",chicago,FL,33549,4.0
xTj1jb8OvhgjAqoyKw0TLA,Harbor Springs Vet,"Veterinarians, Pets",Palm Harbor,FL,34684,5.0
50485bqT6M1ESoz63qxqnQ,Eagle Creek Animal Clinic,"Pets, Veterinarians",Indianapolis,IN,46214,4.5
V857YETBSpKXyQ2xeqUAiw,Animalia Health and Wellness,"Veterinarians, Pet Stores, Pets",Franklin,TN,37064,3.5
mRWr3FYaKCIfYdZ80nDpDQ,Southpaw Animal Health,"Pets, Veterinarians",Tampa,FL,33618,4.0
gIejfqV2NI_SxMaDw4t4hA,Sahuaro Vista Veterinary Clinic,"Veterinarians, Pets, Pet Services, Pet Sitting, Pet Insurance, Pet Cremation Services",Tucson,AZ,85704,4.0
x1wePBE8RMZtBgo9VgYJeg,BluePearl Pet Hospital,"Pet Services, Emergency Pet Hospital, Veterinarians, Pets",Conshohocken,PA,19428,3.5
AT7TxxCcOGCCC4zVFjS2ug,WAG: Whole Animal Gym,"Holistic Animal Care, Pets, Veterinarians, Animal Physical Therapy, Pet Services",Philadelphia,PA,19147,5.0
vYeWlWPXWadTXtv3biXbtg,West Chester Animal Hospital,"Pet Services, Veterinarians, Pet Groomers, Pet Boarding, Pets, Pet Sitting",West Chester,PA,19380,4.0
QYE2nV1SNZeRfv9UakFZCQ,All About Pets Veterinary Hospital,"Pets, Veterinarians",O Fallon,IL,62269,4.0
SxSPhtn-t2ESvXUX81EvLw,Community Pet Healthcare,"Pet Services, Veterinarians, Pets",Zionsville,IN,46077,4.0
XUh757BQOqMCXv4J4tCHtg,CenterGrove Animal Clinic,"Veterinarians, Pets",Greenwood,IN,46143,3.5
85NrQo6GppPwiyGJRPEHnQ,Philadelphia Animal Specialty & Emergency,"Pets, Emergency Pet Hospital, Pet Services, Veterinarians",Philadelphia,PA,19146,2.5
comOHkHCgjMXJ2nn6khivg,Desert Dove Veterinary,"Pets, Pet Services, Veterinarians, Pet Sitting",Tucson,AZ,85705,4.5
hV8JDC10YwB53NBeq2GPnA,Northwest Pet Clinic,"Emergency Pet Hospital, Pet Services, Veterinarians, Pet Hospice, Pets",Oro Valley,AZ,85737,4.0
fSYXDavIpIhhIPdkCVfk3w,City Cat Vets,"Veterinarians, Pets, Pet Services, Pet Sitting, Pet Boarding",Philadelphia,PA,19146,4.0
6nRTFCfS3CsIWyqOj-s9Lg,Royal Pets Market & Resort,"Pets, Pet Services, Pet Groomers, Pet Sitting, Pet Stores, Veterinarians",St Petersburg,FL,33710,3.5
9_kohfxDh8zyuu5LqMGcAg,Bluffs Animal Hospital,"Veterinarians, Pet Services, Pet Sitting, Pets, Pet Groomers",Belleair Blf,FL,33770,4.0
MlQdkHnTlfvQ2Pm6Qsuqjw,Airport Animal Emergi-Center,"Emergency Pet Hospital, Pet Services, Veterinarians, Pets",Indianapolis,IN,46241,4.5
vjApVeaV3iQzA2CTlIlr8Q,West County Animal Clinic,"Pet Boarding, Pet Services, Pets, Pet Sitting, Veterinarians",Ballwin,MO,63011,3.5
Afblq-8eVEJN5rbbS5DNpw,Root Animal Clinic,"Veterinarians, Pets",Goodlettsville,TN,37072,4.5
fpS_FV9P08nfaFCwsYSr5A,Sun City Center Veterinary Clinic,"Pets, Veterinarians",Sun City Center,FL,33573,4.5
I2aLjG9oM6OQCiE2vKiWDA,World of Animals at Bensalem,"Veterinarians, Pets",Bensalem,PA,19020,5.0
9fN_gMUeWksWl8U86NH2zg,Valley Veterinary Clinic,"Pets, Veterinarians, Pet Services",Reno,NV,89506,4.0
_q4He1zar_RQg8K5-O-oTg,Elizabeth McKinstry Veterinarian,"Traditional Chinese Medicine, Veterinarians, Health & Medical, Pets",Kennett Square,PA,19348,5.0
1r7A_KGMPnRicHJ1N7TqRg,Premier Vetcare,"Pets, Veterinarians",Smyrna,TN,37167,3.5
TaD8uoIrIj9jvbYKQA5vIw,Spay Neuter Idaho Pets - SNIP Clinic,"Pets, Pet Services, Veterinarians",Meridian,ID,83642,3.5
-dc49jsYqR2zNblJkB9i8w,Homeward Bound Veterinary Services,"Veterinarians, Pets, Pet Services, Pet Stores, Pet Hospice",Reno,NV,89523,5.0
olQpkwqtDi7VUEaCj-FeIQ,St. Charles Animal Hospital & Clinic,"Veterinarians, Pets",Saint Charles,MO,63301,5.0
LzqK938BFuT1qs4CEuQVVw,Community Animal Hospitals,"Pets, Veterinarians",Saint Petersburg,FL,33709,5.0
TIqYrzMd8KLMTR7TtLcfYQ,Bell Shoals Animal Hospital,"Pets, Veterinarians",Brandon,FL,33511,4.5
j9BQQL-bM55E1tPZN-zEyg,Continental Ranch Pet Clinic,"Pet Services, Veterinarians, Pets",Tucson,AZ,85743,4.0
_jLwA4Id5OxOhQaHn6jqBQ,Holland Vet Care,"Pet Services, Pets, Veterinarians",Holland,PA,18966,5.0
CtkasRd3d3bVa-hzzlnldQ,Animal Hospital of Seminole,"Pet Services, Pet Sitting, Pets, Veterinarians",Seminole,FL,33772,4.0
ZNiwfEFDwzjA7r8EOTiW-w,Somerton Animal Hospital,"Pets, Veterinarians",Philadelphia,PA,19116,4.5
ZhtqifpTZu3dGIWpWgtkEQ,Gateway Animal Hospital,"Veterinarians, Pets",Wayne,PA,19087,4.5
a6Ey0OAVSgPqCIDjFdyX9w,VCA Lakeside Animal Hospital,"Hospitals, Health & Medical, Pets, Veterinarians",Reno,NV,89523,4.0
YKVS3wATzExiWzNgYAsk2w,Cortaro Farms Pet Hospital,"Pets, Veterinarians",Tucson,AZ,85742,3.5
iSwT3_vaI-33bENqep_ECQ,MidCity Veterinary Hospital,"Veterinarians, Animal Shelters, Health & Medical, Pets, Pet Services, Pet Sitting, Hospitals",New Orleans,LA,70119,4.5
TCM-s82ee3yXbRxk8SHkTQ,Malvern Veterinary Hospital,"Pets, Veterinarians",Malvern,PA,19355,4.5
jWOBni-1svfLB8S-q2oTIw,Helping Hands Pet Hospice,"Pet Services, Health & Medical, Pet Hospice, Hospice, Veterinarians, Pets",Seminole,FL,33775,5.0
2M5uvXBq7F2D7SLOpPXp6g,The Cat Hospital On Park Street,"Veterinarians, Pets, Pet Boarding, Pet Sitting, Pet Services",Saint Petersburg,FL,33707,4.0
owfigsoil-TqqhHt1Gse0A,Jackpot Veterinary Center,"Veterinarians, Pet Services, Pet Boarding, Pet Sitting, Pets",Tucson,AZ,85704,4.5
VCxG5zT8-sTbaQZdCBKQ2Q,Advanced Veterinary Specialists,"Pets, Veterinarians, Pet Services",Santa Barbara,CA,93101,4.0
mw3I8r43vspvIzwHfhPGiA,Walden Lake Animal Clinic,"Pet Sitting, Pet Services, Pets, Veterinarians",Plant City,FL,33563,1.5
97nhUvaZ74Q4E1yHucV6WQ,"Gregory A Rich, DVM","Veterinarians, Pets, Pet Adoption, Pet Boarding, Pet Groomers, Pet Services, Pet Sitting",Metairie,LA,70002,4.5
HFyppqYDI-ydIH3kO4fxtA,Just For Cats,"Pets, Pet Services, Veterinarians",Folsom,PA,19033,3.5
nGUn0thU6KRCqtBzN4T_9Q,Broomall Animal Hospital,"Pets, Veterinarians",Broomall,PA,19008,3.5
M4UJSqkzKRxuHitfa9yMaA,Cheatham County Animal Clinic,"Pets, Pet Stores, Pet Groomers, Pet Sitting, Veterinarians, Pet Services, Pet Boarding",Ashland City,TN,37015,2.5
vHc3Kkedx_X3TmcJq00GfQ,Desoto Park Veterinary Clinic,"Pets, Veterinarians",New Orleans,LA,70119,5.0
WZdQeCpE1GkzVRiT1Ts_ZA,Ft Harrison Veterinarians,"Pets, Veterinarians",Indianapolis,IN,46216,4.0
WFtd_OVye3r8fgBnN6-Tqg,County Animal Hospital,"Veterinarians, Pet Training, Pet Services, Pet Stores, Pet Groomers, Pet Sitting, Pets",Ballwin,MO,63011,4.0
eudheHFAW1jSWGAQqREyJg,Anclote Animal Hospital,"Veterinarians, Pets, Pet Services, Pet Boarding, Pet Groomers, Pet Sitting",Tarpon Springs,FL,34689,4.5
4B2bDKMeBZB40cx3Il3lxQ,Vetria Pet Wellness & Surgical Center,"Pet Sitting, Pets, Emergency Pet Hospital, Pet Services, Veterinarians",Tampa,FL,33604,4.0
Rjh4lXJ0AwPmoyJN2HVQrw,Pets R Our World,"Pets, Veterinarians",Metairie,LA,70001,4.5
488F1T301DxmUeRVkQmvMQ,Banfield Pet Hospital,"Pets, Veterinarians",Brentwood,TN,37027,3.5
6JS6F1BxN2ssU_8kndzbvA,Metairie Small Animal Hospital - Lakeview / New Orleans Clinic,"Pet Services, Pet Groomers, Pet Sitting, Veterinarians, Pets, Pet Boarding",New Orleans,LA,70124,4.0
9yy_VhTksMlXnAqnzpji5A,Bentley Animal Hospital,"Pets, Pet Services, Pet Groomers, Veterinarians, Pet Sitting",Fenton,MO,63026,2.0
fDC5wylM5R2hh-VlJBmsEw,Andorra Veterinary Clinic,"Pet Services, Veterinarians, Pets",Lafayette Hill,PA,19444,4.0
q0KEAcD45KrL5umtdYp59w,Cottman Animal Hospital,"Veterinarians, Pets",Philadelphia,PA,19111,3.5
1xKQ1amzJB3yRhjyFT7VFQ,Avon Veterinary Clinic,"Pets, Veterinarians",Avon,IN,46123,4.0
8P6I_KaMKierSsd7hyMTIA,James A. Haley Veteran's Hospital,"Pets, Veterinarians, Health & Medical, Hospitals",Tampa,FL,33612,3.0
3Og0NNr06g0kCb_TMsjvVA,Banfield Pet Hospital,"Pets, Veterinarians",Fairless Hills,PA,19030,3.0
HKObR8MbLf49GrfWQQ-twA,Banfield Pet Hospital,"Pets, Veterinarians",Brandon,FL,33511,2.0
kn8bSaGz2jEX2YT6wuvKew,NOLA Animal Clinic,"Veterinarians, Pet Sitting, Pets, Pet Boarding, Pet Groomers, Pet Services",New Orleans,LA,70126,2.5
RXGubla80sr3tSAzVmAFAQ,Neabore Veterinary Clinic,"Veterinarians, Pets",Haddonfield,NJ,08033,5.0
NCG3ErZ3CWUb0M2yOw51qg,Dutton Road Veterinary Clinic,"Pet Stores, Veterinarians, Pet Services, Pets, Pet Cremation Services",Philadelphia,PA,19154,3.5
EvWLQ64mCBtMcooDqpokaQ,Animal Wellness Center,"Pets, Veterinarians",Chadds Ford,PA,19317,4.0
SFdXRsbk_FIJdHZw4zEHKw,Conchester Animal Hospital,"Veterinarians, Pets",Marcus Hook,PA,19061,4.5
YaIzfo7qOOiLdxMeMJl4_w,Haddon Veterinary Clinic,"Pets, Veterinarians",Haddon Heights,NJ,08035,2.0
4yk4EBxBO7UckQLjtWa0hA,Curbside Care Mobile Veterinary Clinic,"Pets, Veterinarians",Zionsville,IN,46077,5.0
TcshUzpdqWKremIOJkp6Zg,Florida Veterinary Specialists,"Pets, Veterinarians",Brandon,FL,33511,4.0
lozKK5qaaVvrQ3ucFnczvA,World of Animals - Elkins Park,"Pets, Veterinarians",Elkins Park,PA,19027,5.0
_EtMYFMk5RdlI7OvHkIiHA,VCA Airline Animal Hospital,"Veterinarians, Pets, Pet Services, Pet Groomers, Pet Sitting",Metairie,LA,70001,4.0
E4GXHnKzPH5ITNPZj_xsvw,Schwenksville Veterinary Hospital,"Veterinarians, Pets",Schwenksville,PA,19473,4.5
AWXIXCNv-UlMIrksJNfzXg,The Pet Mechanic,"Veterinarians, Pets",Philadelphia,PA,19122,4.0
2miq46m7hwk1VWR245R6JA,Banfield Pet Hospital,"Veterinarians, Pets",Cherry Hill,NJ,08002,3.0
C6BJnENxwsUWRoa_9i8Xfw,Homestead Veterinary Rehabilitation & House Calls,"Veterinarians, Pets",Havertown,PA,19083,4.0
axpFDmu905wnMdTYdFnBpg,High Ridge Animal Hospital,"Pet Groomers, Pet Sitting, Veterinarians, Pets, Pet Services",High Ridge,MO,63049,5.0
9aWHSwxOClB7fPbmoW2FDQ,Critter Clinic,"Veterinarians, Pet Services, Pet Groomers, Pet Sitting, Pets",Boise,ID,83704,3.5
0Kubo_mbEub98rz0LcvdGQ,Pet Point Animal Hospital,"Hospitals, Health & Medical, Pet Services, Pets, Veterinarians",Lutz,FL,33559,3.5
SE195AUc9LICwRXrDYf3Fw,Berlin Township Animal Hospital,"Pets, Veterinarians",West Berlin,NJ,08091,4.5
pwPqjvnFdfvGiBRpDk_RQw,Monument East Veterinary Hospital,"Veterinarians, Pets",Tucson,AZ,85748,3.5
-uylurvQI3bx5EXb9RrCsg,Animal Medical Center of Boise,"Veterinarians, Pets",Boise,ID,83709,4.5
1NCTbrIozSZH8S__Hdx3Xw,Bellevue Animal Hospital,"Pets, Veterinarians, Pet Sitting, Pet Services",Nashville,TN,37221,4.0
pZ54bzfwQmHaYBtM6baomw,South Side Animal Hospital,"Pets, Veterinarians",Indianapolis,IN,46227,4.5
8O5-0IYYTc9qjx3mxQkiXA,Washington Ave Animal Hospital,"Pets, Veterinarians",Philadelphia,PA,19146,4.0
U_uAg83mlbAagZ5QBBbvzQ,Noah's Ark Animal Hospital,"Pet Services, Veterinarians, Pets, Pet Sitting",Brentwood,TN,37027,4.5
74FjcL95XINhQH7swS-tzA,Veterinary Oncology Services & Research Center,"Veterinarians, Pets",West Chester,PA,19382,3.0
jCzAJKZ4-_eBhAaWUz-yUA,Daisy Lane Veterinary Clinic,"Pets, Veterinarians, Pet Services",Indianapolis,IN,46240,4.5
av3UsV5zqSVJOpel9r4hwg,Fetch Specialty & Cancer Veterinary Center,"Veterinarians, Pets",Brandon,FL,33511,4.5
56BRl5fGn1wd8PKxWl3J7w,Clementon Animal Hospital,"Pets, Veterinarians",Clementon,NJ,08021,3.0
TYIsQZJ4UvDrsGeYojmBIg,Abadie Veterinary Hospital,"Pet Groomers, Pets, Veterinarians, Pet Services, Pet Boarding, Pet Sitting",Harahan,LA,70123,3.0
BFc5IuSKo8ISyMI-nKiYCg,Creve Coeur Animal Hospital,"Pet Services, Veterinarians, Pet Boarding, Pet Sitting, Pets, Pet Groomers",Saint Louis,MO,63141,4.5
WuHxJZIwYxN3ReSo6TLvxg,Devon Veterinary Hospital,"Pet Groomers, Veterinarians, Pet Sitting, Pet Services, Pets, Pet Boarding",Devon,PA,19333,3.5
TUHCJ-W4alCSsPx5z85IEA,Uptown Veterinary Hospital,"Pet Sitting, Pet Services, Pets, Veterinarians",New Orleans,LA,70115,4.0
Cfosy7EQfBraHEy1H0Vgvg,Animal Eye Associates,"Veterinarians, Pets",Saint Louis,MO,63122,4.0
svBboF1jpE4kCaBd1nSq2g,World Of Animals At Bethayres,"Pet Services, Pet Sitting, Veterinarians, Pets, Pet Groomers",Huntingdon Valley,PA,19006,4.0
j2i2UplX_ksZBdUK7NvjJw,Veterinary Dentistry Specialists,"Veterinarians, Pets",Mt Laurel Township,NJ,08054,4.5
dH12_qud_qyOT677sS36bg,Boise Cat Clinic,"Pet Groomers, Pets, Veterinarians, Pet Services",Boise,ID,83706,4.5
fpMQmj8T2jIXEHrw3kSV5w,Glencroft Veterinary Hospital,"Pets, Pet Services, Veterinarians, Pet Groomers",Glenolden,PA,19036,3.5
waJ7fhSZaT-j2GvjoFZ7VQ,Rittenhouse Veterinary Medical Center,"Veterinarians, Pets",Philadelphia,PA,19103,4.0
UvZlR90NnytSjJ0Cw6A4lQ,VCA Murphy Road Animal Hospital,"Veterinarians, Pet Groomers, Pet Sitting, Pets, Pet Services",Nashville,TN,37209,3.0
R-SOV6eZjyEHMlMXeOWarw,Country Oaks Animal Hospital,"Veterinarians, Pets",Tampa,FL,33634,4.5
gcnCoBwtZB1V7JbT8obeIw,Montgomery Animal Hospital,"Animal Assisted Therapy, Pet Services, Veterinarians, Health & Medical, Pet Sitting, Pets",Flourtown,PA,19031,4.0
64tCldf8F2EhCb3lRCZzFA,Coventry Animal Hospital,"Pet Services, Pet Groomers, Pets, Veterinarians, Pet Sitting",Pottstown,PA,19465,3.5
NyPtY12h8lDF-pa5GoKRIg,BluePearl - Franklin,"Pets, Veterinarians, Emergency Pet Hospital, Pet Services",Franklin,TN,37067,3.5
zSUz7Z7gj4eN1OKm1TPrRw,Barrett Station Veterinary Clinic,"Veterinarians, Pets",Ballwin,MO,63021,5.0
R2siAiDu9I_s8b-pSa8rSw,"Dr. Lee Fike, DVM","Pets, Pet Sitting, Pet Services, Veterinarians",Tucson,AZ,85712,3.5
_RQ5b10vl0VDhM6iMk5syw,Ark Animal Hospital of Souderton,"Pets, Veterinarians",Souderton,PA,18964,4.5
yrwoDu4AqkqbaLhTtFTFEw,Plantation Animal Hospital of Tampa,"Pets, Pet Sitting, Pet Services, Veterinarians",Tampa,FL,33624,4.0
VP05Cq_IL3qmqdEtNJ7rjQ,Barsch Animal Clinic,"Veterinarians, Pets",Tampa,FL,33624,3.0
ckQ3sskbc3URe_0OarRKyQ,Georgetown Animal Hospital,"Pet Boarding, Veterinarians, Pet Services, Pets, Pet Sitting, Pet Groomers",Indianapolis,IN,46254,4.5
IacMU6n95jzJ5pdASzIiVg,Lenape Veterinary Clinic,"Pets, Veterinarians, Pet Services, Pet Sitting, Pet Boarding",West Chester,PA,19382,5.0
TeIdyy_nWBsDQyC_6rhKVA,"David Butler, DVM - Pet Vet","Veterinarians, Pets",Franklin,TN,37069,4.5
s6_CFwLpkUntrIBgE0u9rA,Hamilton Veterinary Hospital,"Veterinarians, Pets",Trenton,NJ,08610,4.5
8FIMgO2chN55Fb6AuXwMMg,K9 Pearly Whites,"Veterinarians, Pets, Pet Services, Pet Groomers, Pet Stores",Cherry Hill,NJ,08003,4.0
1lFnDQG3F0cbnB9k8K-Oiw,Northwest Veterinary Hospital,"Veterinarians, Pets",Reno,NV,89523,3.0
-eQ-dqKdzI-RxPlmVLIvVA,Acadiana West Animal Clinic,"Pet Services, Pet Sitting, Pets, Veterinarians",Marrero,LA,70072,3.5
ybSRrljDObTB82vbn-mLQA,The Animal Clinic,"Veterinarians, Pets",Saint Petersburg,FL,33714,5.0
r0Z8krk9dzwLzzOQuYu2tg,VCA Maple Shade Animal Hospital,"Veterinarians, Pets, Pet Services",Maple Shade,NJ,08052,2.5
8pXGN_Ti9gf0ydWPV87uZA,St. Francis' Pet Hospital,"Veterinarians, Pet Services, Pet Sitting, Pets",Indianapolis,IN,46221,4.0
fl3L6l4Hu795AYATaSL95Q,Kingston Springs Animal Hospital,"Veterinarians, Pets",Kingston Springs,TN,37082,3.5
dAypoqAfA6HbjtZ5sU7HIg,Geist Station Animal Hospital,"Pet Services, Veterinarians, Pet Sitting, Pet Groomers, Pets",Indianapolis,IN,46236,4.5
os6Z7bqwjAlc3GN-ewP5Bg,Seminole Blvd Animal Hospital,"Pet Sitting, Veterinarians, Pets, Pet Stores, Pet Services",Largo,FL,33778,4.0
vEIyiN8vKfWvMXjo628R6g,Best Care Animal Hospital,"Pet Sitting, Pets, Veterinarians, Pet Services",New Port Richey,FL,34653,4.5
lEY8gc1N13mm7V-vy2V0Rw,Academy Animal Hospital,"Pet Services, Pets, Health & Medical, Veterinarians, Pet Sitting, Pet Boarding, Pet Groomers",Greenwood,IN,46142,4.0
NRxJPQpTDFDBGuPT4lKs-Q,Sun-Surf Animal Hospital,"Pets, Veterinarians",Indian Rocks Beach,FL,33785,3.0
8UZqzbvRVwEbo1dk-4ufQA,Eastpoint Pet Clinic,"Veterinarians, Pets",Tucson,AZ,85710,4.5
zdLlUug15e56cJt7zmuu1A,Mobile Veterinary Service,"Veterinarians, Pets",Saint Louis,MO,63108,5.0
qyYcwnOFoLrlkW3zgmetvw,Kentmere Veterinary Hospital,"Veterinarians, Pets",Wilmington,DE,19806,4.0
0ro_NOIVuWczIFJhaicEdA,Monon Animal Hospital,"Veterinarians, Hospitals, Health & Medical, Pets",Indianapolis,IN,46240,4.0
bE21yS3xO1mb9m-4ck5Wlw,Caring For Cats,"Veterinarians, Pet Services, Pet Sitting, Pets",Philadelphia,PA,19127,4.5
3nM4x6B7a0WKZc51SkA6xA,Catalina Pet Hospital,"Pet Adoption, Veterinarians, Pets",Tucson,AZ,85712,4.0
KhqfsINjOB__hU-v0dI6jg,Banfield Pet Hospital,"Veterinarians, Pets",Hermitage,TN,37076,2.0
7x51QaVA1-HYOi8WqMLUqQ,Midway Animal Hospital,"Pets, Veterinarians, Pet Groomers, Pet Sitting, Pet Services, Pet Boarding",Largo,FL,33778,3.0
isX_THJp0G8chhNQJqbrAA,Harleysville Veterinary Hospital,"Veterinarians, Pets",Harleysville,PA,19438,4.0
uG8vLObeVY-Bb8npOtz9CA,The Cat Hospital of Media,"Veterinarians, Pet Services, Pet Sitting, Pets, Pet Boarding, Pet Groomers",Media,PA,19063,4.5
o7gLhFInc4Jk0IkHdaHdkA,VCA Clayton Animal Hospital,"Pet Stores, Veterinarians, Pets, Pet Services",St. Louis,MO,63105,5.0
5VQWXDn0LO7ChH0cEdId1A,SKYLINE Animal Hospital,"Pet Boarding, Pet Services, Veterinarians, Pets, Pet Cremation Services, Pet Sitting, Pet Training, Emergency Pet Hospital",Land O' Lakes,FL,34638,4.0
2O6daloCkf6fYhSTVIR9gw,University of Pennsylvania,"Arts & Entertainment, General Dentistry, Health & Medical, Colleges & Universities, Pets, Performing Arts, Education, Veterinarians, Dentists",Philadelphia,PA,19104,4.0
M2ddQXAxGOOgQjofrzDlzA,Lemay Animal Hospital,"Veterinarians, Pets",Saint Louis,MO,63125,2.0
bf2aAa_rP5B-QeOK1qybXA,Rhawnhurst Animal Hospital,"Pets, Veterinarians",Philadelphia,PA,19152,4.5
-FkOGy1AP9LXuoeqZpp06A,Lap of Love Veterinary Hospice and In-Home Euthanasia,"Pets, Health & Medical, Hospice, Pet Hospice, Veterinarians, Pet Services",Lutz,FL,33549,5.0
w9NMflhRcCdQkexy5wUC-g,Animal Hospital of Northwood,"Pet Sitting, Pet Services, Pets, Veterinarians",Safety Harbor,FL,34695,4.5
NRV0bWbpS0GmYyjIGA4r6A,White's Pet Hospital,"Veterinarians, Pet Sitting, Pets, Pet Services",Santa Barbara,CA,93103,4.0
p6dHAHZ3xlxi48-hhEbPCQ,Florida Veterinary Specialists & Cancer Treatment,"Pets, Veterinarians",Tampa,FL,33614,4.0
GUaDNAYbenXuCji1Da-skA,Vogel Veterinary Hospital,"Pets, Pet Sitting, Pet Boarding, Veterinarians, Pet Services",Arnold,MO,63010,4.5
tkQfxEYkL-Fq3Al0hH9hKg,The Cat Doctor,"Veterinarians, Pets, Pet Services, Pet Sitting",Philadelphia,PA,19130,4.0
IaaUq_xpeDbINle8bJZRtw,Ark Animal Hospital,"Pet Services, Veterinarians, Pets, Pet Groomers, Pet Boarding, Pet Sitting",New Orleans,LA,70121,3.5
DzydfquLb7JvYlx0z10mHg,Vet's Here Santa Barbara Area,"Pets, Veterinarians",Santa Barbara,CA,93101,5.0
PZVddUb3c3CSGYonzBxrYw,Cat Hospital of Tucson,"Pets, Pet Services, Pet Stores, Veterinarians",Tucson,AZ,85710,4.0
sxYTUA-6hY7dLc5BvOf8hg,Gulph Mills Veterinary Hospital,"Pets, Veterinarians",King of Prussia,PA,19406,3.5
x1y1Rc_m-Fl1RRwOQdXRYg,Pennridge Animal Hospital,"Veterinarians, Pets",Perkasie,PA,18944,5.0
Kd0tjNzKUcdsx5-jf-ONsw,Kingsbury Animal Hospital,"Pet Services, Pet Sitting, Veterinarians, Pets, Pet Groomers",Saint Louis,MO,63130,4.5
fmy3OrlmargAipofB0MeoQ,Dr Mike's Animal House,"Pets, Veterinarians, Pet Services, Pet Boarding, Pet Sitting",New Orleans,LA,70116,3.0
CRbVGdjE6xfGUTDllVP4rQ,Westlake Animal Hospital,"Pets, Veterinarians",Tarpon Springs,FL,34689,4.5
M78owiFYQo4kEH5u_tSytA,Northwest Veterinary Clinic,"Pets, Veterinarians",Saint Petersburg,FL,33709,4.0
i5qOEr22YQu8-VMeHTc99A,Bucks County VETS,"Pets, Veterinarians",Warrington,PA,18976,2.5
Lo9z9D_mnY-j8KuhfSErYQ,Home At Last,"Veterinarians, Pets",Tucson,AZ,85728,5.0
VklF-5UrAIrDtcYolY3AWA,The Paw Patch Place,"Pets, Pet Sitting, Veterinarians, Pet Services, Pet Groomers",Indianapolis,IN,46220,4.0
HKyBf2650xquyiZs49BgRA,River Road Veterinary Hospital,"Pets, Pet Sitting, Pet Groomers, Pet Services, Pet Boarding, Veterinarians",New Orleans,LA,70121,5.0
1AUs3c45h9DO2YTXLyNu_Q,"Koulianos George, DVM","Pet Sitting, Veterinarians, Pets, Pet Services",Port Richey,FL,34668,3.0
q98gr9vKNcHUEkZNO7VJbQ,Goleta Airport Pet Hospital,"Veterinarians, Pets",Goleta,CA,93117,4.0
DnBSaJojNOpmwECpxenXzQ,Natural Pet Care,"Pets, Veterinarians, Pet Stores",Metairie,LA,70002,4.5
AXuhAji6GY7qo4_s7EuTkQ,kind Animal Care,"Pets, Veterinarians",Spring Hill,FL,34609,2.0
t6DbUYe9B6XazlFNk5f-Pw,Animal Doctors of South Tampa,"Pets, Pet Sitting, Pet Boarding, Pet Services, Veterinarians",Tampa,FL,33611,4.5
yUsr9k42sOq8eGPBwb6G4A,Arizona Spay Neuter,"Veterinarians, Pets, Pet Services",Tucson,AZ,85705,3.5
PVlH_t4RI8p7ncFUzokapg,Brentwood Animal Hospital,"Pets, Veterinarians",Saint Louis,MO,63144,4.0
BqKhPBB8Rcu1aQ-0dCpH-w,Furry Friends Animal Hospital,"Veterinarians, Pets",Harvey,LA,70058,3.5
ppfcRGNKhcaDIt1iCcG7xA,MedVet New Orleans,"Veterinarians, Hospitals, Health & Medical, Emergency Pet Hospital, Pet Services, Pets",Metairie,LA,70001,3.5
W-lN3hPfyYw1-gJ4A5ba0Q,Boot Road Veterinary Clinic,"Veterinarians, Pets",West Chester,PA,19380,4.0
1-Rhngc7U2gdp_5gs4RLtQ,Narberth Animal Hospital,"Pets, Veterinarians",Narberth,PA,19072,3.0
fdbjNg9OTDkLJ5pkrlv8Vw,Mueller Veterinary Services,"Veterinarians, Pets",Columbia,IL,62236,5.0
pxn_PJ2AaWmAYTL9AhmcPA,Ehrlich Animal Hospital & Arthritis Therapy Center,"Acupuncture, Veterinarians, Health & Medical, Pets, Pet Sitting, Pet Services",Tampa,FL,33626,4.0
A29E4plbyHM8X_gvD_2AEA,Ventana Animal Hospital,"Pets, Veterinarians",Tucson,AZ,85750,4.0
ceGWN7KegQj0JFL_zFjsuQ,Animal Alliance NJ,"Animal Shelters, Pets, Community Service/Non-Profit, Veterinarians, Local Services, Pet Services",Lambertville,NJ,08530,3.5
BOqy6BP0MRJ2iWwpRbEM2Q,Kings Row Pet Hospital,"Pet Services, Veterinarians, Pets",Reno,NV,89503,4.5
oCq6GGltDMDjZYCgxRsubw,Banfield Pet Hospital,"Veterinarians, Pets",Dresher,PA,19025,3.0
Wr3we2lNGIK4oL2CIkQuLg,Ada Veterinary Hospital,"Veterinarians, Pets",Boise,ID,83705,4.5
gGfcTY3HvVWL7RqYVm06sw,Animal Medical Center of Mid-America | Westport,"Veterinarians, Pets",Maryland Heights,MO,63146,3.0
z1FNf0_fBx-DV2ZO2bWLaQ,Spayed Club Clinic,"Veterinarians, Pets",Sharon Hill,PA,19079,4.5
dHSLfCEAoCCzmI82bmSnqA,Saint Francis Veterinary Center,"Pets, Veterinarians, Health & Medical, Pet Stores, Urgent Care, Pet Services, Emergency Pet Hospital",Turnersville,NJ,08012,3.0
G8efEWTMEiMy5w6i4DjqGw,Blue Oasis Pet Hospital,"Pets, Veterinarians",Mount Juliet,TN,37122,4.0
cyK2JK4N2ctKoBYqqTe2ag,Bethel Mill Animal Hospital,"Pets, Veterinarians",Sewell,NJ,08080,4.0
i-e5Cple2zG_2i6eX-WW5g,Hickory Knoll Veterinary Hospital,"Pet Services, Pet Groomers, Pet Sitting, Veterinarians, Pets",Harahan,LA,70123,5.0
_eAIDS7o8ewYs3nVHH-woQ,Associated Veterinary Specialists North,"Pets, Veterinarians",Bridgeton,MO,63044,4.0
FpUKV5K-YjCN-_KfSf8uug,Gloucester County Animal Hospital PC,"Veterinarians, General Dentistry, Dentists, Health & Medical, Pets",Sewell,NJ,08080,3.5
nt7cSC8pCvyJFueYEPhaDw,Little House Animal Hospital,"Pets, Veterinarians",Franklin,TN,37069,5.0
0S_Lw-THIRzCDzlpL645PA,West Trenton Animal Hospital,"Pet Services, Pet Sitting, Pets, Veterinarians",West Trenton,NJ,08628,4.5
c02qhORBO86spu1NXYI8xg,Frankford Animal Clinic,"Veterinarians, Pets",Philadelphia,PA,19124,4.0
0lTO-nAgfmjrbcQDTumKMw,Williamson County Animal Hospital,"Veterinarians, Pets, Emergency Pet Hospital, Pet Services",Franklin,TN,37064,4.5
c7HeM5OnKXd-bbyW2qwxjg,Harbourside Animal Hospital,"Pet Sitting, Pets, Pet Services, Veterinarians, Pet Groomers",Tampa,FL,33602,4.0
WMBhBOw-JPbz4rEQKAQUHg,Fairgrounds Animal Hospital,"Pets, Pet Services, Veterinarians, Pet Sitting, Pet Groomers",Reno,NV,89512,3.5
fOquGJdYwCwC7S489g_E9g,Tesson Ferry Veterinary Hospital,"Pet Stores, Veterinarians, Pets, Pet Services",Saint Louis,MO,63128,4.5
4tbcff8RBabMg1Dr11dSoQ,Tampa Bay Veterinary Emergency Service,"Veterinarians, Pets",Tampa,FL,33613,3.5
9KwKNPYDSfI_1rMHPgwHRA,Pet Care Center,"Pet Sitting, Pet Groomers, Pets, Pet Services, Veterinarians",New Orleans,LA,70130,5.0
y6ePbYU42TVRyZF9V6gNRw,Animal Medical Hospital,"Veterinarians, Pets, Pet Sitting, Pet Services",Saint Petersburg,FL,33713,5.0
tujWgKL9AA3dAfpGwNN4sQ,Options Veterinary Care,"Veterinarians, Pets",Reno,NV,89502,3.5
uBKtyi0cNKM9JBm-trpA8Q,Veterinary Center at Fishhawk,"Pet Boarding, Pet Sitting, Pet Services, Pets, Veterinarians",Lithia,FL,33547,3.5
XbQhPllLz2CaaAFJYyBVjQ,VCA Animal Medical Center of Tucson,"Veterinarians, Pets",Tucson,AZ,85719,4.5
rAr7nsjHHwIFnQJL9nXBiw,Animal Care Center Of Brentwood,"Veterinarians, Pets, Pet Boarding, Pet Services, Pet Sitting",Brentwood,TN,37027,4.0
sc2NdiwU5h0L7L1yKfayng,Animal Hospital of Somerdale,"Veterinarians, Pet Boarding, Pets, Pet Services, Pet Groomers, Pet Sitting",Somerdale,NJ,08083,4.0
s8b0Nw9Doz2N9k8L7JcxDw,Advantage Veterinary Center,"Pet Services, Pets, Veterinarians, Health & Medical",High Ridge,MO,63049,4.5
Km4fz6jPJ2GpeFDWpISnOQ,County Line Animal Hospital,"Pets, Veterinarians, Pet Groomers, Pet Services, Pet Sitting",Spring Hill,FL,34610,1.5
sZnEIeDc9lsTVUZbqJY0QA,Orchard Park Animal Hospital,"Pet Services, Veterinarians, Pet Groomers, Pet Sitting, Pets, Pet Boarding",White House,TN,37188,3.5
lyYa749_Fq-Z-pzqfcydjA,Talleyville Veterinary Hospital,"Pet Services, Veterinarians, Pet Boarding, Pets, Pet Sitting, Pet Groomers",Wilmington,DE,19803,3.5
7r1MwJn510HtgrLch9WtdQ,Family Pet Services,"Pet Cremation Services, Pet Services, Funeral Services & Cemeteries, Pet Sitting, Pets, Local Services, Veterinarians",Tucson,AZ,85714,5.0
BrHxGDEkU7_kRLXEoPkpxg,Banfield Pet Hospital,"Pets, Veterinarians",Marlton,NJ,08053,2.0
E3WaLUrM60up4UG4UdZ9jg,Banfield Pet Hospital,"Veterinarians, Pets",St. Charles,MO,63303,2.0
j1__nBIv8uvMMDt2WVcKAw,Affordable Pet Hospital,"Pet Services, Pet Sitting, Pet Hospice, Pets, Holistic Animal Care, Veterinarians",Tampa,FL,33647,3.0
6GSVvhajsgYemz0tdq_d6Q,West Clay Animal Hospital,"Veterinarians, Pets",Saint Charles,MO,63301,4.0
3BRrPfEEXrgPR51wb7kp3w,VCA Beech Grove Animal Hospital,"Pet Sitting, Pet Services, Veterinarians, Pets",Indianapolis,IN,46203,3.5
gwrkhEndeYgAf-5Y1fppTQ,4 Paws Veterinary Hospital,"Pets, Veterinarians",Springfield,PA,19064,2.0
AVgd9Ad65j7ikzW60Czyeg,VCA Animal Healing Center,"Veterinarians, Pets",Yardley,PA,19067,4.0
l8peBXDp0AZaus-vmI0QZA,Banfield Pet Hospital,"Veterinarians, Pets",Franklin,TN,37064,4.0
APr7s73xPQBQlQD90wts3w,Roxborough Animal Hospital,"Health & Medical, Doctors, Pet Services, Veterinarians, Pets",Philadelphia,PA,19128,1.5
ITGldh0QE5srO0Pfk-FSew,Tangerine Pet Clinic,"Veterinarians, Pet Services, Pet Hospice, Pets",Marana,AZ,85658,4.5
wuZioLqrWXJcqgfZNrRjSA,Hickory Veterinary Hospital,"Pets, Veterinarians",Plymouth Meeting,PA,19462,2.5
Kc93jFYP5U1C2TXDxNMkEw,Arch Animal Hospital,"Pet Services, Veterinarians, Pets, Pet Sitting",Saint Louis,MO,63122,4.0
UCrgUKP9rXfM1HO7cMNfvw,Mountain View Animal Hospital & Holistic Pet Care,"Pets, Pet Services, Holistic Animal Care, Veterinarians, Pet Groomers",Reno,NV,89511,4.0
Wz-hJAZl4Ba8g0TJRu1n_A,Avian & Animal Hospital,"Pets, Pet Services, Veterinarians",Largo,FL,33773,4.5
G4WFmJPXGChCf5BiOdplDA,Lemos Feed & Pet Supply,"Livestock Feed & Supply, Shopping, Pet Stores, Pets, Veterinarians, Pet Services",Carpinteria,CA,93013,4.5
jBr3Xmvy59rN_VxBpok0qA,Eagle Animal Clinic,"Veterinarians, Pets",Eagle,ID,83616,5.0
4xSzall_qCIXCQSFCsUG8A,Troy Veterinary Clinic,"Pets, Veterinarians",Troy,IL,62294,3.5
ZYs9y2Hk_C55Ynr40TGmUA,Sanatoga Animal Hospital,"Veterinarians, Pets",Pottstown,PA,19464,4.0
tUV_uu2DMzljoMRyhH8H9Q,Camino Seco Pet Clinic,"Pet Stores, Pet Services, Pets, Veterinarians",Tucson,AZ,85710,3.5
JE-32mnCf3Og5fsz11QYSw,Hartford Animal Hospital,"Pets, Veterinarians",Medford,NJ,08055,2.0
zosdGG5BSTYFNusuVw_x1Q,Animal Hospital of Richboro,"Veterinarians, Pets",Richboro,PA,18954,2.5
JC6S6dhiYap1WAvtmoz8FA,Country Oaks Animal Hospital,"Pet Services, Pets, Pet Sitting, Veterinarians",New Port Richey,FL,34654,4.0
4iUSgXZZcm5NVR_DUIK6MA,Franklin Falls Animal Clinic,"Veterinarians, Pet Services, Pets",Indianapolis,IN,46237,4.0
w9m0gkLgt2c0YFB63lk9gw,Southern Arizona Veterinary Specialty & Emergency Center,"Health & Medical, Pet Services, Veterinarians, Hospitals, Pets",Tucson,AZ,85705,4.0
hWIgye_j3V010WJ92R_djQ,Bay Moorings Animal Hospital,"Veterinarians, Pet Services, Pet Sitting, Pets",Saint Petersburg,FL,33711,3.0
7gSCe5G2T6vCJG1kwaHEtg,Wellswood Midtown Animal Hospital,"Pets, Veterinarians",Tampa,FL,33607,4.0
F9ylGWWAtvx2vJKE5CXyBA,Spanish Trail Pet Clinic,"Veterinarians, Horse Boarding, Pet Services, Pet Sitting, Pets",Tucson,AZ,85710,4.5
NB74dj917a-UKQiIUNNecg,Banfield Pet Hospital,"Pets, Veterinarians",Indianapolis,IN,46268,2.5
6UvUrkPie77kurr5vrAZUA,Pet Vaccination Clinic,"Veterinarians, Pet Services, Pets",Indianapolis,IN,46241,3.5
itmu3Z_41z9-6ZES8JrR6g,Providence Animal Center,"Pet Adoption, Veterinarians, Pet Groomers, Pet Services, Pets, Animal Shelters",Media,PA,19063,3.5
Qwv9VH1KiFQPCpr6PtboXw,Livingston Animal and Avian Hospital,"Veterinarians, Pets",Lutz,FL,33559,4.0
q-cb3isA5n7gtYG7BBR4lg,Valley Veterinary Hospital,"Pet Services, Veterinarians, Pets",Phoenixville,PA,19460,3.0
Lw2Z2MOwKe2T7vTwKpltmw,Avian & Exotic Animal Clinic,"Pets, Veterinarians",Indianapolis,IN,46268,4.0
j0lLhzNQaih1mKNm7OiK0A,Clovercroft Veterinary Hospital,"Veterinarians, Pets",Franklin,TN,37067,5.0
d1IQ18JJEcVvqyscjzi1wA,Art City Vets & Urgent Care,"Veterinarians, Pets",Philadelphia,PA,19130,5.0
x9VhDxFioBONEV66liuj3g,Dog Day Afternoon,"Pet Boarding, Pet Groomers, Pet Sitting, Pet Services, Pets, Veterinarians",New Orleans,LA,70115,3.0
U177uhJbJTUlYwyCDcHDSw,Banfield Pet Hospital,"Pets, Veterinarians",Boise,ID,83704,2.5
hjyII_vOD7HvEiY1xHrikg,Lemos Feed & Pet Supply,"Pet Stores, Pets, Shopping, Livestock Feed & Supply, Pet Services, Veterinarians",Santa Barbara,CA,93101,4.5
s04jfK1C5J6kGX7Qy3FHaw,New Tampa Animal Hospital,"Pets, Veterinarians",Lutz,FL,33559,4.0
8pqwQKzNyb4kV3GpRx6aeg,All Creatures Veterinary Care Center,"Veterinarians, Pets, Pet Services",Sewell,NJ,08080,2.5
PTXKV0Z2xcxdgkDgB9DwdQ,Cypress Animal Hospital,"Pets, Pet Services, Veterinarians, Pet Groomers, Pet Boarding, Pet Sitting",Kenner,LA,70062,3.0
DzFAz6PVvZ-kn6py6yIlog,Trooper Veterinary Hospital,"Veterinarians, Pet Sitting, Pets, Pet Services",Norristown,PA,19403,3.5
_XPjG1NEhWaCkrye5FhlGA,Claws & Paws Animal Hospital,"Pets, Veterinarians",Zephyrhills,FL,33541,3.5
Q0aeKnZSRwRNKDV9NQASlg,Adkins 301 Pet Hospital,"Veterinarians, Pets",Zephyrhills,FL,33542,2.0
ZVyP8M0l3x1qF_3o2h-oeQ,VCA West 86th St. Animal Hospital,"Pet Services, Veterinarians, Pet Sitting, Pets",Indianapolis,IN,46268,3.5
EhbP6SMG4JFmTZdH8k0URA,Bryn Mawr Veterinary Hospital,"Veterinarians, Pets",Bryn Mawr,PA,19010,2.5
teU08xqZ16Hy-3m4TDQacA,South Reno Veterinary Hospital,"Veterinarians, Pets",Reno,NV,89511,3.5
k02wKOYE2KbwVgJtVUoodA,Banfield Pet Hospital,"Pets, Veterinarians",Tucson,AZ,85714,2.5
52zJVQPJFyys2oplkmBTSg,The French Quarter Vet,"Pets, Veterinarians",New Orleans,LA,70116,4.5
tCHHF48Ew-GqN5tCeA7YuA,Pebble Creek Animal Hospital,"Pet Services, Veterinarians, Pets, Pet Boarding, Pet Sitting, Pet Training",Tampa,FL,33647,3.5
6eEDS2StcWXROLt_Bubixg,River Mill Animal Hospital,"Pets, Veterinarians",Tampa,FL,33647,4.5
L1Xko-OD-1-GUjx_vI1mdQ,"Lowell David, DVM","Veterinarians, Pets",Reno,NV,89511,3.5
gPRQhh6XtST4GxrPy9X8_A,Banfield Pet Hospital,"Veterinarians, Pets",Avon,IN,46123,2.0
OrJdggfTlpAV5nAPY4BRJg,Chelwayne Animal Hospital,"Veterinarians, Pets",Philadelphia,PA,19144,3.0
vx1DwwkIuCbSp1A28wia9A,Animal Alternatives,"Veterinarians, Acupuncture, Health & Medical, Pets, Pet Services",Tampa,FL,33613,4.0
yZY50ur9K7ln8L2H33COzg,Media Veterinary Hospital,"Pets, Pet Sitting, Pet Services, Veterinarians, Holistic Animal Care, Pet Boarding",Media,PA,19063,4.5
kDKdBPTDQ6nR9NIeOLpomg,Camp K-9,"Veterinarians, Pet Sitting, Pet Groomers, Pet Services, Pets",Nashville,TN,37211,2.5
0cC81WAIHTbZJ7nn4PLfSA,Concord Pike Veterinary Hospital,"Pets, Veterinarians, Pet Sitting, Pet Services",Chadds Ford,PA,19317,4.0
oFntO2MzmV6wiJcLs7JESQ,Love My Doggy Day Care,"Pet Services, Pet Groomers, Pet Training, Veterinarians, Pet Sitting, Pets",Plymouth Meeting,PA,19462,5.0
0hRgce7UXWPgAPQX2_CclA,Coastal Mobile Veterinary,"Pets, Veterinarians",Santa Barbara,CA,93101,4.5
vbC2-krA86Dmc4Q-8cAHNA,Tucson VetCalls,"Pet Services, Veterinarians, Pets",Tucson,AZ,85710,4.5
gpmvWQ7RA5BHP0CSsrjDMg,Emberton House Call Veterinary Clinic,"Pets, Pet Services, Veterinarians, Emergency Pet Hospital",Madison,TN,37115,5.0
0lTzzG9KxNyWLSQUwkHV8Q,Animal Emergency Clinic,"Veterinarians, Pets",Metairie,LA,70005,2.0
ATRKdF07nOY1zs_TqKdSIA,Pyramid Veterinary Hospital,"Veterinarians, Pets",Sparks,NV,89431,4.0
1Idu-JFwqN3bE7wFrQXRZA,Haverford Animal Hospital,"Veterinarians, Pet Services, Pets",Haverford,PA,19041,4.5
IJbeY24L929yxw3xj-2Tzw,Largo Veterinary Hospital,"Veterinarians, Pets",Largo,FL,33771,4.5
X7i4Z6y9Wwn0irlmNXwGfg,Banfield Pet Hospital,"Veterinarians, Pets",Tampa,FL,33625,2.0
pLWZi00VIXT_LawWGG8D2A,Vet with Hart Veterinary House Call Practice,"Veterinarians, Pets, Pet Services, Home Services, Pet Hospice",Saint Petersburg,FL,33701,5.0
5Zxzp5lFSWCTePLVWSO7Rw,All Star Animal Clinic,"Pets, Veterinarians, Pet Groomers, Pet Services",New Orleans,LA,70119,4.5
-T-TuWy5Kv72WEwwN-i2lg,Evesham Veterinary Clinic,"Doctors, Veterinarians, Pet Services, Pets, Health & Medical",Marlton,NJ,08053,4.0
CpHznhypb36LGwt0yXO3Gw,New Hope Veterinary Hospital,"Veterinarians, Pet Services, Pet Sitting, Pets, Pet Boarding",New Hope,PA,18938,3.0
I-SDICUJmdJev_Zwf-IKbw,Benbow Veterinary Services,"Pet Stores, Pet Services, Veterinarians, Pets, Health & Medical, Acupuncture",Metairie,LA,70005,4.0
gx-Pfb9bqt8_llJ33-tiXg,Humane Society of Missouri,"Veterinarians, Animal Shelters, Pet Stores, Pets",Saint Louis,MO,63110,3.0
3uR7rjbjR-4UffudIMScJA,P A W S Spay & Neutered Clinic,"Pets, Veterinarians",Port Richey,FL,34668,2.0
U2S2_9-3KV6IPbSf-LX4kQ,Feline Limited Cat Clinic,"Home Services, Veterinarians, Electricians, Pets",Tucson,AZ,85719,4.0
bIbOgCVkMFVHAj7u0qIduA,Irvington Pet Clinic,"Veterinarians, Pet Sitting, Pets, Pet Services",Indianapolis,IN,46219,3.0
-8ADRlWtPByYJac00xbe7w,Berry Farms Animal Hospital & Pet Spa,"Pet Boarding, Veterinarians, Pet Sitting, Pet Services, Pet Groomers, Pets",Franklin,TN,37064,5.0
0Awb2Y8QwxDYxFOamjHYBQ,Olsen Veterinary Clinic,"Pet Services, Veterinarians, Pets",Glen Carbon,IL,62034,2.0
JKrQFAJ82oBOgU_wAzU2Bg,Buck Road Animal Hospital,"Pets, Veterinarians",Holland,PA,18966,4.0
jrFtm7g3TFv1M3BIYnJgZg,Cat Hospital of Metairie,"Pet Services, Veterinarians, Pets, Pet Sitting",Metairie,LA,70005,4.5
yCxOD4g4c9hdaJM2kJf4CA,ParkView Animal Hospital,"Pet Services, Pet Groomers, Veterinarians, Pets",St Petersburg,FL,33714,5.0
NkdOCJHNjVpat55gr_tmtA,Mountain View Animal Hospital,"Pets, Pet Sitting, Veterinarians, Pet Services",Boise,ID,83704,3.0
MGe8gA2v8AwPtbYlNE-tng,Galena Veterinary Hospital,"Pets, Veterinarians",Reno,NV,89521,4.5
H_PmW17MDPanRrRYTqgHbg,Glenolden Animal Hospital,"Pet Groomers, Pet Services, Pets, Pet Sitting, Veterinarians",Glenolden,PA,19036,3.5
XwYHqVHlA490P7XMTcLi2Q,Carpinteria Veterinary Hospital,"Veterinarians, Pets",Carpinteria,CA,93013,4.5
Ga1kyPLg7jtY0SQQRyjG0A,BluePearl - Brandon,"Emergency Pet Hospital, Veterinarians, Pets, Pet Services",Brandon,FL,33511,3.5
_gGEDqnszGHoFk13r6G8Tg,Medicine River Animal Hospital,"Pets, Veterinarians",Madeira Beach,FL,33708,4.0
ZGD_So3vVlY8DTSopJXstA,Humane Society of Tampa Bay,"Pet Services, Pet Stores, Pets, Pet Adoption, Pet Hospice, Animal Shelters, Veterinarians, Pet Groomers",Tampa,FL,33607,3.5
bCY_MYlnvTVSTM1_udKl2A,Bear Canyon Pet Clinic,"Pet Services, Pets, Veterinarians",Tucson,AZ,85749,3.5
xZ0dUR6mekvrwtFVjfaXDA,Animal Inn,"Veterinarians, Pets, Pet Services, Pet Sitting",Tucson,AZ,85704,3.5
Rm9oXoBpFaOfzjbNe5X5eQ,Pet Doctor,"Veterinarians, Pets",Tucson,AZ,85719,3.0
wih8B8TZHp0vWKArKPGTeg,Spring House Animal Hospital,"Veterinarians, Doctors, Pet Services, Pets, Health & Medical",Ambler,PA,19002,4.0
yA7muh2Bgy01fHgkUlPzPg,UrgentVet Westchase,"Pets, Veterinarians",Tampa,FL,33626,2.0
-G-AmoSpz6wFU85dmglirQ,Carothers Pkwy Veterinary Clinic,"Veterinarians, Pets",Brentwood,TN,37027,5.0
sk7O8b_bTiFtt6xUJ5MgNg,Fox & Friends Animal Hospital,"Veterinarians, Pet Sitting, Pet Services, Pets, Pet Boarding",Sun City Center,FL,33573,2.5
mOLwgKVkneM6Tu0gLDh6AA,Family and Friends Veterinary Care,"Pets, Veterinarians",Lakewood,TN,37138,4.0
wiWSR7Sk0_440vZ23Odumg,Hartz Second Chance,"Animal Shelters, Veterinarians, Pet Adoption, Pets",Collinsville,IL,62234,2.5
su6_d-PqbSD9aQBl-U2dXw,Cimarron Animal Hospital,"Pet Services, Veterinarians, Pets",Tucson,AZ,85748,3.5
4RFuWPskKlwoUmJ2kCvqAw,Civano Animal Hospital and Emergency Center,"Pet Services, Pet Sitting, Pets, Emergency Pet Hospital, Pet Boarding, Veterinarians",Tucson,AZ,85747,4.0
lEscxKyDIEVbFvJE7t-ZiA,Animal Health & Healing,"Pets, Veterinarians",Saint Louis,MO,63143,5.0
WQVzIdo7FPFryvsyEIBRDw,Pawlins Total Pet Care,"Pet Sitting, Pet Boarding, Pet Services, Pets, Pet Groomers, Veterinarians",New Orleans,LA,70121,4.0
BHGJLaSL5VjF1k-mEQGcOw,Wesley Chapel Veterinary Hospital,"Pets, Pet Services, Veterinarians",Wesley Chapel,FL,33543,3.0
GPiq7XNuiYZCxXXBVPo1Ag,THRIVE Affordable Vet Care - Seminole,"Veterinarians, Pets",Seminole,FL,33772,3.0
FXW5f05b9u46c_7lxRUUVw,Cross Keys Animal Clinic,"Veterinarians, Pets",Florissant,MO,63033,4.5
esYp1dkkpJzSgdKgPkwQNw,Animal and Bird Hospital of Clearwater,"Pet Sitting, Pet Services, Pets, Pet Training, Pet Groomers, Veterinarians, Pet Boarding",Clearwater,FL,33759,3.5
N7RW97hDVtlyF7IJRNEgtw,Animal Emergency Clinic,"Veterinarians, Pets",Saint Louis,MO,63122,2.5
OgJs1JuXZOMPnao0YZwgZg,"Judy Morgan, DVM-Clayton Veterinary Associates","Pet Services, Pets, Veterinarians",Clayton,NJ,08312,4.5
FSMxF4PoiUH5k8-kyKhsDg,Cool Springs Animal Hospital,"Veterinarians, Pets",Brentwood,TN,37027,4.5
OEyovHeM1SMRplTtnEhU_g,Nashville K-9,"Veterinarians, Pet Training, Pets, Pet Sitting, Pet Services",Nashville,TN,37067,3.0
Rt5B_Kw_EPyqWni0dWsTuw,Village Veterinary Hospital,"Veterinarians, Pets, Pet Services, Pet Sitting",Medford,NJ,08055,3.5
DSItFuIOolM_Fgq-WryMZQ,Mobile Vet Clinic of Brandon,"Pet Hospice, Pets, Pet Services, Veterinarians",Brandon,FL,33547,4.0
gaMpU_Nnml5keYAtjdqCRA,Companion Animal Hospital,"Pet Services, Pet Sitting, Veterinarians, Pets",Hudson,FL,34669,3.0
CkMjd_xSUMLmvxo0IRqBKw,Village Veterinary Hospital,"Pets, Veterinarians",Mount Juliet,TN,37122,5.0
-q1Of6MflXzlDZIRiXY2xQ,Kindred Integrative Veterinary Services,"Veterinarians, Pets, Holistic Animal Care, Acupuncture, Pet Services, Health & Medical",Red Hill,PA,18076,5.0
XnrMW8ly7S8cCwhsmM9NXQ,Sonoran Veterinary Center,"Veterinarians, Pets",Tucson,AZ,85710,3.5
aY3drdFIM4DUyG2LW0Y41w,Avalon Animal Hospital,"Pets, Veterinarians",Tampa,FL,33604,4.5
Nw16IMylSvBtQMf4fUmQHw,Keystone Pet Hospital & Boarding Kennel,"Pets, Veterinarians, Pet Services, Pet Sitting",Indianapolis,IN,46205,4.0
Mcw56HK9GOPTKEL_9ExVEQ,Northern Liberties Veterinary Center,"Pet Services, Veterinarians, Pet Sitting, Pets, Pet Groomers",Philadelphia,PA,19123,4.5
d15ks1VJevr73lPlVXpTFQ,VetPronto - Mobile Veterinarians,"Pets, Veterinarians",New Orleans,LA,70125,5.0
GnDc49zMrf8fALu9uMjyhA,Ark Veterinary Service,"Pets, Veterinarians",Mount Juliet,TN,37122,3.5
e_zINpvpamcDb34zV_QVvg,Lemay Plaza Veterinary Clinic,"Pets, Veterinarians",Saint Louis,MO,63125,4.5
lSXah3mXmjMr9ZdUQ9i67w,The Downtown Veterinarian,"Pet Sitting, Veterinarians, Pet Adoption, Pets, Pet Services, Pet Boarding",Indianapolis,IN,46202,4.5
2lCYUsteiANSXcxz00VptA,Damonte Ranch Animal Hospital,"Veterinarians, Pets",Reno,NV,89521,3.5
Z2Ds1I8dAQUwfnm14F_eeA,Banfield Pet Hospital,"Pets, Veterinarians",Spring Hill,FL,34606,3.5
TjZ89IEewUjS-U4lDtyUEg,Brandywine Valley SPCA,"Veterinarians, Pets, Animal Shelters, Pet Adoption",New Castle,DE,19720,2.0
nW1Y_w4gy9gdtXWsEJSlrg,Carter Veterinary Medical Center,"Emergency Pet Hospital, Pet Services, Pet Sitting, Pets, Veterinarians",Carmel,IN,46032,5.0
7eWmK0FuLcmY2DpVhLyjww,Chippewa Animal Hospital,"Pet Sitting, Pet Boarding, Pets, Veterinarians, Pet Hospice, Pet Services",Saint Louis,MO,63116,4.0
7p_4DM8Im9YDuf3EF9C7kg,Banfield Pet Hospital,"Veterinarians, Bed & Breakfast, Hotels & Travel, Hotels, Pets, Event Planning & Services",Saint Louis,MO,63129,3.0
_7TCTh2SxoJTgtLcBwn5GA,Banfield Pet Hospital,"Pets, Veterinarians",Mt Laurel,NJ,08054,3.5
47WTus8YLZDtGU2RxDNktA,Pets R Our World,"Pets, Veterinarians",Jefferson,LA,70121,3.5
Jdbzlzc9xDwE_PsVQS090w,Banfield Pet Hospital,"Veterinarians, Pets",North Wales,PA,19454,2.0
pRkw4Kfs3tsMU1bgwwB5ig,The Cat Practice,"Veterinarians, Pets, Pet Sitting, Pet Groomers, Pet Boarding, Pet Services",New Orleans,LA,70130,4.5
u__W0ll9UzZ9yXhMZUsgKQ,St. Petersburg Animal Hospital and Urgent Care,"Pets, Veterinarians",Saint Petersburg,FL,33713,3.5
DQQjs1AG7-YmjbF3zbzOCg,Dickinson-McNeill Veterinary Clinic,"Veterinarians, Pets, Pet Services",Chesterfield,NJ,08515,4.5
WBE1YVEEz80_ZvlawLi9EQ,The Village Dog,"Veterinarians, Pets, Pet Sitting, Pet Groomers, Pet Services",Indianapolis,IN,46220,4.0
aUE1g3sT89m1x9lHLudpGQ,Good Shepherd Pet Hospital,"Pets, Veterinarians, Pet Sitting, Pet Boarding, Pet Groomers, Pet Services",Odessa,FL,33556,3.5
jdiwyiEB3FphmGOwxtT4Hg,Pets First Animal Clinic,"Pet Services, Pet Groomers, Veterinarians, Pets, Pet Sitting",Boise,ID,83704,4.5
6TZOLbGUm72R4KeRg6fvPg,Paw Prints Forever,"Pet Services, Pets, Pet Cremation Services, Veterinarians",Chadds Ford,PA,19317,5.0
9nWs2hrF9PMiHYVX9JNovQ,Michigan Road Animal Hospital,"Pet Services, Veterinarians, Pet Groomers, Pets, Pet Boarding, Pet Sitting",Indianapolis,IN,46268,4.5
0GYpPQgm7m9kiVsnb17USQ,TyVy Pet Hotel,"Veterinarians, Pet Groomers, Pets, Pet Sitting, Pet Training, Pet Services, Pet Boarding",Tampa,FL,33614,3.5
oNxJ5KAtGnS5-IWHAQc7Pw,PetSmart,"Pet Groomers, Pet Training, Pets, Pet Services, Veterinarians, Pet Sitting, Pet Stores",Saint Charles,MO,63303,3.5
u8l9hjR3PP7VnIMKREChcA,VCA Pike Creek Animal Hospital,"Veterinarians, Pets",Newark,DE,19711,1.5
JckG6PtUSvRdzmAfQjoLzg,Hoof & Paw Animal Clinic,"Pets, Veterinarians, Pet Sitting, Pet Boarding, Pet Groomers, Pet Services",Belleville,IL,62223,2.5
eVhRtjZeO3C4OBDecIQQtA,Air Animal,"Movers, Home Services, Pet Transportation, Pet Services, Veterinarians, Pets",Tampa,FL,33607,3.5
X4jn6--tRx5NQlsG_fs21Q,St Louis Veterinary Center,"Pet Groomers, Pet Boarding, Veterinarians, Pet Services, Pets, Pet Sitting",St Louis,IL,63104,4.0
Ar7VQ19XR253L7603zd8kA,Animal Hospital of Largo,"Veterinarians, Pets, Pet Services, Pet Sitting",Largo,FL,33774,4.0
TVNuGsP-d-ZL1jHYgJ84hA,The Affordable Spay Neuter Clinic and Pet Care,"Pet Services, Veterinarians, Pets",Pottstown,PA,19465,3.0
Jz06FYetr7puuM4_WrZ8gA,Ada Animal Hospital,"Pet Boarding, Veterinarians, Pet Services, Pet Groomers, Pet Sitting, Pet Breeders, Pets",Boise,ID,83709,4.5
kLGjRPVzGAWyodsMmFjd1Q,Piper Veterinary Clinic,"Pets, Veterinarians",Pipersville,PA,18947,4.5
6Fnjw_z_tPGW7HvR547Tmw,Eye Care for Animals Tampa,"Veterinarians, Pets",Tampa,FL,33634,4.5
kU8kWDYEeJhgaEtaPChUXw,Eastgate Pet Clinic,"Pets, Emergency Pet Hospital, Pet Services, Veterinarians",Boise,ID,83706,4.5
leBFz48miwEPLgQC1Y5C3A,Animal Hospital of Warwick,"Pet Services, Veterinarians, Pets",Jamison,PA,18929,3.5
kHqA953o_gKrfuJ46jlYPA,Cats Only Veterinary Hospital,"Veterinarians, Pet Services, Pet Boarding, Pet Sitting, Pets, Health & Medical",Norristown,PA,19401,3.5
3SG61XA5Gg3IhitOQ49RAA,Desert Hills Pet Clinic,"Pets, Veterinarians",Tucson,AZ,85704,5.0
Oy9-uPrHgOGh-GIw0Up6cw,Carmel Pet Wellness Clinic,"Pets, Veterinarians",Carmel,IN,46032,4.0
MLn19rBl5JZUqwWKHoy6MA,Animal House Veterinary Clinic,"Pets, Veterinarians",Nashville,TN,37211,4.0
kgFijaXOAcNKA5gy2-DWVA,Chester County Cat Hospital,"Pets, Veterinarians",West Chester,PA,19382,5.0
ftQqTQMBUfaoYfJLXv6ErQ,VCA Gulf Bay Animal Hospital,"Pets, Veterinarians, Pet Services, Pet Boarding, Pet Sitting",Clearwater,FL,33765,3.0
5-6PnYVTevfRXkIBsUCwug,Animal Hospital of Treasure Island,"Veterinarians, Pets",Treasure Island,FL,33706,3.5
OcxBHAYd2x8oI5IrieC9rQ,All Valley Animal Care Center,"Pets, Veterinarians",Meridian,ID,83642,2.5
GuLSn-j2PfBHlC1fk_xegA,St. Marys Animal Clinic,"Pets, Veterinarians",Tucson,AZ,85745,3.5
yLCo-lPSRkRqFzzJdnXEZg,Carmel Veterinary Clinic,"Pet Boarding, Pets, Veterinarians, Pet Sitting, Pet Groomers, Pet Services",Carmel,IN,46033,4.5
KIdpAMqxvjZcdBxrcXB1aw,Donelson Animal Hospital,"Pet Sitting, Emergency Pet Hospital, Pet Services, Pets, Veterinarians",Nashville,TN,37214,2.0
5933U0XTl9PyeX-Kx7ij8Q,Haines Road Animal Hospital,"Pets, Veterinarians, Pet Sitting, Pet Adoption, Pet Services",Saint Petersburg,FL,33714,3.5
r1bWuHrjzHR6UDN9E8uXqQ,Coastal Animal Clinic,"Pets, Pet Boarding, Pet Services, Veterinarians, Pet Sitting, Pet Groomers",Largo,FL,33770,4.5
MDu56GIQl-BufV9928woLA,Veterinary Medical Hospital Of Clearwater,"Pets, Veterinarians",Clearwater,FL,33761,4.0
tXEHimtA6AWPC_f7g3uNLQ,Citrus Park Animal Bird & Exotics Hospital,"Veterinarians, Pets, Pet Services, Pet Boarding, Pet Sitting, Pet Groomers",Tampa,FL,33625,2.5
6boWF12tk4PpPmnnh2HVag,Animal Hospital Of New Port Richey,"Pets, Pet Sitting, Pet Services, Pet Groomers, Veterinarians",New Port Richey,FL,34654,4.5
Af-o2EIQUTLGkPztkIewVg,Limestone Veterinary Hospital,"Veterinarians, Pet Services, Pets, Pet Sitting",Hockessin,DE,19707,4.0
jJ_T5XLHXApzSWykjI1Pnw,Vista Animal Hospital,"Veterinarians, Pets",Boise,ID,83705,4.0
0XBTAUm_E6Pgj2Cp64uICw,BVSPCA Animal Health Center,"Pet Adoption, Pet Services, Veterinarians, Pets",Malvern,PA,19355,2.0
6_wydwm8yWZZmmqOWDv6_A,Willowbrook Veterinary Clinic,"Pets, Veterinarians, Pet Services, Emergency Pet Hospital",Saint Louis,MO,63141,4.0
OK2ZX7Wl93Y5jwwrydKEzQ,Exceptional Pets,"Pet Sitting, Pet Boarding, Pet Services, Pet Groomers, Pets, Veterinarians, Pet Stores",Green Valley,AZ,85614,4.5
MnpMn0jfeRxwnHTNJjVmZQ,The Pennsylvania SPCA,"Pet Stores, Pets, Veterinarians, Animal Shelters",Philadelphia,PA,19134,3.0
Ak96ipSZ7TnQmKbqrBEBKw,BluePearl Veterinary Partners,"Pets, Pet Services, Veterinarians",Brentwood,TN,37027,4.0
Uohe7EU2bjUAtLLXy2EdYg,Magazine Street Animal Clinic,"Pet Sitting, Pets, Veterinarians, Pet Services",New Orleans,LA,70115,4.5
4R4g6nQAyCbQTCkh__CLhA,Banfield Pet Hospital,"Veterinarians, Pets",Tampa,FL,33607,2.0
rboNOTjGqHaCRbG_6Qr7fA,Banfield Pet Hospital,"Veterinarians, Pets",Clearwater,FL,33759,1.5
nmUeY1Dv26FU4RqA76Vxpg,Animal Clinic,"Pet Sitting, Pet Services, Veterinarians, Pets",Brandon,FL,33510,2.5
xZydSgdB6IRJu_T86hSRJA,Batt Veterinary Services,"Veterinarians, Pets",New Orleans,LA,70118,4.5
sLu6ujUr5cbunYflabgiaQ,VCA Valley Animal Hospital of Sahuarita,"Pet Sitting, Pet Services, Pet Groomers, Veterinarians, Pets",Sahuarita,AZ,85629,4.0
ns7_h4FmALuO6C4WUiOeHQ,Animal Welfare Association,"Pet Stores, Pet Services, Animal Shelters, Veterinarians, Pets",Voorhees,NJ,08043,3.5
40_xcXkPToXtnHNj_8uAcA,Banfield Pet Hospital,"Pets, Veterinarians",Brandon,FL,33511,2.5
060ZPlYef9yUjUQ01rzH8g,Pets First Veterinary Center,"Pets, Veterinarians",Bryn Mawr,PA,19010,4.5
TZkFtZFrj3F9F77Q0g-qMA,BluePearl Pet Hospital,"Pets, Veterinarians, Pet Services",Nashville,TN,37204,4.0
h5-DpwP8P6wXcRyNPm-JIw,Countryside Animal Hospital,"Pet Groomers, Pets, Pet Sitting, Pet Services, Veterinarians, Emergency Pet Hospital",Mount Juliet,TN,37122,3.0
FYcX0SXi9k1jGh7uXOk_rw,Sunset Point Animal Hospital,"Pets, Veterinarians",Clearwater,FL,33765,5.0
w_CmVZGfRaVnNUK1OLYxPA,Value Vet,"Pet Services, Pets, Veterinarians",Bellevue,TN,37221,3.0
HfDQrH8sPp2cMIFElIxBhQ,Buckingham Animal Hospital,"Veterinarians, Pets",Buckingham,PA,19141,3.5
kwDzMmvudEaCO_Os1NT_cg,Animal Dermatology Clinic,"Veterinarians, Pets",Indianapolis,IN,46240,4.0
59yNkR94T-HVY2XL-kCY2Q,Providence Animal Hospital and Pet Resort,"Pets, Veterinarians, Pet Services, Pet Sitting, Pet Groomers",Mount Juliet,TN,37122,4.5
1UNxfibGfkq2U1rHfPV0Ng,Animal Emergency Clinic of Brandon,"Pets, Veterinarians",Brandon,FL,33511,2.5
OqlS-8YMlwaBx7edyaCwCg,Old Pueblo Veterinary Clinic,"Pets, Veterinarians, Pet Services",Tucson,AZ,85705,4.5
pnIMRbLYeRLDl8YOA1XM7A,BluePearl Pet Hospital,"Veterinarians, Pets",Newark,DE,19713,3.5
-eUdQlZ430EiUCQjBb7hDQ,Treasure Valley Veterinary Hospital,"Veterinarians, Pets",Meridian,ID,83642,3.5
6tX3jy76XuuxRKqsb8PmkQ,Brandywine Valley SPCA,"Pets, Pet Services, Veterinarians, Community Service/Non-Profit, Local Services, Animal Shelters",West Chester,PA,19380,2.5
8J_-o1HT-hOUI2osJQSbDw,VIP Petcare,"Veterinarians, Pet Services, Pets",Cinnaminson,NJ,08077,4.0
djzp0utBX59vrWY3C70f7g,Skippack Animal Hospital,"Pets, Pet Groomers, Pet Sitting, Pet Services, Veterinarians",Skippack,PA,19474,3.5
xxGGy4CxKJcu2HX8SaYLZQ,Pinellas Animal Hospital,"Pet Groomers, Pets, Pet Sitting, Pet Services, Veterinarians",Pinellas Park,FL,33781,4.0
YJU0Faf-5CR7CwfVicxROg,Orville R Walls DVM,"Pets, Veterinarians",Philadelphia,PA,19144,5.0
YTsoRrX34rNrSSyc-e9vyw,Yorkshire Animal Hospital,"Pet Services, Pet Sitting, Veterinarians, Pets",Marlborough,MO,63119,4.0
vQXsCqmTpCzevA2kuuEHFw,Sage Veterinary Care,"Pets, Veterinarians",Sparks,NV,89436,3.5
SqySfP2eyemDvdwZIcncvg,Richboro Veterinary Hospital,"Pet Services, Pet Sitting, Veterinarians, Pets, Pet Groomers",Richboro,PA,18954,4.5
imJD8f5gZjPT4D5UGZoaVQ,Hawthorne Animal Hospital,"Pet Boarding, Pets, Pet Groomers, Pet Services, Veterinarians, Pet Sitting",Glen Carbon,IL,62034,2.5
5T3FY3mnBQ6B2gL-qvbjdg,BluePearl - Clearwater,"Pets, Pet Services, Veterinarians, Emergency Pet Hospital",Clearwater,FL,33762,4.0
41kw6IxoC1uKTfkQPxipmw,Paw Patch,"Pet Groomers, Pets, Pet Services, Veterinarians, Pet Sitting",Indianapolis,IN,46254,4.5
7cz0_sWk8UrfgYoXqA1NNg,Post Pet Hospital,"Veterinarians, Pets",Indianapolis,IN,46236,5.0
vofCOrXEQt4SnP8jEUczdw,Greenbrier-Springfield Animal Hospital,"Pet Sitting, Pet Services, Pets, Veterinarians, Pet Boarding, Pet Groomers",Springfield,TN,37172,3.0
xjpfKaPqvPBcJn2rzfxGOA,Settlers Park Veterinary Hospital,"Veterinarians, Pets",Meridian,ID,83646,4.5
rl_gEE70BB75cf1A2W7HoA,Rockville Road Animal Hospital,"Pets, Veterinarians",Indianapolis,IN,46214,4.5
udsh1cWOlfvTSptGWZuqRA,Dublin Veterinary Hospital,"Pets, Pet Services, Veterinarians, Pet Groomers",Perkasie,PA,18944,4.5
RynRqGrwcSmnqXbW34Rmtg,West Park Animal Hospital,"Pets, Pet Services, Veterinarians",Westchase,FL,33626,5.0
nS5SY0G2d7n9QU2h8E1TmA,Animal Hospital of Tampa,"Pets, Veterinarians",Tampa,FL,33614,4.0
arKJ7ewU1NxwrkjM9iUFmA,Gateway Animal Hospital,"Emergency Pet Hospital, Veterinarians, Pets, Pet Services, Pet Sitting, Pet Boarding",St. Petersburg,FL,33702,3.5
kFCMoZ9p10KZr156PHDwzw,Noah's Animal Clinic at Carmel,"Pets, Pet Services, Pet Sitting, Veterinarians, Pet Groomers, Emergency Pet Hospital",Carmel,IN,46033,3.5
3z-N8JxG47N9dH8v57gwtw,Springfield Animal Hospital,"Pets, Veterinarians",Springfield,PA,19064,2.5
TZhbFG5a4uwx0FrjnnGRXg,Metzler Veterinary Hospital,"Pet Services, Pet Boarding, Veterinarians, Pet Groomers, Pets, Pet Sitting",Clearwater,FL,33761,4.0
FccglnZhRNkD1S-U7A8XRA,Winslow Animal Hospital,"Pets, Veterinarians",Sicklerville,NJ,08081,3.5
Z8pBQeH02AYRMR2lNFgDLw,Mountain View Veterinary Clinic,"Pets, Veterinarians, Pet Services",Tucson,AZ,85742,3.0
EODAQSB7_0aS2bOwMbEQFA,Gandy Animal Hospital,"Veterinarians, Pet Boarding, Pet Sitting, Pets, Pet Services",Tampa,FL,33611,2.5
Mk1zI4GisdaHFmUhwAqKWA,Phoenixville Animal Hospital,"Veterinarians, Pets",Phoenixville,PA,19460,4.0
UWrF2iCHOMsysGE1E67CFw,Animal Medical Clinic,"Veterinarians, Pets",New Orleans,LA,70115,2.0
pB3m-Y1BKubv4vzNVathUQ,30th Street Animal Hospital,"Pet Services, Veterinarians, Pet Sitting, Pets",Indianapolis,IN,46219,4.5
nCRO-7XKl0ggTngAvffE4A,Central Pasco Vet Care,"Pets, Veterinarians",Lutz,FL,33558,3.0
uhON0RMc1y-Y52y5sKfEmA,Newtown Veterinary Hospital,"Pet Services, Acupuncture, Pet Sitting, Pet Boarding, Health & Medical, Veterinarians, Pets",Newtown,PA,18940,4.5
9P1BSUOEmbfK6LN7o_d-kw,Emancipet,"Local Services, Pet Services, Community Service/Non-Profit, Pets, Veterinarians",Philadelphia,PA,19120,4.5
ld10nBHYNol7A3pg8afFSQ,Banfield Pet Hospital,"Veterinarians, Pets, Pet Stores",Harahan,LA,70123,3.0
wa0FgaA20tkY4uxiY5JOBQ,Florida Veterinary Clinic,"Pets, Veterinarians",St Petersburg,FL,33702,4.0
rLpW8LAQSM9ReTl5YAQLDg,World of Animals at Mayfair,"Pet Services, Veterinarians, Pets, Pet Groomers",Philadelphia,PA,19135,5.0
K-RtfiOLgeaf93rUffvaZg,Cat Care Clinic,"Veterinarians, Pet Groomers, Pet Sitting, Pet Services, Pets",Indianapolis,IN,46240,4.5
GAc0yLxo45OljCwMeNo0Fw,Valrico Animal Clinic,"Pets, Pet Services, Veterinarians, Pet Sitting, Pet Groomers",Valrico,FL,33596,4.5
k2y88x3JOzR0vDN16YLmqQ,Heart + Paw,"Pet Services, Pet Groomers, Veterinarians, Pets",Glen Mills,PA,19342,3.0
YdKVd6uaahE8AGZ1lecKMQ,Banfield Pet Hospital,"Veterinarians, Pets, Pet Services",Glen Carbon,IL,62034,3.0
WACUFxpUGxuM_RkqyrrjdQ,All Wild Things Exotic Animal Hospital,"Pets, Veterinarians",Indianapolis,IN,46220,4.0
mNMYUhCd9RnJVIcJT8lY3g,Santa Barbara Pet Hospital,"Pet Services, Pets, Veterinarians, Pet Sitting, Pet Boarding, Holistic Animal Care",Santa Barbara,CA,93109,4.0
L98nS5xyqhP7JAWRQngATg,Santa Cruz Veterinary Clinic,"Veterinarians, Pets",Tucson,AZ,85706,3.5
u-ShWiZ1zY9L2VC5keSIzg,Southwick Veterinary Hospital,"Pet Sitting, Pets, Pet Services, Veterinarians",St Louis,MO,63129,4.0
CSA4_HIcVDgqj3TP7zsaaw,Faithful Friends Animal Society,"Veterinarians, Pets, Local Services, Community Service/Non-Profit, Animal Shelters, Pet Stores",Wilmington,DE,19804,3.0
dBB6DiR0botGh4SGPUNurQ,Aurora Companion Animal Hospital,"Pets, Pet Services, Pet Sitting, Veterinarians, Pet Groomers, Pet Boarding",Gretna,LA,70056,4.5
85ferUMzU7juiQ5yUwmZrw,Ambler Veterinary Clinic,"Pets, Veterinarians",Ambler,PA,19002,4.0
FKfk4SQa_PrSK81Fjka3yw,Mill Creek Animal Hospital,"Pets, Veterinarians",Nolensville,TN,37135,4.0
lEFUGsYP3xy-ZU5WTTrvFA,Allisonville Animal Hosp,"Pets, Veterinarians",Fishers,IN,46038,4.5
lwslye74jDy-XM369bkQOg,Madera Veterinary Hospital,"Pets, Veterinarians",Tucson,AZ,85747,4.0
kwGHblC_bsQA_cNWJ6DESw,Kindred Spirits Pet Services,"Veterinarians, Pet Hospice, Pet Cremation Services, Pets, Pet Services",Tucson,AZ,85705,4.0
67TzDte4Mod7FGerTNu-fw,Pet Doctor,"Pet Adoption, Veterinarians, Pets, Animal Shelters",Tucson,AZ,85704,3.5
-w3QfCAsyxnZxOWhOMAC6Q,Wissahickon Creek Veterinary Hospital,"Pets, Veterinarians",Philadelphia,PA,19128,4.0
JlLh80kYzjVPcINyAezPKQ,Santa Cruz Animal Clinic,"Pets, Pet Services, Veterinarians",Brandon,FL,33511,3.5
YjLQX0NEZw1sBHAj93PD0w,Priest Lake Veterinary Hospital,"Pet Sitting, Veterinarians, Pet Services, Pets",Antioch,TN,37013,4.5
tkc2KQtUBeDqBypSeulO0g,Fish Hawk Animal Clinic,"Pets, Veterinarians",Lithia,FL,33547,4.5
3zA0hQoWfsEtFmm8Hv4mtQ,Eastside Pet Clinic,"Veterinarians, Pets",Tucson,AZ,85710,3.5
2t4AGBtgk-P9mE8JWm3uSQ,Chestnut Hill Cat Clinic,"Pets, Veterinarians",Philadelphia,PA,19118,3.0
0-WKL9cYnevay7m50WtxzQ,College Park Pet Wellness Clinic,"Veterinarians, Pets, Pet Services, Pet Groomers",Indianapolis,IN,46268,5.0
yB5Wjzo83LvvQ4IB3h2MeA,Best Friends Total Pet Care,"Pet Sitting, Pet Services, Veterinarians, Pet Training, Pets, Pet Groomers",Indianapolis,IN,46250,4.0
VsPVUNdSbbzmg_kWQifipQ,Banfield Pet Hospital,"Pets, Veterinarians",Newark,DE,19713,2.5
2zBqQNN8p-rRftjPJ3wEcw,Airport Animal Hospital,"Pets, Veterinarians",Goleta,CA,93117,3.0
2zCl1aCUjVJ1ZxrA3S-D7w,Horsham Veterinary Hospital,"Pet Groomers, Veterinarians, Pets, Pet Services, Pet Sitting",Horsham,PA,19044,3.5
as8ray_zWCh5f3Jy16NYjQ,Four Paws Veterinary Clinic,"Veterinarians, Pets",Tucson,AZ,85712,4.0
h7CpbeUJ5k3h2gX6RDj_Tg,Indian Valley Animal Hospital,"Pet Groomers, Pets, Pet Services, Veterinarians",Souderton,PA,18964,3.5
D_wEJMETgAXuaMOEiaILqQ,Woodington Veterinary,"Pets, Veterinarians",Eagle,ID,83616,5.0
LpSbSJpAtX_ZeYL-h6ZDoQ,Care Animal Hospital,"Pet Boarding, Pet Sitting, Pet Services, Pets, Veterinarians, Pet Groomers",Brandon,FL,33511,4.0
NkI7i0O9wL-BfOR8VNuc5w,Humane Society of Missouri,"Pet Stores, Pet Adoption, Animal Shelters, Veterinarians, Pet Training, Pet Services, Pets",Maryland Heights,MO,63146,2.5
RXBOkEGO8nMBXplR9aSVxA,ABC Pet Care,"Veterinarians, Pets",Tucson,AZ,85747,3.0
L81XheMK8cTbA5fa6KuGTQ,Forum Veterinary Clinic,"Veterinarians, Pets",Chesterfield,MO,63017,4.0
QtrikgTDCWYVe87Lgq0RLg,Northwest Pet Clinic,"Pets, Veterinarians, Pet Services, Health & Medical, Rehabilitation Center, Pet Training",Tucson,AZ,85704,3.5
JKk1Whzr5bSp0QCwXuPF6w,Northeast Animal Hospital,"Pet Sitting, Pets, Pet Services, Veterinarians",Saint Petersburg,FL,33704,3.5
A0wdhAK-H98tPBANzYJyVw,VCA Shadeland Animal Hospital,"Pet Sitting, Pets, Veterinarians, Pet Services",Indianapolis,IN,46226,4.5
2U3Vn7AdOOb1-tAF0S-tiA,Carrollwood Community Animal Hospital,"Pets, Pet Sitting, Veterinarians, Pet Services",Tampa,FL,33618,4.0
dd5y90LdtlU2YHv9C8MMIQ,Metairie Small Animal Hospital,"Pet Services, Pets, Veterinarians, Pet Groomers, Pet Sitting, Pet Boarding",Metairie,LA,70005,3.0
2T-nxTseBKJYMyREAZwTUA,SCAN + Animal Emergency - Clearwater,"Doctors, Health & Medical, Pets, Veterinarians, Neurologist",Clearwater,FL,33765,4.0
SEXfQMiVvJv0KeHCNJEmjQ,Banfield Pet Hospital,"Veterinarians, Pets",Tampa,FL,33610,3.0
ly8z7bWDNrVKZ0ylu-QXgA,Sierra Animal Hospital,"Pet Services, Veterinarians, Pets",Apollo Beach,FL,33572,4.5
1WLjgmdlOULUKLEjrAIj2A,4th Street Pet Hospital,"Pet Stores, Veterinarians, Pets, Pet Services",St. Petersburg,FL,33704,4.0
XEQRiAAzP-iXXmouxeea0g,Marrero Veterinary Clinic,"Pets, Pet Services, Veterinarians, Pet Sitting",Harvey,LA,70058,4.0
FSl6e2HZZjFz8cSeVvaNYw,Critter Care Veterinary Hospital,"Veterinarians, Pet Services, Pets",Thorndale,PA,19372,3.5
oXvhJLylstVRllmwAYRVrg,Unity Animal Hospital,"Health & Medical, Pets, Veterinarians",Wallingford,PA,19086,4.5
zKpGDrQZKHY_ymBNVSq4jg,Cheval Animal Hospital,"Pets, Veterinarians",Lutz,FL,33548,4.5
TB8j9Vqv3zALHiqkLYZEOA,Philadelphia Animal Hospital,"Pet Groomers, Veterinarians, Pet Services, Pets",Philadelphia,PA,19153,3.5
FgpLWy_rH8abuKTq_Smk-g,VCA Bal-Coeur Animal Hospital,"Pet Services, Veterinarians, Pet Sitting, Pets",Creve Coeur,MO,63141,5.0
o8MC9hsaM7NjPzf7D4AKVw,VCA Noah's Ark Animal Hospital,"Pets, Pet Services, Pet Groomers, Veterinarians, Pet Sitting",Goleta,CA,93117,3.5
jdzJrYiK58yCmspyf5czBA,BluePearl Pet Hospital,"Pets, Urgent Care, Health & Medical, Veterinarians",Philadelphia,PA,19147,4.0
t3-XLwdiZSmNBRvNq_bEng,Twin Peaks Veterinary Center,"Pets, Pet Services, Pet Groomers, Pet Sitting, Veterinarians, Pet Boarding",Tucson,AZ,85743,4.0
rr1bsP3CO0C8ngG8GeMD7g,Geisman Raymond A DVM,"Veterinarians, Pets",Saint Louis,MO,63139,4.5
CEXx9C64BrMLCUHhau9DaQ,VCA A Plus Animal Hospital,"Veterinarians, Pets, Pet Stores, Pet Services, Pet Groomers, Pet Boarding, Pet Sitting",Reno,NV,89511,3.5
SDkr3ucXhnhfGdLHKR_icA,Linder Pet Medical Care,"Pets, Veterinarians, Pet Services, Pet Groomers",Meridian,ID,83642,3.5
wZ2hxqMCr4aFT-UL_V-hTw,Southshore Animal Hospital,"Veterinarians, Pets, Pet Stores, Pet Sitting, Pet Boarding, Pet Services, Pet Groomers",Metairie,LA,70005,4.5
CvPJf7CJcITXVtVOa4aPMw,City Way Animal Clinics - Fall Creek Place,"Pets, Veterinarians, Pet Services, Pet Groomers",Indianapolis,IN,46205,4.0
OS1qocIle-YUu87PGqKGEg,"Greek Jean, DVM","Veterinarians, Pets",Santa Barbara,CA,93105,5.0
y6z1LXrqRYJhAgKU7utJ0Q,Trinity Pet Hospital,"Veterinarians, Pets",New Port Richey,FL,34655,2.5
rYHp2-kFBpdA_Uk7M-aapA,Edwardsville Pet Hospital,"Pets, Pet Services, Veterinarians",Edwardsville,IL,62025,4.5
llL3OKJTlJF9q3Sgd2XaiA,VCA Noahs Place Animal Medical Center,"Pets, Veterinarians",St. Petersburg,FL,33702,3.5
WBUix1IZ2LzEUYjZ8dkgJw,IndyVet Emergency & Specialty Hospital,"Veterinarians, Pets",Indianapolis,IN,46203,3.0
fyfQRrDGp6bSSgHIpUUgag,Goodlettsville Animal Hospital,"Pet Boarding, Pet Services, Pet Sitting, Health & Medical, Pet Groomers, Pets, Veterinarians",Goodlettsville,TN,37072,4.0
ErtIx5X0RK2feaOj_FhwoQ,Dr Kathy's Veterinary Care,"Veterinarians, Pets",North Redington Beach,FL,33708,4.5
7_XzQj4BE_qeWci9jwMB8Q,West Michigan Street Veterinary Clinic,"Veterinarians, Pets",Indianapolis,IN,46222,3.5
nDWmgV8LvonrfDfQOw_mFA,Island Life Animal Hospital,"Pets, Veterinarians",St. Petersburg,FL,33715,5.0
HoycPhUjNJVQyb_XXwVD3g,Pet Pal Veterinary Clinic,"Pets, Pet Services, Veterinarians",Saint Petersburg,FL,33711,3.5
kS29HYPzCIGnVzo-sr1nGQ,Meadowrun Affordable Pet Care,"Veterinarians, Pets",Brandon,FL,33511,3.0
Wg6vzw8fzA-YLfGBn1IqKA,Art Museum Veterinary Center,"Pets, Veterinarians, Emergency Pet Hospital, Pet Services",Philadelphia,PA,19130,4.5
aLH9E3fqoBGvwQ7qIK1z4Q,Rau Animal Hospital,"Veterinarians, Pet Services, Pet Sitting, Pet Groomers, Pets",Glenside,PA,19038,4.5
BT6kilXfDY_vJdnsz_mllg,Face Low Cost Animal Clinic,"Pet Adoption, Hospitals, Veterinarians, Pet Groomers, Pet Services, Health & Medical, Pets",Indianapolis,IN,46201,4.0
GC2aO-_9drbYqSATHnIB0Q,Dose Tom & Sharon DVM,"Veterinarians, Pets",Reno,NV,89503,3.5
bLskTaK_sLIGnlKpLS1e0Q,Humane Society of Tampa Bay Health Center,"Pet Services, Veterinarians, Pet Groomers, Animal Shelters, Pets",Tampa,FL,33607,2.5
KjUAwVQTRI3hnAXhbl2ZYA,Avalon Animal Clinic,"Pet Services, Pets, Pet Stores, Veterinarians",Indianapolis,IN,46250,5.0
HYAhbjNOQH8CwssHuZ4oqw,Valencia Animal Hospital,"Acupuncture, Veterinarians, Pets, Health & Medical",Tucson,AZ,85747,4.0
Tw-L7_gRnIkaq4jRO2wAyg,Golf Links Animal Clinic,"Pets, Veterinarians",Tucson,AZ,85730,1.5
WOzoNLzTw-ieVvlxnGidkw,All Cats Hospital PA,"Veterinarians, Pet Services, Pets, Pet Sitting",Largo,FL,33774,4.5
yNWBPuW-UyK0LyZ1PvYvkg,Ardmore Animal Hospital,"Pet Sitting, Veterinarians, Pet Services, Pet Groomers, Pets",Ardmore,PA,19003,3.5
dnqlQLfNOT5OTD_zFouTMQ,Banfield Pet Hospital,"Veterinarians, Pets",King Of Prussia,PA,19406,2.5
DWalhNOQdL8USqAVeNoJLg,Pet Check Urgent Care,"Urgent Care, Emergency Pet Hospital, Pets, Pet Services, Veterinarians, Health & Medical",Sewell,NJ,08080,3.5
ZEGTeJHuZmpwHxZLE-yd3g,Cat & Bird Clinic,"Pet Services, Pets, Veterinarians",Santa Barbara,CA,93101,4.0
QAMtYB1mFK9kqnR-dhlnrw,Mobley Veterinary Clinic,"Veterinarians, Pet Boarding, Pets, Pet Groomers, Pet Services, Pet Sitting",Nashville,TN,37216,4.0
D0tVxwC7PF9dLUFTVdxwjQ,"Animals Best Choice - Tarpon Springs-Palm Harbor, West Pasco","Veterinarians, Pets",New Port Richey,FL,34653,3.5
SNIkzPFKkehxWvJea6PaMg,Sherlock Bones Animal Hospital,"Pets, Pet Sitting, Pet Groomers, Pet Boarding, Veterinarians, Pet Services",Carmel,IN,46032,4.0
KO9rCY4olzniQpalU2HkfA,Pasadena Veterinary Hospital & Laser Center,"Pet Boarding, Pets, Pet Sitting, Pet Services, Veterinarians",Saint Petersburg,FL,33707,2.0
c6nspGxU5ZcLcuoBAMaH4w,Sunshine Animal Hospital,"Veterinarians, Pet Services, Pet Sitting, Pets, Pet Boarding",Tampa,FL,33615,4.5
YnY1TlV_rSohtDFc8gIHdQ,Sunset Park Animal Hospital,"Pet Services, Veterinarians, Pets, Pet Hospice",Tampa,FL,33629,4.5
c3gWuplROSWk4DOkdjWPYA,Countryside Animal Hospital,"Pet Groomers, Veterinarians, Pet Services, Pets, Pet Sitting, Pet Stores",Clearwater,FL,33761,4.0
2LEnJ672pbO7vMRApUd1GA,Lake Seminole Animal Hospital,"Veterinarians, Pets, Pet Boarding, Dentists, Pet Sitting, Health & Medical, Pet Services",Seminole,FL,33777,4.5
4MQ18FczZum_m1GJ_s9MGg,Main Street Animal Hospital,"Veterinarians, Pets",Dunedin,FL,34698,5.0
iyl4bvaTrpEaBeqxqWyN9g,Brentwood Veterinary Clinic,"Pet Sitting, Pets, Veterinarians, Pet Services",Brentwood,TN,37027,3.5
BKLoAwboAy0-ajZfqwpR_w,Sugartown Veterinary Hospital,"Pets, Holistic Animal Care, Veterinarians, Pet Hospice, Pet Services",Malvern,PA,19355,5.0
uIfVylzs0r9_fpqvSp77Ug,Bureau of Motor Vehicles,"Veterinarians, Departments of Motor Vehicles, Public Services & Government, Pets",Carmel,IN,46032,4.5
X5lGKqhSADl-hrvLmd8xqw,Stoney Creek Veterinary Hospital,"Pets, Veterinarians",Morton,PA,19070,4.0
5Yu1XIl7yF2k7Tj_0nEcSw,Banfield Pet Hospital,"Veterinarians, Pets",Tampa,FL,33635,3.0
wAhGye-_SotgRzukt4a7yg,Partridge Animal Hospital,"Pet Services, Pets, Veterinarians, Pet Sitting",St. Petersburg,FL,33702,3.5
-voM-kP750PKArX9obpYPA,Veterinary Specialists Of Greater New Orleans,"Pets, Veterinarians",Metairie,LA,70005,5.0
LbC4UaqqR5sYh1GI36tR6Q,Circle Veterinary Clinic,"Veterinarians, Pets",Wilmington,DE,19804,3.5
R0uH4WFjZZbjSt7tqwXIqg,Compassion Veterinary Clinic,"Veterinarians, Doctors, Pet Sitting, Health & Medical, Pets, Pet Groomers, Pet Boarding, Pet Services",Philadelphia,PA,19114,4.0
V2qj2s3fx0x7fW9n_ltupw,Banfield Pet Hospital,"Pets, Veterinarians",Meridian,ID,83642,2.5
SNMnw59zxIb_D78g3X1IHg,Desert Paws Mobile Veterinary Care,"Veterinarians, Pets",Tucson,AZ,85715,4.5
F5QTYF4W9qkKt0PEtCy6og,Bradford Animal Hospital,"Pet Boarding, Pets, Pet Sitting, Veterinarians, Pet Groomers, Pet Services",Brentwood,TN,37027,5.0
md8T-ghoaTM9lYQ_iC3v0A,Banfield Pet Hospital,"Veterinarians, Pets",Sparks,NV,89436,3.0
_5yJIN7Hk0ul6JWtCxGrYw,VCA Causeway Animal Hospital,"Pets, Veterinarians, Pet Services, Pet Groomers, Pet Boarding, Pet Sitting",Metairie,LA,70001,4.0
2nmZ_Eo0j5KN543_KgXqhg,WestVet,"Pets, Emergency Pet Hospital, Veterinarians, Pet Services",Garden City,ID,83714,3.5
TgDi59Gk4a2qbIXwmrLiVw,Keystone Veterinary Hospital,"Pet Sitting, Veterinarians, Pet Services, Pets",Newtown,PA,18940,3.5
wSEPEecE83FjJThdLtJhmQ,Animals' Hospital of Levittown,"Pets, Veterinarians, Health & Medical, Professional Services",Levittown,PA,19057,2.5
O-3zvev_BU7H5-r4NMZhNA,City Paws Veterinary Clinic,"Pet Services, Pets, Veterinarians",St. Louis,MO,63110,5.0
7592I4oT4zfMpECrgXCKbw,The Village Veterinarian,"Veterinarians, Pets",Fairless Hills,PA,19030,4.0
oJogudU0lXteDzjcwCB_xQ,Nippers Corner Pet Medical Center,"Pet Services, Pet Boarding, Financial Services, Pets, Insurance, Pet Groomers, Veterinarians, Pet Sitting",Nashville,TN,37211,4.5
RAPn1VLo6yvyGJwSOwcEPw,Banfield Pet Hospital,"Pets, Veterinarians",Trinity,FL,34655,1.5
CaoZ44q_ZJCSqXpa_Ll2sw,Caring Hands Animal Hospital,"Veterinarians, Pet Groomers, Pet Services, Pets, Pet Boarding, Pet Sitting",Franklin,TN,37064,3.0
Z5sbyGkaH0BDWtDw-hppFQ,Animals R Us,"Pets, Veterinarians",Boise,ID,83714,4.0
6mdDwPdnVUZgrzFtta8aOg,Community Animal Hospital,"Pets, Veterinarians",Reno,NV,89523,2.5
asG2hPqUb0lXLksCE6iaBA,Zionsville Animal Hospital,"Pet Cremation Services, Veterinarians, Pet Boarding, Pet Services, Pets, Pet Sitting",Zionsville,IN,46077,3.5
p3tvVAQUUAHv1UpQgNOycQ,Furr Pet Spa and Wellness,"Pet Services, Pet Groomers, Veterinarians, Pets",Indianapolis,IN,46202,4.5
Tv-HxZPRmJDGSVfvYmulKA,Pet Station,"Pet Stores, Pets, Pet Services, Pet Groomers, Veterinarians",Reno,NV,89521,3.5
reXVEAoe1rcL4vvuQOWPmA,Naamans Animal Hospital,"Pets, Pet Services, Veterinarians",Wilmington,DE,19810,4.5
d72WxKB3sFJJ3mML7lOrPQ,York Road Veterinary Hospital,"Veterinarians, Pets",Warminster,PA,18974,3.5
9opQeis1McBhq4v_6kXVVw,Banfield Pet Hospital,"Pets, Veterinarians",Plymouth Meeting,PA,19462,2.0
l_6GNSBPib-15tmHTPmE8g,Glen Mills Veterinary Hospital,"Veterinarians, Health & Medical, Medical Centers, Pets",Glen Mills,PA,19342,4.5
euIO2vA7cyRGGBKtM1ObBg,Family Pet Clinic,"Pets, Veterinarians",Southampton,PA,18966,4.0
gzKnO06Tu9jOEOppUZvnoQ,Banfield Pet Hospital,"Pets, Veterinarians",Moorestown,NJ,08057,2.0
D8kaGtgZ5ofwq11EX5fczg,Lap of Love,"Pets, Pet Services, Pet Hospice, Veterinarians",Philadelphia,PA,19121,5.0
uw8ZpsvrwvnCPizMxBkxpQ,Woodland Animal Hospital,"Pet Services, Pet Groomers, Veterinarians, Pet Sitting, Pets",Carmel,IN,46032,3.5
DtGSqkRO6lwO1kIso_c8jw,Pet Care Center,"Pets, Pet Services, Veterinarians, Pet Groomers, Pet Sitting",Metairie,LA,70003,2.5
fUZPSWGUyE5f_f1ozq3fig,McMillan Veterinary Clinic,"Pet Groomers, Veterinarians, Pets, Pet Services, Pet Boarding, Pet Sitting",Gallatin,TN,37066,2.5
dJSkrR2e32RmIEWpe-xNzw,Veterinary Dentistry Specialists - Chadds Ford,"Pets, Veterinarians",Chadds Ford,PA,19317,4.5
NonD6PlCeOW6f3R8Kht3Mw,Bayshore Animal Clinic,"Pet Services, Veterinarians, Pets",Tampa,FL,33611,4.5
hLVEs7u6CVyfYbcGoUcQZw,Sierra Veterinary Specialists & Emergency Center,"Veterinarians, Pets",Reno,NV,89512,4.0
zUehEbCnXtN4zTGkaRsjCQ,Safe Place For Animals,"Pet Services, Pet Adoption, Pets, Pet Groomers, Veterinarians",Gallatin,TN,37066,3.0
iV71JrzHPyoqhgImL_wFyA,VCA Animal Health Hospital,"Pets, Pet Groomers, Veterinarians, Pet Services, Pet Sitting",Tucson,AZ,85748,4.5
HjtnQzXz7F0YhgxBjnVepA,VCA Baring Boulevard Animal Hospital,"Veterinarians, Pets, Pet Services",Sparks,NV,89434,3.5
JqJXL4hQT9nnzMn-kQ0xfA,Main Street Animal Hospital,"Pets, Veterinarians",Doylestown,PA,18929,4.5
Twj-eYQFnAiuPBxyMGH14g,Santa Barbara Wildlife Care Network,"Local Services, Veterinarians, Wildlife Control, Community Service/Non-Profit, Pets, Animal Shelters",Goleta,CA,93117,4.5
Vdq8u-z-cL-CJytIt_vxQQ,Timberlane Pet Hospital & Resort,"Pet Sitting, Pet Boarding, Veterinarians, Pet Groomers, Pet Services, Pets",Plant City,FL,33566,3.5
z98fLygWUsL7ufLliECevw,Lafayette Road Veterinary Hospital,"Pets, Veterinarians",Indianapolis,IN,46222,4.5
4veDAzJk5OPr4rpWxZF-GQ,Springfield Veterinary Hospital and Dental Clinic,"Health & Medical, Pet Groomers, Pet Services, Doctors, Veterinarians, Pet Sitting, Pets",Springfield,PA,19064,3.5
9ZoD5qZiVtTPLKXWXK9Mow,VCA Cypress Creek Animal Hospital,"Pets, Pet Services, Veterinarians, Pet Sitting, Pet Boarding, Pet Groomers",Lutz,FL,33559,4.5
5U7jm2_ibWeiLltemx3EXA,Main Line Animal Rescue,"Veterinarians, Community Service/Non-Profit, Local Services, Pets, Pet Adoption, Animal Shelters",Phoenixville,PA,19460,2.5
37blTrcF-06klL3ZZzmYtA,Suffolk Hills Pet Clinic,"Veterinarians, Pets",Oro Valley,AZ,85704,4.0
HLiEkWfZhMN-EWGDOUQCLQ,New Hope Veterinary Clinic,"Veterinarians, Pets, Pet Boarding, Pet Sitting, Pet Services",Joelton,TN,37080,3.0
m7gq2KpEUqyz1ZyyFD-n-g,Homeward Bound Veterinary Services,"Veterinarians, Pet Services, Pets",Tucson,AZ,85743,5.0
vulSxTZl2ddEDDc4Lq0wqg,A Pet's Place,"Pets, Pet Boarding, Pet Groomers, Veterinarians, Pet Services, Pet Sitting",Clearwater,FL,33765,4.0
5i4qA77tW2JNhRsoscF1lw,Angel Animal Hospital,"Pet Services, Pets, Pet Sitting, Veterinarians",Greenwood,IN,46142,3.5
N7pJS4L6vpzSaxmKqnqVDQ,Greenfields Veterinary Associates,"Veterinarians, Pets, Health & Medical, Doctors, Pet Services",Mantua,NJ,08051,3.0
6H5n-O_3SXd1Pjpwd4mtoQ,Flowers Mill Veterinary Hospital,"Veterinarians, Pet Sitting, Pet Services, Pet Boarding, Pets",Langhorne,PA,19047,3.0
T4u_s-rqkfGNEcOziMJSpA,Hope & Care Animal Hospital,"Pet Services, Veterinarians, Pets",Clearwater,FL,33765,5.0
Kyss9ktNva1ZNVXS8UE1Vg,Advanced Pet Care of Northern Nevada,"Pets, Pet Sitting, Veterinarians, Pet Groomers, Pet Services",Sparks,NV,89431,4.0
O7OHQWoi0rYNt2ShRZTKPg,Banfield Pet Hospital,"Veterinarians, Pets",Springfield,PA,19064,2.5
du2gzTkQZifHevzdUmmzGg,My Pet's Veterinary Center,"Pet Boarding, Pets, Veterinarians, Pet Sitting, Pet Services",Hainesport,NJ,08036,4.0
9Lrfpcq2XqgkgJYOLZmFJA,Fairmount Animal Hospital,"Pets, Pet Services, Pet Sitting, Veterinarians",Philadelphia,PA,19130,2.5
e9lx-m-4zIr5i4InOKerwQ,Belle Forest Animal Hospital & Kennels,"Pet Services, Pet Groomers, Pets, Veterinarians, Pet Sitting",Nashville,TN,37221,4.5
yASWZwmByETgdAxgtLeraA,Mesquite Veterinary Hospital,"Pet Services, Pets, Pet Sitting, Veterinarians",Tucson,AZ,85739,4.5
kuPrmkbxRxq7QnmACsO6Pg,Day & Evening Pet Hospital and Pet Surgical Center,"Pets, Veterinarians, Pet Services",Palm Harbor,FL,34683,3.5
-UEuWmF0ZKLQIBqiG8lUgw,Speedway Veterinary Hospital,"Pets, Veterinarians",Tucson,AZ,85716,4.5
bjvhomaz-Hv-JitUzE7A1g,Canada Del Oro Pet Clinic,"Veterinarians, Pets",Marana,AZ,85741,4.0
5RuFy-jdLJx-qCo_xOLKLg,Value Vet,"Pets, Veterinarians",Nashville,TN,37206,3.5
m07u_tzyWmFOhBdit8WXlg,Dr. Lori's Mobile Veterinary Service,"Hospitals, Health & Medical, Home Services, Veterinarians, Pets",Moorestown,NJ,08057,2.5
V5TktGWhiviYpeh8JT9cwA,"Wolf Dan, DVM","Pets, Veterinarians",Tampa,FL,33634,4.5
amuY9VuP9DkszXS0qq38WA,All About Animals,"Pet Boarding, Pets, Veterinarians, Pet Services, Pet Sitting",Seffner,FL,33584,2.5
rRAHEeontKyly0W9mWasoA,Gentle Goodbyes,"Funeral Services & Cemeteries, Pet Cremation Services, Veterinarians, Pet Services, Pets, Local Services",Boise,ID,83714,5.0
7BGX3P9418w8IA_dtyL4mg,Banfield Pet Hospital,"Veterinarians, Pets",Tucson,AZ,85741,2.5
fo8vPjgTnymV2-Hgg6vjEg,Glenmoore Veterinary Hospital,"Veterinarians, Pets, Pet Services",Glenmoore,PA,19343,3.5
WJpKa3NePSV37vnMsOn6qQ,All Creatures Veterinary Care,"Pet Services, Acupuncture, Hospitals, Pets, Health & Medical, Veterinarians, Pet Sitting, Pet Groomers",Reno,NV,89511,3.0
Pa47rz_4vtYIIAmVlsowuw,Aston Veterinary Hospital,"Veterinarians, Pets, Pet Sitting, Pet Boarding, Pet Services",Media,PA,19063,3.0
NzT44MH9MFKgdrgZpiqYbw,Ark Animal Hospital of Chalfont,"Pets, Veterinarians",Chalfont,PA,18914,5.0
wtsNO-MCd7rGA42gfFSaaQ,All Pets Hospital,"Veterinarians, Pets",New Port Richey,FL,34653,4.0
IDdVpQSDPe_VSXvUU68JwA,World of Animals At Rittenhouse,"Pet Services, Veterinarians, Pets",Philadelphia,PA,19146,4.5
uiBMdElusrMo2zFjfN1Hyg,Kreature Komforts Animal Hospital,"Pets, Veterinarians, Health & Medical, Pet Boarding, Acupuncture, Pet Sitting, Pet Services, Pet Groomers",Sparks,NV,89431,4.0
EEksc8z2iAHGY4VDZMug-w,Mount Laurel Animal Hospital,"Pets, Veterinarians",Mount Laurel,NJ,08054,3.0
rVNkCgvzW8nrhwF9yfCSig,VCA Audubon Animal Hospital,"Veterinarians, Pets",Audubon,NJ,08106,2.5
qQkBiAiK_LG1fnXQlQ5NVA,Simmons Animal Hospital,"Pets, Veterinarians, Pet Services",Philadelphia,PA,19145,3.5
7mvjwPi_NRYpARwIEgZVbA,Bay Pines Veterinary Hospital,"Veterinarians, Pets",St. Petersburg,FL,33708,3.0
UUVGRcJWobDQMllmCAa2Dw,Windcrest Animal Hospital,"Veterinarians, Pets, Pet Services, Pet Sitting, Pet Boarding, Pet Groomers",Wilmington,DE,19805,2.5
bH_GpGteVP9YEnqrR7BXWQ,Banfield Pet Hospital,"Pets, Veterinarians",Madison,TN,37115,3.5
8yJkD-XfyltzPnbkqQxp_A,Pet Care Center Clinic Esplanade,"Pets, Pet Services, Veterinarians, Pet Groomers, Pet Sitting, Pet Boarding",New Orleans,LA,70116,4.5
X0-paC0CaIY5yTZUHOU4IQ,Heart + Paw,"Veterinarians, Pet Groomers, Pet Services, Pets",Philadelphia,PA,19107,3.0
cuWLMoy3aOyzUuDfi2XoIQ,Olde Towne Fenton Veterinary Hospital,"Pets, Veterinarians, Pet Sitting, Pet Boarding, Pet Services",Fenton,MO,63026,5.0
t3cW0UFDOP7APM-7lrSYMA,Pet Station,"Pet Services, Pet Stores, Pet Groomers, Veterinarians, Pets",Sparks,NV,89441,4.5
kQzsvLd2ihsRjMb1Mj7OWg,Fishers Veterinary Hospital,"Pets, Pet Sitting, Veterinarians, Pet Services",Fishers,IN,46038,4.0
2YKw9BdkTkV0R4QrFKRfpA,Collegeville Cat Clinic,"Pets, Veterinarians",Collegeville,PA,19426,3.5
iABZcR1D-bW7M02OtrYGkQ,The Cat Doctor Veterinary Hospital & Hotel,"Veterinarians, Pet Sitting, Pets, Pet Services",Boise,ID,83704,4.5
WXVaYF6Q5S6ElKs5NlRHGQ,Chateau Veterinary Hospital,"Veterinarians, Pets",Kenner,LA,70065,4.5
kUZUmdBTtQ6284Qlzc_NyA,Vetter Pet Care,"Veterinarians, Pets",Philadelphia,PA,19104,4.5
bxfwzQnMMuFAZHHQ-gnfhg,Animal Clinic At Thorndale,"Veterinarians, Pets",Downingtown,PA,19335,3.5
82FuJiqXyYCp4yC_Q1kVbg,The Pet Clinic of Brownsburg,"Pets, Veterinarians",Brownsburg,IN,46112,3.5
FrYtSLRYHd6lDqBjCzV5bA,Indian Lake Animal Clinic,"Veterinarians, Pets",Hendersonville,TN,37075,4.5
vwEtHYbmavDPNzd19mqsLw,Banfield Pet Hospital,"Veterinarians, Pets",Tucson,AZ,85705,3.0
dVvcjkOpv50TB1j2PMWzrg,Animal Hospital of Avon,"Pets, Veterinarians",Avon,IN,46123,4.5
ysDfY-sAk2Rtu48yiLVuYw,County Line Veterinary Hospital,"Pet Services, Pets, Veterinarians",Hatboro,PA,19040,4.0
GNCpFATfJP-frli-_ubxlA,Avenue Animal Hospital,"Pet Services, Pet Sitting, Pets, Pet Groomers, Veterinarians",Mount Juliet,TN,37122,4.5
b0JG9KBMEbDRgxjAr8er9w,Creature Comforts Veterinary Hospital,"Pets, Veterinarians",East Norriton,PA,19403,4.5
l3x4U24CWu9CcXOpTqCi_w,Goose Creek Pet Hospital,"Pets, Pet Sitting, Veterinarians, Pet Services, Pet Boarding, Pet Groomers",Franklin,TN,37064,5.0
zJG6sDP2pfV8_ccuVMKLuA,Country Oaks Animal Hospital & Kennel,"Veterinarians, Pet Groomers, Pet Services, Pets, Pet Sitting",Palm Harbor,FL,34683,3.0
MvrE4DooC1On3I1eKY-Lsw,West Meade Veterinary Clinic,"Veterinarians, Pets, Pet Services, Emergency Pet Hospital",Nashville,TN,37205,5.0
nEHZxpY-Gc2NJ1Ewr747VQ,Creek's Edge Animal Hospital,"Pets, Veterinarians",Hainesport,NJ,08036,5.0
XT3nnINWhVx3I39geCva3w,Banfield Pet Hospital,"Veterinarians, Pets",Philadelphia,PA,19107,4.5
cc85fZFW8iHaO6SOdAYhVw,VCA San Francis Animal Hospital,"Pet Sitting, Pet Boarding, Health & Medical, Acupuncture, Holistic Animal Care, Veterinarians, Pet Services, Pets, Pet Groomers",Spring Hill,FL,34610,3.5
1EUQhLPGHp8g6ywEdqOfnA,Grassmere Animal Hospital,"Pets, Pet Sitting, Veterinarians, Pet Services",Nashville,TN,37211,4.5
sDe6ed3r0okBp7DcFo707g,Paws & Claws Animal Hospital,"Veterinarians, Pet Sitting, Pet Boarding, Pet Services, Pets",Nashville,TN,37220,5.0
0vVxyYN14Ab6-IXkMiHzeA,Spanish Springs Veterinary Hospital,"Veterinarians, Pets",Sparks,NV,89436,3.5
0ZkLOASDj-F8bVkjb6cdlQ,Lakeview Veterinary Hospital,"Pets, Pet Sitting, Veterinarians, Pet Groomers, Pet Services",New Orleans,LA,70124,4.0
bZvoxOwQOv1MAYGHNc0T3w,UrgentVet Brandon,"Pet Services, Veterinarians, Pets",Valrico,FL,33596,4.0
KMK5IMIHjtXpKVBqRN85Pw,Animal Crackers,"Pet Groomers, Pet Services, Veterinarians, Pets, Pet Sitting",Voorhees,NJ,08043,4.0
901hyann7Qs3cHOfe7Pzqw,The Pet Mechanic,"Veterinarians, Pets",Philadelphia,PA,19123,4.0
NklmXhSPnKEMgVLoQEj8_g,Van Dyke Animal Clinic,"Veterinarians, Pets",Lutz,FL,33558,4.5
6dm9EkQIhcej3ciOgcpKDA,Clark Animal Hospital,"Pets, Veterinarians",Kirkwood,MO,63122,4.5
GHPn3_OyFfjiTXpwupMJ_g,Lantana Veterinary Center,"Pet Sitting, Pet Services, Veterinarians, Pets, Pet Groomers",Hockessin,DE,19707,2.5
xu7UzzNvXhf9YCxtcq2Q4A,Value Vet,"Veterinarians, Pets",Nashville,TN,37211,3.5
0Fdn_98lawOYiFPh68HUUg,Center City Veterinary Hospital,"Pets, Veterinarians, Health & Medical, Pet Cremation Services, Hospitals, Pet Services, Pet Hospice",Philadelphia,PA,19106,4.5
vAT2nFkD0yvH-E9L-YebJw,Compassionate In-Home Euthanasia,"Veterinarians, Pets, Pet Services",Saint Louis,MO,63122,5.0
psvWadxTjzAqA6oQOf2r5g,Nashboro Animal Hospital,"Veterinarians, Pet Boarding, Pet Services, Pet Stores, Pet Sitting, Pets",Nashville,TN,37217,4.5
JqmCBRv0sWxexD4grjMn3Q,Idaho Humane Society,"Pet Stores, Pets, Veterinarians, Public Services & Government, Local Services, Community Service/Non-Profit, Animal Shelters",Boise,ID,83705,2.5
y2m308uKpjNK5UUYcF1Uqg,East Norriton Animal Hospital,"Pets, Veterinarians",Norristown,PA,19401,4.0
pAXb1hVrCuVBhDP22CmUFg,Animal Clinic of Westtown Village,"Pets, Pet Sitting, Veterinarians, Pet Groomers, Pet Services, Pet Boarding",West Chester,PA,19382,5.0
MCQJc2X_NE6vbfwJdRZl4w,Banfield Pet Hospital,"Pets, Veterinarians",Philadelphia,PA,19145,2.0
H35IjsusIWj0BKNRrFS-BA,Wilmington Animal Hospital,"Veterinarians, Pet Services, Pet Sitting, Pets",Wilmington,DE,19809,4.0
xvV40Jy0mTy0YXCWFh-r2w,Concord Road Animal Hospital & Pet Spa,"Pet Services, Pets, Pet Boarding, Veterinarians, Pet Groomers, Pet Sitting",Brentwood,TN,37027,4.5
ra0hPrOkN3zcOeS8mrazqg,Gray Fox Animal Hospital,"Pets, Veterinarians",Woodbury Heights,NJ,08097,3.5
xgHemFVEGV24UzgyFJqHXA,VCA Delaware Valley Animal Hospital,"Pets, Veterinarians, Pet Groomers, Pet Services",Langhorne,PA,19047,4.0
7PSF_olhn4U6TAbXbxIzsw,Pet First Veterinary Hospital,"Pets, Veterinarians",Trinity,FL,34655,3.0
bG7XVhqLOnOoUzivqqG9zA,Glasgo Memorial Veterinary Hospital,"Veterinarians, Pets, Pet Services",Indianapolis,IN,46234,4.0
lonahlT28I4cMqRNzsqtWw,Deerwood Animal Hospital,"Pet Services, Pet Stores, Pet Groomers, Pets, Veterinarians",Hamilton Township,NJ,08619,4.0
TGMGkDxMQLpKpm3xl34YuA,Boyette Animal Hospital,"Pet Services, Pet Sitting, Pet Groomers, Pet Boarding, Veterinarians, Pets",Riverview,FL,33569,3.5
YZMB2t4cfxnOAAH4Dqc_iA,HousePaws Mobile Veterinary Service of Atco,"Pets, Veterinarians",Atco,NJ,08004,4.5
Kb5PEz_qis_89KmRbhf9Mg,Comstock Equine Hospital,"Pets, Veterinarians",Reno,NV,89521,4.5
HwQyxWgONKNxMGPEkobohQ,Delco Veterinary Hospital,"Veterinarians, Pets",Sharon Hill,PA,19079,3.0
dLfJhzrUNoL8LLV2rhi_AQ,Holistic Veterinary Care Service,"Health & Medical, Holistic Animal Care, Pet Hospice, Pets, Pet Services, Veterinarians",Philadelphia,PA,19119,5.0
R9kInMBAgEO-aNKuhg3yWA,Chesterfield Veterinary Center,"Veterinarians, Pets",Chesterfield,MO,63017,3.0
CGwl1sMt3dVuxMEBAz6KwQ,McCordsville Veterinary Hospital,"Pet Groomers, Pet Services, Pets, Veterinarians",McCordsville,IN,46055,4.5
4Eft2Jch0kzcqWuYOD85yw,Silver Sage Veterinary Hospital,"Pets, Veterinarians",Reno,NV,89509,3.0
K8VgP7zH4RXusF3Nr3r-5A,VCA Little Animal Hospital,"Veterinarians, Pets, Pet Services, Pet Sitting",New Port Richey,FL,34654,3.0
JcwJugSFsF5GpE_F5Ugkhw,Tampa Bay Veterinary Specialists & Emergency Care Center,"Pet Sitting, Emergency Pet Hospital, Pets, Pet Services, Veterinarians",Largo,FL,33771,3.5
eKl4BQuCzOoGrO9Qn_YXrg,Banfield Pet Hospital,"Veterinarians, Pets",St. Petersburg,FL,33702,2.5
