business_id,name,categories,city,state,postal_code,stars
CsjKkpApaYJDd5woO9sP4w,Petco,"Pets, Pet Groomers, Pet Training, Pet Services, Pet Stores",Seminole,FL,33772,3.0
xa28v84RtUPWQKuw_UQBXQ,The Main Lion Cat Grooming Salon,"Veterinarians, Pet Stores, Pets, Pet Photography, Pet Services, Pet Sitting, Pet Groomers",Paoli,PA,19301,4.0
ufscOQH8rFo4BHIHj0au3A,Kristi's Pet Grooming,"Pets, Pet Stores, Pet Services, Pet Groomers",Reno,NV,89503,4.0
UFpCraqzFBAhtZqmxmiWsA,Cat Therapy,"Themed Cafes, Cafes, Pets, Arts & Entertainment, Women's Clothing, Coffee & Tea, Shopping, Pet Adoption, Fashion, Pet Sitting, Accessories, Pet Stores, Pet Services, Food, Restaurants",Santa Barbara,CA,93101,4.5
Dq1nXxrAHZQkiQuZWLajQA,Pawsitively Fintastic,"Pet Stores, Pet Services, Pets, Pet Sitting",Saint Louis,MO,63109,3.5
N4Yhp3p8lOoJdi-2E8yTsg,Almost Home Animal Shelter,"Pets, Animal Shelters, Pet Stores",Pennsauken,NJ,08110,1.5
J-jTtdjLEEIHZW7X6NVzMQ,Hot Diggity Dog,"Pet Services, Pet Groomers, Pet Stores, Pets",Sewell,NJ,08080,5.0
sYRIWLyYqQaAE8WMsmK5-w,Westside Animal Clinic,"Health & Medical, Pet Stores, Veterinarians, Pets, Hospitals, Pet Boarding, Pet Services, Pet Groomers, Pet Sitting",Spring Hill,FL,34606,2.5
ulFLsCym5q7H-ZuL93csSw,Happy Pets Grooming Spa,"Pet Stores, Pet Groomers, Pet Services, Pets, Pet Sitting",Fenton,MO,63026,4.0
kfcz8iJOkltAvkp6TqNMcA,Fairmount Pet Shoppe,"Pet Stores, Pets",Philadelphia,PA,19176,4.5
7JHjy3WEc_XW3FmCMELRvg,Terry Parkway Animal Hospital,"Pet Stores, Pet Services, Pet Sitting, Pets, Veterinarians",Gretna,LA,70056,4.5
caiaxbDoP-HRQN3RZwMgCw,Taylor Tack & Feed,"Pet Stores, Pets, Shopping, Horse Equipment Shops",Tucson,AZ,85730,3.0
NDDLfHEx3FYEPsb0OSfttw,Petco,"Pet Services, Pet Groomers, Pet Training, Pets, Pet Stores",Stowe,PA,19464,3.5
iyFCgs9-mRBRYt-q1l0fzg,Coral Reef Aquariums,"Aquarium Services, Pet Services, Pets, Pet Stores, Active Life, Aquariums",Tampa,FL,33604,5.0
o7ve1hUoAjAd5pnTzikfhw,Aquatic Designs,"Pet Stores, Pets",Goleta,CA,93117,4.0
xUw6pfJXn4OFt071iUc7VA,PetSmart,"Pet Stores, Pet Services, Pet Groomers, Pet Training, Pets",Saint Louis,MO,63144,2.5
HYojAoYoj0m7ZLbs-ZXdFw,Montgomery County SPCA,"Animal Shelters, Pet Stores, Pets",Conshohocken,PA,19428,2.0
r7ENkA0Pyjs8NSFHVwnmOA,Jefferson Feed Mid-City,"Pet Stores, Pets, Pet Groomers, Pet Services",New Orleans,LA,70119,4.5
J3KU2B0A-_kKM2vlQGCuHA,Spot's Pet Supply & Dog Wash,"Pet Services, Pet Sitting, Pet Stores, Pet Groomers, Pets",Nashville,TN,37206,4.0
mOqoNkokMbNmj6WtvkMFZA,Pet Supermarket,"Pets, Pet Stores",Tampa,FL,33629,3.0
X1TJjuV1GaTgHCe27tQKiQ,The Pet Club,"Pets, Pet Stores, Livestock Feed & Supply, Shopping, Pet Groomers, Pet Services, Pet Training",Tucson,AZ,85749,3.5
Khmn5FxaUZVcFpLEULVhoA,PetSmart,"Pet Training, Pet Sitting, Pet Groomers, Pet Services, Pet Stores, Pets",Brandon,FL,33511,2.0
NnW7PyUW44d4nnC9XY1naQ,Doggie Style Pets,"Pet Stores, Pet Groomers, Pets, Pet Adoption, Pet Services",Philadelphia,PA,19107,4.0
fU3zl-3LB60qgj4Z2TC5pQ,PetSmart,"Pet Groomers, Pet Stores, Pet Services, Pet Training, Pets, Pet Sitting",Collegeville,PA,19426,3.0
blHTn-dKS9q7QhdO0HSKRg,Petco,"Pet Groomers, Pet Stores, Pets, Pet Services, Pet Training",Tucson,AZ,85711,2.5
rKcKUEgqLTK-ejeziQp0Ow,Animal Adoption Center,"Pet Stores, Pets, Pet Adoption, Animal Shelters",Lindenwold,NJ,08021,3.0
Bb1ledeGQ66ORs2PEmdAbA,The Choosy Pet,"Pet Stores, Pets",Zionsville,IN,46077,5.0
8PNKnlnJg6snf-HUgFaNIw,U Dirty Dawg,"Pet Sitting, Pet Training, Pet Groomers, Pets, Pet Services, Pet Stores, Pet Boarding",Greenwood,IN,46143,4.0
qtHIhGR5Chbz947EoQGcVA,Orvis,"Sporting Goods, Pet Stores, Pets, Men's Clothing, Shoe Stores, Outdoor Gear, Fashion, Department Stores, Women's Clothing, Shopping, Hunting & Fishing Supplies",Plymouth Meeting,PA,19462,3.5
oSxRq9U8RCTPcK5BjZ_zXQ,Classy Clips Pet Salon,"Pet Stores, Pet Sitting, Pet Services, Pets, Pet Groomers",Smyrna,TN,37167,3.0
JtYHPyVNJZ4HVvDdpNV1Iw,Harold's Feed & Pet Supply,"Home & Garden, Shopping, Appliances, Nurseries & Gardening, Pet Stores, Fences & Gates, Pets, Home Services, Plumbing",Dover,FL,33527,4.0
VkwO21JP8KBqkvgcHPMc7w,See Spot Eat: A Doggie Bakery,"Pet Stores, Pets",Nashville,TN,37204,4.5
mBeSTUmigL9HGcfAjGRTQQ,One Lucky Dog,"Pets, Pet Services, Pet Groomers, Pet Stores",Saint Petersburg,FL,33703,4.0
DQwp-rgetZ1HLieYvS_ucA,Pet Valu,"Pet Stores, Pets",Glen Mills,PA,19342,3.5
ZisId5cI9Vd4bfqHLWSX7Q,Rockstar Aquarium Service,"Pet Services, Pet Stores, Aquarium Services, Pets, Local Fish Stores",Reno,NV,89504,3.5
CA1owJNjmoasqaHclILbLg,Pet Safari,"Pets, Pet Groomers, Pet Stores, Pet Services",Clearwater,FL,33756,4.0
ezVZHFWFb-ptn4fjLn9seA,Petco,"Pets, Pet Training, Pet Groomers, Pet Stores, Pet Services",Tucson,AZ,85705,3.5
QxFKG3k1LOs_a-CUoTthMw,PetSmart,"Pets, Pet Groomers, Pet Training, Pet Services, Pet Stores",Bridgeton,MO,63044,3.0
lm-z6S2fJ0_xfNtHDbZYdg,Nashville Humane Association,"Pets, Animal Shelters, Pet Stores",Nashville,TN,37209,4.0
PUJWUiEGUbchHwraIK2bRQ,Zamzows,"Pet Sitting, Pet Stores, Shopping, Nurseries & Gardening, Pets, Pet Groomers, Pet Services, Home & Garden",Boise,ID,83704,3.5
0dGu0V7hItn0LaF37Gz7RQ,Tractor Supply,"Home & Garden, Pets, Pet Stores, Livestock Feed & Supply, Outdoor Gear, Shopping, Sporting Goods, Hardware Stores",Southampton,NJ,08088,4.0
WO5tzsvDOK0o0rbxcQbgyQ,Petco,"Pets, Pet Stores, Pet Services, Pet Groomers, Pet Insurance",St Louis,MO,63125,2.0
69UjFWSzreAmJYqjgL1xVw,Wild Birds Unlimited,"Home & Garden, Pet Stores, Pets, Hobby Shops, Bird Shops, Nurseries & Gardening, Shopping",Franklin,TN,37069,4.0
iDWoZtq35FBj3vShT5oU8g,Buzzy's Bow Wow Meow,"Pets, Pet Stores, Pet Services, Pet Groomers",Narberth,PA,19072,3.5
_TbQ5yv_U5COLgRfWtYPNQ,Animal Protective Association,"Animal Shelters, Pet Adoption, Pet Stores, Veterinarians, Pets",Saint Louis,MO,63144,4.5
vSDWf09331AD44yrIW8BTQ,Happy Retales,"Pet Services, Pet Stores, Pets, Pet Groomers",Brentwood,TN,37027,4.5
2inAYr-vK4v6pYQieOYt3g,Posh Puppies Rescue,"Pet Stores, Animal Shelters, Pets",Saint Louis,MO,63103,2.5
2lRNoZXy3BkN3XPrdC-vlQ,Nashville Pet Products,"Pet Stores, Pets",Nashville,TN,37221,5.0
pd8lx4So-ad4SpSN5QFHBg,Nevada Humane Society,"Animal Shelters, Veterinarians, Pet Sitting, Pet Services, Pet Stores, Pets",Reno,NV,89502,4.0
wi2uiw74315VlC8E0vkhug,Island Dog Outfitters,"Pet Stores, Pet Services, Pets, Pet Groomers",Clearwater Beach,FL,33767,4.5
4lK7txpKqZmUAHomMdM83A,Fluffy Mutt Grooming Salon,"Pet Stores, Pet Groomers, Pet Services, Pets",Metairie,LA,70005,4.5
MgWGf9ZIcLGCsv3PrFp-qA,PetSmart,"Pets, Pet Groomers, Pet Stores, Pet Services, Pet Training",Arnold,MO,63010,2.0
OajA74OzhKjeuSpv_Hr54g,PetSmart,"Pet Stores, Pet Services, Pets, Pet Training, Pet Sitting, Pet Groomers",West Berlin,NJ,08091,3.0
GjKxDvRl-Z2h4Fccung2eQ,Pet Supermarket,"Pets, Pet Stores",Sparks,NV,89431,3.5
C5Nwl3I2luh-k5ePQ-kLmw,Parker's Paws Animal Hospital,"Pet Stores, Pet Services, Veterinarians, Pets, Pet Training",Nashville,TN,37205,5.0
4s8dGk8Yi49cOTD-QPz9-Q,Petcetera,"Pet Services, Pet Stores, Pets, Pet Sitting, Pet Training, Pet Groomers",New Orleans,LA,70115,3.5
MPTi75aYZzjuKXB8e9jvBQ,Treetops Kitty Cafe,"Pets, Community Service/Non-Profit, Local Services, Pet Stores, Pet Adoption, Restaurants, Cafes, Themed Cafes",Kennett Square,PA,19348,4.5
bxfTTZ2huLXi5EuEiwWTTw,Petco,"Pets, Pet Training, Pet Services, Pet Groomers, Pet Stores",Willow Grove,PA,19090,2.0
tyFB2ZO49QOmguda4d2qMg,Spoiled Petz Grooming,"Pet Services, Pet Groomers, Pets, Pet Stores",Reno,NV,89523,4.5
8aJGAFGnzp466KkposGQtA,Furry Friends Pet Grooming Shop,"Pets, Pet Stores, Pet Services, Pet Groomers, Pet Sitting",Saint Petersburg,FL,33703,5.0
FnRbuHh40BPB4u2RfJBUmQ,PetSmart,"Pet Services, Pet Training, Pets, Pet Stores, Pet Groomers",Brookhaven,PA,19015,2.5
xChRp1Aqqxnk5H4t-TMW9g,Santa Barbara Koi,"Pool & Hot Tub Service, Pets, Home & Garden, Nurseries & Gardening, Home Services, Pet Stores, Landscaping, Local Fish Stores, Hot Tub & Pool, Shopping",Santa Barbara,CA,93101,4.5
7o1UMjxlm3m_Z04JmzS5hA,Corals and Fins,"Aquariums, Aquarium Services, Active Life, Pet Stores, Pet Services, Pets",Tampa,FL,33634,5.0
AMN-OTW52_fViTt3vo3dTA,PetSmart,"Pet Training, Pet Stores, Pets, Pet Services, Pet Groomers, Pet Sitting",Tucson,AZ,85710,3.0
jlOnEtARzrVDGGhXZ36T8g,Petco,"Pet Groomers, Pet Services, Pet Stores, Pet Training, Pets, Pet Sitting",Harvey,LA,70058,2.5
dCFptNgnFQ8t0IG1Mj1NQA,Ham + Bone,"Pet Stores, Pet Groomers, Pets, Pet Services",Philadelphia,PA,19125,4.5
XQLdTCJvjoxxqrYGiE-YYQ,Varietees Bird Store,"Pets, Pet Stores, Bird Shops",Valley Park,MO,63088,5.0
tG9yZDD0XMtC9WKIqrEICg,Feed Depot,"Pet Stores, Pets",Lutz,FL,33548,4.5
m_hMeLTodOd07zWtfD-IPg,PetSmart,"Pet Stores, Pet Services, Pets, Pet Training, Pet Groomers",Philadelphia,PA,19145,3.0
v-AC2JmLx1cLW8wJUB8gSg,Doggie Style Pets ,"Pet Stores, Pets, Pet Groomers, Pet Services",Philadelphia,PA,19125,4.5
yoWl-47NCfhdOZ4YvLwVBA,Petco,"Pet Services, Pet Groomers, Pet Stores, Pets, Pet Training",Franklin,TN,37067,2.0
YyGXOcGysBOzRPHXmr1ieA,Pets Unlimited,"Shopping, Nurseries & Gardening, Home & Garden, Pets, Pet Services, Aquarium Services, Pet Stores",Clearwater,FL,33765,2.5
-k1gkFIZ9xdsjGSfNI6IKg,PetSmart,"Pet Services, Pets, Pet Groomers, Pet Sitting, Pet Training, Pet Stores",Brentwood,TN,37027,3.5
sWAd8Kt87n86IeNC6BmTqA,Pet Wants Nashville South,"Pet Stores, Pets, Food Delivery Services, Food, Pet Services",Nashville,TN,37203,5.0
FNVICJmHW_DfbSLb1LT1nQ,Mani PETi Pet Grooming,"Pets, Pet Services, Pet Groomers, Pet Stores",Marlton,NJ,08053,4.0
0MpgyhqBb4k7MNV2W9vrIQ,SPCA Suncoast,"Animal Shelters, Pet Stores, Pets",New Port Richey,FL,34653,3.0
STxJNPhcfYuwZOAy74rhEQ,PetSmart,"Pet Training, Pets, Pet Services, Pet Groomers, Pet Sitting, Pet Stores",Madison,TN,37115,3.5
hSXmH_87S2RUkBl-Gqpbgw,Pet City,"Pets, Aquariums, Pet Stores, Active Life",Land O Lakes,FL,34639,3.0
pWA8iauMapGgshXWJDzLGQ,North Tampa Pet Depot,"Veterinarians, Pet Groomers, Pet Stores, Pets, Pet Services",Tampa,FL,33647,3.5
yjkwS1lhEBbGCMd0-PK_Tw,Marine Warehouse Aquarium,"Pets, Aquarium Services, Pet Stores, Reptile Shops, Active Life, Pet Services",Tampa,FL,33615,3.5
ZOpN8DhOaCV7IDDTr7G7Tg,Petco,"Pet Services, Pet Training, Pet Stores, Pets, Pet Groomers",Tucson,AZ,85737,3.5
MFt52xaxxNQ2TiRyaDJnsQ,PetSmart,"Pet Groomers, Pet Training, Pet Services, Pet Stores, Pets",Hendersonville,TN,37075,2.5
IbpHszCjEfdcBrKmDD9pVg,Grooming By House Of Phideau,"Pet Sitting, Pet Groomers, Pets, Pet Stores, Pet Services",Saint Louis,MO,63109,4.0
OFQ1xFzRXHDPnz3h25T1CQ,Bark Life,"Pet Groomers, Pet Services, Pet Sitting, Pet Boarding, Pets, Pet Stores",Saint Petersburg,FL,33710,3.5
VT-0pWzJxl9r3ZYoEbuUQA,Concord Pet Foods and Supplies,"Pets, Pet Stores",Wilmington,DE,19803,3.0
0OMGkc4IUS9jSDUm1gGJ9A,Groomingdales,"Pet Services, Pets, Pet Groomers, Pet Sitting, Pet Stores, Pet Boarding",Tucson,AZ,85718,4.0
GSp-ZOB76vB-AOGL5mWO1A,Dunedin Pet Supply ,"Pet Stores, Pets",Dunedin,FL,34698,4.5
H6U5WreDWXMmrkWQNrvO4g,Dogs and Kat:  Dog Training & Behavior Counseling,"Pet Training, Pet Services, Pets, Pet Stores",Nashville,TN,37211,4.5
LF2nKVz9o8KIkBPkJkZu9w,PetSmart,"Pet Services, Pet Training, Pet Groomers, Pets, Pet Stores",Tucson,AZ,85712,3.5
dPt9QgLAIuI2a-CKdv5cSA,Santa Barbara Humane ,"Pet Stores, Pets, Pet Training, Animal Shelters, Pet Services, Pet Sitting, Pet Boarding, Veterinarians",Santa Barbara,CA,93111,3.0
ZxpocckYL7-Zslaxbg4h6Q,Jefferson Feed - Veterans,"Pets, Pet Services, Pet Groomers, Pet Adoption, Pet Stores",Metairie,LA,70002,4.5
0cMyW5RpRbr4-criIhZ8Pg,Wild Birds Unlimited,"Local Services, Pets, Bird Shops, Pet Stores",Cherry Hill,NJ,08034,5.0
pJ5200dOXTobzH--hltbuA,Concord Pet Foods & Supplies,"Pets, Food, Pet Services, Pet Stores",Malvern,PA,19355,3.5
SN7b2DmGYSSIu5sesPXlnA,Pet Supermarket,"Pet Services, Pets, Pet Stores",Brandon,FL,33511,3.0
YJl92FJSgF9l9gMqClrdLQ,We Love Pets,"Pets, Pet Services, Pet Sitting, Pet Stores",Media,PA,19063,2.0
x6lR5JRsISIVhoPMsNwNrg,PetSmart,"Pets, Pet Services, Pet Groomers, Pet Training, Pet Stores",Wesley Chapel,FL,33545,2.5
1KbhvrhHHYcgfqj4jQE1YA,Green's Feed,"Pet Stores, Propane, Pets, Local Services",Reno,NV,89506,4.0
crRUwlg4u4VLLnGcOe9Ang,Petco,"Pets, Pet Services, Pet Stores, Pet Training, Pet Groomers",Royersford,PA,19468,2.0
SVtmgLhl2vxsMjMCOhNmsg,Trade Winds Aquarium & Pet Center,"Pets, Pet Stores",Philadelphia,PA,19104,2.0
UCwILRvstNha42tmzguDrg,As the Fur Flies,"Pets, Pet Services, Pet Stores, Pet Groomers, Pet Sitting",Hatboro,PA,19040,2.5
Ly9dCC7Wa5qZAzUjZC_CPg,PetSmart,"Pet Services, Pet Groomers, Pets, Pet Training, Pet Stores",St Petersburg,FL,33702,2.5
EoihMpIhNEJF4yk7EQv9rw,Dog Town,"Pet Sitting, Pet Groomers, Pet Boarding, Pet Services, Pets, Pet Stores",Hatfield,PA,19440,3.5
guntRuj2Ge9-KNRDvbdOsg,Aquatic Specialties,"Aquariums, Home & Garden, Aquarium Services, Pet Stores, Active Life, Shopping, Pets, Pet Services",Kenner,LA,70065,4.0
OMD0wE81P_LVkKcbirVCpQ,Puff N Stuff Pet Salon,"Pet Stores, Pet Sitting, Pet Services, Pet Groomers, Pets",Palm Harbor,FL,34684,3.5
D1qQ1v-lWjbucIg47YaZIQ,City Dogs Grocery,"Pets, Pet Stores",Indianapolis,IN,46203,4.0
nVjiVQkb3WBN7lRCYN8O-w,PetSmart,"Pet Stores, Pets, Pet Services, Pet Groomers, Pet Training",Belleville,IL,62226,2.0
uSYNidLHh31MKl2zowtZnA,Healthy Tails,"Shopping, Pet Stores, Pets",Reno,NV,89511,5.0
cjdLClgUX_MrNAEO7LvpGQ,Petco,"Pets, Pet Stores, Pet Services, Pet Training, Pet Groomers",Cherry Hill,NJ,08002,3.0
lpsR89F2Hv6-odsv7f7EqQ,Hickory Plaza Veterinary Clinic,"Pet Groomers, Pet Sitting, Veterinarians, Pet Stores, Pets, Pet Services",Nashville,TN,37211,2.5
agUKLFMfQwLjRSQyZBRCaw,Petco,"Pet Groomers, Pet Stores, Pet Services, Pets, Pet Training",Clifton Heights,PA,19018,3.5
Vn7A8ZNkV_v1PUCvmzzBVg,Tarpon Animal Hospital,"Pet Groomers, Veterinarians, Pet Hospice, Pet Services, Pets, Pet Stores, Pet Boarding, Pet Sitting",Tarpon Springs,FL,34689,4.5
qKRNXtX12wJ7OBVHY1C_gw,Uncle Bill's Pet Centers Express,"Pets, Pet Stores",Indianapolis,IN,46220,3.0
Uel0zAxvuSu1-jHwicQjFg,Wags & Whiskers,"Pet Groomers, Pet Services, Pet Stores, Pets",Nashville,TN,37206,4.5
sH1sJkFgBTTUWeY6YvMb9w,The Tahyo,"Pets, Pet Stores",New Orleans,LA,70116,4.5
z9a9bH-5pX_UgkiVewKKVA,Royal Pets Market & Resort,"Veterinarians, Pet Services, Pet Stores, Pets, Pet Sitting",Palm Harbor,FL,34684,3.5
19SDTr1WBLzUHmWeUAhQEg,Sea Life Fish & Aquariums,"Aquariums, Local Fish Stores, Pets, Active Life, Pet Stores",Saint Petersburg,FL,33714,4.5
HgRlRpsuuwkOU1Ivm7vznw,PetWorks,"Pet Stores, Pets",St. Petersburg,FL,33701,5.0
ZMmO7WRtPnDlCMO7xZgqyA,A Dog's Life,"Pets, Pet Stores",Reno,NV,89509,4.0
wvfR3CRWuMvKUBtlWusOwg,Holistic Animal Care Shoppes,"Veterinarians, Pet Stores, Pet Services, Pets, Pet Sitting",Tucson,AZ,85710,4.5
uRKic74vdysr19utOlI_Ww,Petco,"Pet Groomers, Pet Stores, Pet Sitting, Pets, Pet Training, Pet Services",Boise,ID,83704,2.5
3cL0JxBevkCbNqQaQtNeJg,Tj Maxx,"Shopping, Pet Stores, Department Stores, Accessories, Fashion, Pets",Tucson,AZ,85743,3.5
9zptBA5l0cMZQ2RMAG2P9g,Pet Valu,"Pet Stores, Pets, Pet Groomers, Pet Services",Dresher,PA,19025,4.5
KsJzoaJdIUww8XOYxXso4g,BarkWash & Treat Shoppe,"Bakeries, Pet Groomers, Food, Pets, Pet Services, Pet Stores",Meridian,ID,83642,4.0
I6Me04uzybNN1JjsW8Ta7g,PetSmart,"Pet Groomers, Pet Training, Pets, Pet Stores, Pet Services",Valrico,FL,33596,1.5
4Aa-Q08ohnFl9NFli2h2lA,Dog Oasis,"Pet Stores, Pet Boarding, Pet Groomers, Pet Sitting, Pet Services, Pets",Goodlettsville,TN,37072,5.0
EJi0WqUU7PDYjMtmwn9OMg,Petco,"Pet Training, Pet Sitting, Pets, Pet Stores, Pet Groomers, Pet Services",Alton,IL,62002,4.5
W6eF6ozZsjn3CT1HY9OynQ,Aquarium World,"Aquariums, Aquarium Services, Active Life, Pets, Pet Services, Pet Stores",Boothwyn,PA,19061,5.0
jwrxYjQ-3VzGluTzBRj1eQ,Barks NV Salon & Spa,"Pets, Pet Stores, Pet Groomers, Pet Services",Sparks,NV,89431,4.5
eopQoGi9wFhS4Aq8kL33mg,Broadway Pampered Pets,"Pet Sitting, Pet Services, Pets, Pet Groomers, Pet Stores",Boise,ID,83706,3.5
0mzvcpk6nMjGsAgK1gBtvA,Animal House Naturals Pet Center,"Pets, Home Services, Fences & Gates, Pet Stores, Active Life, Aquariums",Saint Petersburg,FL,33704,4.0
VvSFhhYsXb7xt4E2Fbsbvw,Healthy Tails,"Pets, Pet Stores",Reno,NV,89519,4.5
wB02espTSn_K3q9fu959jg,Silver Maple Pet Center,"Pet Training, Pets, Pet Services, Pet Sitting, Pet Boarding, Pet Groomers, Pet Stores",Saint Louis,MO,63131,4.5
KuKOSr4ueomTctc23KJHRw,Healthy Pet,"Pet Stores, Pets",Santa Barbara,CA,93105,5.0
omajLk5qJk6BqZ69rp0CIw,Wolfgang's Pet Stop Downtown West,"Pets, Pet Training, Pet Stores, Pet Sitting, Pet Services, Pet Groomers",Saint Louis,MO,63103,4.0
2QOTAx4y8zfS5-ivV_xmoA,PetSmart,"Pet Services, Pet Groomers, Pets, Pet Training, Pet Stores",Philadelphia,PA,19146,4.0
6OOxSSYRJU3-MbBi8u27Lg,Elite Doggie Daycare & Boarding,"Pet Sitting, Pet Stores, Pet Services, Pets",Reno,NV,89503,3.0
h1bljGJPLtjsDimsGY-mjg,Pet Supermarket,"Pet Groomers, Pet Stores, Pet Services, Pets",Bellevue,TN,37221,4.0
T33982lrqDobYvS-WX2ltg,Sensational Pets,"Aquariums, Pet Services, Pet Sitting, Active Life, Pet Stores, Pets",Santa Barbara,CA,93105,4.5
b71nlIb3YvuiCC4OtE2zSw,Petco,"Pets, Pet Stores, Pet Groomers, Pet Training, Pet Services",Brooklawn,NJ,08030,4.5
bT_ew6q5rdIHRs3niekTLw,PetSmart,"Pet Stores, Pet Services, Pet Groomers, Pets, Pet Training, Pet Sitting",Saint Petersburg,FL,33709,2.5
cSG9-aCxGhqx8U92vL-b6Q,Pet Supplies Plus - Cherry Hill,"Pets, Pet Adoption, Pet Services, Local Fish Stores, Reptile Shops, Pet Groomers, Pet Stores, Bird Shops, Aquarium Services",Cherry Hill,NJ,08034,4.5
6_LSjYtLz0or0rhwKrZfJA,Pet Valu,"Pets, Pet Stores",Wayne,PA,19087,4.0
xcROp1cEjok4i46048bR6A,Petco,"Pet Training, Pet Groomers, Pet Stores, Pet Services, Pets",Tarpon Springs,FL,34689,2.0
jv1pVAggyjTqMjlzdPrYBQ,Pet Valu,"Pet Services, Pet Stores, Pets, Pet Adoption, Pet Groomers",Indianapolis,IN,46259,3.0
6qRX8mY3CxdmYkLvVHUcsQ,Banfield Pet Hospital,"Pets, Veterinarians, Pet Stores, Animal Shelters",Woodbury,NJ,08096,1.5
XfvACaByT8P45zVCZuMMGg,Petco,"Pet Training, Pet Services, Pets, Pet Stores, Pet Groomers",Pinellas Park,FL,33781,3.0
nciqTzT85h7meuS9SbzEOw,Rail City Garden Center,"Home Decor, Pet Stores, Home & Garden, Local Fish Stores, Tree Services, Shopping, Nurseries & Gardening, Home Services, Pets",Sparks,NV,89434,3.0
PAZMrwNoT43AwMkPBAaxmQ,My Natural Pet,"Pets, Pet Stores",Dunedin,FL,34698,5.0
vSABTtmMTRFFEb9rlLarLw,Pet Valu,"Pet Stores, Pet Services, Pets",Jenkintown,PA,19046,3.5
TJCz3VvSOi9W-mi-6nsxXg,PetSmart,"Pet Services, Pets, Pet Sitting, Pet Stores, Pet Training, Pet Groomers",Plymouth Meeting,PA,19462,2.5
WrJ76ufOQn2RGGOY7ugbbQ,Belleville Animal Clinic,"Pet Stores, Pet Services, Pet Groomers, Veterinarians, Pets",Belleville,IL,62221,3.0
kwa05IX-ATPUVI3VtPTExg,Petco,"Pet Stores, Pet Groomers, Pet Services, Pets, Pet Training",Reno,NV,89502,3.5
SZObJze8-jvGO1Shx6wDKA,Barks by the Bay & Meows Too,"Pet Groomers, Pet Stores, Pets, Pet Services",Tampa,FL,33629,4.5
Ymn1rxvCA63-aRMJJj4AZA,Animal House Cat Rescue and Adoption Center,"Animal Shelters, Pet Stores, Pets",Saint Louis,MO,63110,4.0
_sNyLAjq7xVizVCAklmzNg,City Dogs Grocery - Mass ave,"Pet Stores, Pets",Indianapolis,IN,46204,4.5
u8J1nL2ZwOB4nRRN5v88vA,PetSmart,"Pet Training, Pet Groomers, Pet Services, Pets, Pet Stores",Santa Barbara,CA,93103,3.5
uqEOu1X1-FQYhadzXAG-gw,The Aquarium & Fish Store,"Local Fish Stores, Pet Stores, Pets",Brandon,FL,33511,3.5
HdMymnW-fqNdtv2NOa2g0w,Fit For A Dog,"Pet Training, Pets, Pet Services, Pet Sitting, Rehabilitation Center, Health & Medical, Pet Stores",Havertown,PA,19083,4.5
RvR_BNuNOmn42b-nRy8bgQ,The Puppy Stop & Adopt,"Pets, Pet Stores",Turnersville,NJ,08012,2.0
fdgh2G8VCj5hAOLX_g_yXw,PetSmart,"Pet Training, Pets, Pet Services, Pet Groomers, Pet Stores",Saint Louis,MO,63116,3.0
E7_A9rnYlTqKt38VLIjfQQ,Booth's Corner Pet Supply,"Pets, Pet Stores",Marcus Hook,PA,19061,2.5
iNjvowVetBKkdnVLDyT77w,Petco,"Pet Stores, Pet Training, Pet Groomers, Pets, Pet Services",Paoli,PA,19301,2.5
uspS7OqZ3mkEhECCXB2NGQ,EarthWise Pet Turnersville,"Pet Groomers, Pet Stores, Pet Services, Pets",Turnersville,NJ,08012,4.0
V9jaPOVunRtBdtGGMypqVg,Frandeka's Soulard Fish Meat Feed & Pet Shop,"Meat Shops, Pets, Pet Stores, Butcher, Specialty Food, Food",Saint Louis,MO,63104,4.5
FqMcpE8vFsQyX_WpgBw35Q,EarthWise Pet Voorhees,"Pet Services, Pets, Pet Groomers, Pet Stores",Voorhees Township,NJ,08043,4.5
YqUsPww5SC4DH4VB1gjC6Q,Petco,"Pet Groomers, Pet Services, Pet Training, Pets, Pet Stores",Tucson,AZ,85715,4.0
XmFnHSUWThAMq7nOaM2bSQ,Canine Cabana,"Pets, Pet Training, Pet Stores, Pet Services, Pet Sitting, Pet Boarding, Pet Groomers",Riverview,FL,33569,4.5
jv0krwTiojHqSeyTuWHh2A,Woof Gang Bakery and Grooming St Petersburg,"Pet Groomers, Pet Sitting, Pets, Pet Services, Pet Stores",St. Pete,FL,33701,4.0
OgVdHdnjUP1vl5_N47Hl5w,PetSmart,"Pet Training, Pets, Pet Stores, Pet Services, Pet Sitting, Pet Groomers",Castleton,IN,46250,3.5
ak_csGYTzcgxq08mzHPh1Q,Crossroads Feed Barn,"Pet Stores, Pets",Brownsburg,IN,46112,5.0
r4D7_LX3JowSbx4QUpoaNg,Monster Pets,"Pets, Shopping, Pet Stores",Philadelphia,PA,19148,2.5
psB1OnCIgVovo-pX0HRiIw,Petsway,"Pet Training, Pets, Pet Stores, Pet Services, Pet Groomers",St Louis,MO,63123,3.5
WqZM3ZjJ9JiBQsseJXGlkw,Unleashed,"Pet Groomers, Pet Stores, Pets, Pet Services, Pet Training",Philadelphia,PA,19130,4.5
p0rW9IPFT8KAdWOo82Yk1g,Zimmers Pets,"Pet Stores, Pets",Boyertown,PA,19512,1.5
1IiZVC8-kTzvjLTiVgEZ5g,Scraps Dog Company,"Pets, Pet Stores",Sparks,NV,89434,4.5
TMdmMjacpUSeZTeSyly6LQ,Zoom Room Dog Training,"Pets, Pet Stores, Pet Services, Pet Training",Reno,NV,89511,4.0
CGoAs94xTk3GDsKWqvGOZg,Central Bark Doggy Day Care,"Pet Stores, Pet Training, Pet Groomers, Pet Sitting, Pet Services, Pet Boarding, Pets",Metairie,LA,70001,4.0
xJLW3BiWoILuRdnnKiUJEQ,Petco,"Pets, Pet Stores, Pet Groomers, Pet Training, Pet Services",New Orleans,LA,70119,3.0
U6zURLzXTIqQQdJPJC2XpA,PetSmart,"Pet Services, Pet Training, Pet Groomers, Pet Stores, Pets",Philadephia,PA,19107,4.0
rEwEwMnhdznMAj7suoqkaw,Daminger's Natural Pet Foods,"Pets, Pet Stores",Sewell,NJ,08080,5.0
i8OIZHzrPhpy4MdaC1Cp_A,North Tampa Pet Hospital,"Pets, Pet Groomers, Pet Services, Veterinarians, Pet Stores",Tampa,FL,33647,3.0
5xRtZY8RW63maw1M5Le-4Q,City Cat Clinic,"Pets, Pet Stores, Veterinarians",Saint Louis,MO,63108,4.5
H0jV08DBQP9VpLTz9-lWiA,Fish Factory,"Pet Stores, Local Fish Stores, Aquariums, Pets, Active Life",Bristol,PA,19007,3.5
VjA4QL5FH7uiwsJurMG9tw,Coral Connection,"Active Life, Aquariums, Pets, Pet Stores, Shopping, Hobby Shops",Kenner,LA,70062,5.0
F3x-aJnHntI4klpQvdBadw,Pet Supplies Plus - Lawrence,"Pet Adoption, Pets, Pet Stores, Pet Services, Pet Groomers",Indianapolis,IN,46236,4.5
ijZP_SZg8DJKYwAMjz-xSg,Petco,"Pet Groomers, Pet Stores, Pet Services, Pet Training, Pets",Philadelphia,PA,19134,2.0
oAnpipDkEephqIe43EbQAA,Pet Supermarket,"Pets, Pet Stores",South Pasadena,FL,33707,3.0
gNng1UJdy3aUrA5lbDaDlg,Nola Dogs Treats and Boutique,"Pet Stores, Pets",New Orleans,LA,70116,4.5
2gikq-ETMz-rtit02Ji9dw,Belcher Animal Clinic,"Pet Stores, Pet Sitting, Pet Services, Veterinarians, Pet Groomers, Pets",Clearwater,FL,33764,3.5
0wqFK6N_9dAddRBcF7VIkw,Wild Birds Unlimited,"Animal Shelters, Bird Shops, Pets, Pet Stores",Boise,ID,83709,4.5
kYarZEB0hExQ6L9rd9Kq-A,The Pet Club,"Pets, Pet Groomers, Pet Stores, Pet Services, Pet Adoption, Pet Training",Tucson,AZ,85704,3.5
iqmNfdxv_JuwqbYQOh66dw,Nashville Pet Products,"Pet Stores, Pets",Franklin,TN,37064,5.0
xktxinKR7zKt0Z_fxAn6Wg,West Pets,"Pets, Pet Stores",Philadelphia,PA,19104,5.0
KywHK52ZrjCjrJNqaopszA,PetSmart,"Pet Groomers, Pet Stores, Pet Training, Pets, Pet Sitting, Pet Services",Boise,ID,83704,3.0
YbNZkf9DeYJB5nlgWjlqqg,Dogs & Cats Rule,"Pets, Pet Stores",Doylestown,PA,18901,4.5
kdIv3yffkMW6plb4MVslkw,Pinellas County Animal Services,"Pet Stores, Animal Shelters, Pets",Largo,FL,33774,4.0
F-IU5_j5RSYUCMv_v3LkUA,Puppy Town,"Pets, Pet Stores",Tampa,FL,33614,2.0
HIWrkjhlvq5lvlXjLOo96g,Fleur De Paws,"Pets, Pet Services, Pet Sitting, Pet Groomers, Pet Stores",New Orleans,LA,70114,5.0
raoPXXnwEZugf9FDXzfHrA,Petco,"Pet Groomers, Pet Stores, Pet Training, Pets, Pet Services",Santa Barbara,CA,93103,3.0
iY8FpFaR9jVyhKQHQ00Tug,Southern Veterinary Center,"Pet Stores, Pet Services, Pets, Veterinarians, Pet Boarding, Pet Sitting, Pet Groomers, Emergency Pet Hospital",Smyrna,TN,37167,4.0
F2nihsqD2h9F1PvYnc_3zg,Jefferson Parish Animal Shelter,"Pets, Animal Shelters, Pet Adoption, Pet Stores",Harvey,LA,70058,3.5
nljfaDMqBxdCDZl1WJ0JxQ,Pet Valu,"Pets, Pet Stores",Warrington,PA,18976,5.0
lInYEIj1qrXJ8jS70FoSwg,Worldwide Aquarium & Pet Center,"Pet Groomers, Pets, Pet Training, Pet Stores, Pet Services",Philadelphia,PA,19135,3.5
dVzVWmPXAIrjh9e6m-2ynw,Saltwater Island,"Local Fish Stores, Pet Stores, Aquarium Services, Pets, Pet Services",Ballwin,MO,63011,3.0
k-RXK0z-_AWNr-xCGVdzQw,Pinion Veterinary Hospital,"Emergency Pet Hospital, Veterinarians, Pet Stores, Pets, Pet Services",Reno,NV,89511,4.0
BIab0FUvD60EipApxzs4RQ,Dioji K-9 Resort & Athletic Club,"Pets, Pet Groomers, Pet Stores, Pet Services, Pet Sitting, Pet Boarding",Santa Barbara,CA,93103,5.0
Pq1Qa6damB_i3XbE6GKXrQ,Pabby's Pet Pantry,"Pet Services, Pets, Pet Stores",Hatboro,PA,19040,4.5
crogxeJSP2HqPVXQYt1RIA,Pet Wize,"Pet Stores, Pets",Tampa,FL,33617,3.0
-8iiwnBs4yu4s1yLkWzU9Q,Doggie Style,"Pets, Pet Stores",Philadelphia,PA,19107,4.0
CAQFHyR3RIl-3ddNP0F2nA,ABC Veterinary Clinic,"Veterinarians, Pet Groomers, Pets, Pet Services, Pet Stores",Sparks,NV,89431,4.0
c4yb5KxSA05r7vf3bcdTGA,EarthWise Pet Sobro,"Pet Groomers, Pets, Pet Services, Pet Stores",Nashville,TN,37210,3.5
v2YnBliyp2aV-6lwM74OUA,Spot's Pet Supply & Grooming,"Pet Groomers, Pet Services, Pets, Pet Sitting, Pet Stores",Nashville,TN,37215,2.5
i73OBmn969_A-bhGGaibCA,Pet Supermarket,"Pets, Pet Stores",St Petersburg,FL,33710,3.5
6O-zce2lYuPuuJaEoBHJjQ,Three Dog Bakery,"Pet Stores, Pet Services, Pets",Franklin,TN,37067,4.5
JtWiy1zIksf9vhYyx6Ytqw,Pet House,"Pet Stores, Pets",Goleta,CA,93117,4.5
wZo1wrBy_-UkbxjOuUlCGA,Zen Pet Retail & Grooming,"Pet Groomers, Pet Services, Pet Stores, Pets",New Orleans,LA,70115,5.0
F0577ysBCCrJozAN6IBtnQ,PetSmart,"Pet Services, Pet Training, Pets, Pet Groomers, Pet Stores, Pet Sitting",Willow Grove,PA,19090,3.5
qR1099jMsVHPY4uPeAsiUQ,Platinum Paws,"Pet Groomers, Pet Stores, Pets, Pet Services",Carmel,IN,46032,5.0
QCKKGsEDGG-flR_9ZaqW3A,Riverfront Pets,"Pet Stores, Dog Walkers, Pet Groomers, Pets, Pet Services",Wilmington,DE,19801,4.5
Sa_Vb6NPbqxXt54ax-fvyw,Coral Reef Pet Shop,"Pets, Pet Groomers, Aquarium Services, Pet Stores, Aquariums, Active Life, Pet Services",New Orleans,LA,70124,3.5
KER_qdhWb_BvMQniyJa8Pg,Petco,"Pet Groomers, Pet Services, Pets, Pet Stores, Pet Training",Creve Coeur,MO,63141,4.0
fCj7z0r0wsXeL98fcSUy2w,Petco,"Pet Groomers, Pets, Pet Stores, Pet Training, Pet Services",Tucson,AZ,85748,2.5
Ixxxsgy_2z8M3aut6WPaug,A Dog Bakery,"Pet Stores, Pets",Carmel,IN,46032,4.5
zASa_veFkx_lKbLTj1g-Fg,Pet Valu,"Pets, Pet Stores, Pet Services, Pet Groomers",Mullica Hill,NJ,08062,4.5
z_261rfEMUUdDGAXeyw65Q,Pet Supermarket,"Pet Services, Pet Groomers, Pet Stores, Pets, Veterinarians, Pet Adoption",Nashville,TN,37214,4.0
uUISYj4IkB6Aaq-OarZ2lQ,Pet Supermarket,"Pet Stores, Pets",New Port Richey,FL,34652,3.5
qErLWwrIo4dH5kRB4EXmyg,Groovy Cats & Dogs,"Pet Groomers, Pet Stores, Pets, Pet Services",Tampa,FL,33612,5.0
0n6alVslpokrrvdrlp871A,PetSmart,"Pet Groomers, Pets, Pet Training, Pet Stores, Pet Services",Springfield,PA,19064,3.0
rTiu8OpWFVYKSwryTQPnfw,Ruskin Animal Hospital,"Animal Shelters, Pets, Pet Stores, Veterinarians",Ruskin,FL,33570,4.5
9ZvDl5iaGc4j_5OB3sykMQ,Petco,"Pets, Pet Stores, Zoos, Pet Services, Active Life, Pet Groomers, Pet Training",Fishers,IN,46037,3.5
WqGNRnmf-oWFmaWHljcDuA,PetSmart,"Pet Training, Pet Groomers, Pets, Pet Sitting, Pet Stores, Pet Services",Indianapolis,IN,46229,2.5
iIN_zrH4KcK7GZ1RvU2L3g,Corals & More,"Pet Stores, Aquariums, Local Fish Stores, Active Life, Pets, Aquarium Services, Pet Services",Saint Charles,MO,63303,4.0
O-QBe8bvl3y3XYLaN0Nzyw,Parrot Connection,"Pet Stores, Pets",Reno,NV,89509,4.5
IlpWVRVZPFoA33zqb-tmSA,Foothill Feed and Mercantile,"Livestock Feed & Supply, Farms, Pets, Shopping, Automotive, Hardware Stores, Trailer Dealers, Pet Stores, Arts & Entertainment, Home & Garden",Reno,NV,89521,5.0
1ELQjj8JfYZQF2Z4fu5Jvw,Petco,"Pet Stores, Pets, Pet Services, Pet Training, Pet Groomers",Santa Barbara,CA,93105,2.5
S8Q0sF4Jqup-JlGnnoWhqg,Bentley's Pet Stuff,"Pets, Pet Stores",Olivette,MO,63132,5.0
7-8FfqERmzMpbzU_zuMswQ,Nashville Pet Products,"Pet Stores, Pets",Nashville,TN,37211,5.0
qvusgZzTzaXPSGKLAPUyfw,Beach Groomers Pet Salon,"Dog Walkers, Pets, Pet Services, Pet Stores, Pet Training, Pet Groomers",Redington Shores,FL,33708,5.0
H8yBx6qhEIoZ5qojhXQdHA,SPCA Tampa Bay,"Pet Services, Pet Stores, Animal Shelters, Pets",Largo,FL,33773,3.0
p0vkA_3XKkUWrZJqjrnDDQ,Seed Ranch,"Home Services, Nurseries & Gardening, Pet Stores, Home & Garden, Shopping, Pest Control, Pets, Landscaping, Local Services",Odessa,FL,33556,2.0
GZ8T-IJkJe4lOszSQC1cAA,Puppies Tampa,"Pets, Pet Services, Pet Adoption, Pet Breeders, Pet Stores",Tampa,FL,33614,1.5
P2Bgm8JSPKjo1P4C4SiK0Q,TermiGuard Services & Fenwick,"Contractors, Masonry/Concrete, Home Services, Pet Stores, Damage Restoration, Pets, Local Services, Pest Control, Waterproofing",West Berlin,NJ,08091,3.0
v-yojJ8k9bjef6AxMMLT_A,Big R West,"Livestock Feed & Supply, Shopping, Home & Garden, Pet Stores, Pets, Hardware Stores",Sparks,NV,89434,3.0
eflXunyT_8N4oRuSrk3E5w,Speck's Pet Supplies,"Pets, Pet Stores",Carmel,IN,46032,4.0
1db3Jjdab-tGa6p0gxBr5Q,Petco,"Pet Adoption, Local Fish Stores, Pet Training, Pet Stores, Pet Services, Pet Groomers, Pets",Sparks,NV,89434,3.5
oDhU_6MfhR-VlGWgenulRA,Petco,"Pet Groomers, Pet Training, Pet Services, Pet Stores, Pets",Clearwater,FL,33764,3.5
zUSpZ8kVRW-Ulp-xdDvlzQ,PetSmart,"Pet Stores, Pet Training, Pet Groomers, Pet Services, Pets, Pet Sitting",Tucson,AZ,85705,3.0
Xv6BJMWZdkBim7pLowwK0w,North Valleys Hardware,"Shopping, Pets, Pet Stores, Hardware Stores, Paint Stores, Home & Garden",Reno,NV,89506,3.5
GdfqRMGQD6h25NIvQgyfog,Crossroads Pets- Shop & Adopt,"Pet Services, Pet Adoption, Pet Groomers, Animal Shelters, Pets, Pet Stores",Nashville,TN,37208,4.5
kEfaWUNbXBuiuxdX4ETpIQ,Pet Supplies Plus - Warson Woods,"Pet Stores, Pets, Pet Services, Pet Groomers",Saint Louis,MO,63122,4.5
fQIBmWDqYJof7Nx-G1rFOw,Petco,"Pets, Pet Training, Pet Stores, Pet Groomers, Pet Services",Nashville,TN,37221,3.0
4HfagCu8dIB_iDrdIYtOng,Pet Supplies Plus - Whitestown,"Pet Groomers, Pets, Pet Stores, Pet Services",Whitestown,IN,46075,4.0
GBbBonmXn3mMbd6XhB_ZFw,Petco,"Pet Groomers, Pet Stores, Pet Services, Pet Training, Pets",West Chester,PA,19380,3.5
dN2whsRNU90vPfocjdTmzQ,Baltimore Pet Shoppe,"Pet Stores, Pets",Philadelphia,PA,19143,4.5
HxYMoEFg4mL2XDxfd605Dg,PetSmart,"Pets, Pet Training, Pet Stores, Pet Services, Pet Groomers, Pet Sitting",Philadelphia,PA,19124,3.0
i3u41V-VzGbgQlexd0_-5w,Pet Supplies Plus - Levittown,"Pet Stores, Pets, Pet Services, Pet Adoption, Pet Groomers",Levittown,PA,19056,4.0
myjPu84ts2IsQIFPlblHhg,Women's Animal Center,"Pets, Animal Shelters, Veterinarians, Pet Adoption, Pet Stores",Bensalem,PA,19020,2.5
LDQNdYcJJ7rRI0OVPMzSbQ,PetSmart,"Pet Training, Pets, Pet Services, Pet Groomers, Pet Stores",Saint Petersburg,FL,33710,3.0
oUbJzV3QYJMFvZw8GeZgXA,Pet Valu,"Pets, Pet Stores",Fairless Hills,PA,19030,4.5
g3vLlcYE8kaXp8SiQnjpZA,Royal Pets Market & Resort,"Pets, Pet Groomers, Veterinarians, Pet Services, Pet Stores, Pet Sitting",Saint Petersburg,FL,33710,3.0
tgkGhWh41fl1_QOdU8Ke7Q,Spot's the Place For Paws,"Pet Stores, Pets",Narberth,PA,19072,4.5
xqkNiBAyxNNYi8jWGPBhXA,Petco,"Pet Services, Pet Groomers, Pet Stores, Pets, Pet Training",Metairie,LA,70002,3.5
Ea0n8ZYBDkw4EMJeGBZFSA,Puppies Plus,"Pet Stores, Pets",Reno,NV,89511,2.0
M_Er61UUiHchxTdSZnGTbg,Homeward Bound Pet Adoption Center,"Animal Shelters, Pets, Pet Adoption, Pet Stores",Blackwood,NJ,08012,3.5
pyrLuxTNqCSOoweWZIw-yA,Hammers Healthy Hounds,"Pet Stores, Shopping, Pets, Fashion",Sparks,NV,89436,4.5
Jl-5OH2jMy8bp2bXow0Ziw,Plush Pups Boutique and Grooming,"Pet Services, Pets, Food, Pet Groomers, Pet Stores",Huntingdon Valley,PA,19006,4.5
kR-HIJxTW07phwkR5ha1ww,Orange Grove Animal Hospital,"Veterinarians, Pets, Pet Services, Pet Sitting, Pet Stores",Tucson,AZ,85741,4.0
BwCnG45scgDd1auACz5tFw,Southern Paws,"Shopping, Pets, Gift Shops, Pet Stores, Toy Stores, Flowers & Gifts",New Orleans,LA,70130,4.5
DPO-9YTlStI7ihLl-wUN5w,Just Dogs! Gourmet,"Pet Stores, Pets",Philadelphia,PA,19103,4.5
pHKXycAU9gfUTzDLYIzBDg,Woof! Here It Is!,"Pet Groomers, Pets, Pet Stores, Pet Services, Dog Walkers",Tampa,FL,33626,4.5
x_6WnTjBn1HPONh4m4fxLg,Big Easy Petshop and Rescue,"Pet Adoption, Pets, Pet Services, Veterinarians, Pet Groomers, Pet Stores",New Orleans,LA,70116,4.5
oGExCEP2PeK0OZ0ob34azQ,Whisker Bones Supply,"Pet Services, Pet Photography, Pets, Pet Stores, Pet Groomers",Edwardsville,IL,62025,4.5
DNX3nmDuof9l0MzAraxnaQ,Ken The Bug Guy,"Pet Stores, Pets",Tucson,AZ,85719,3.5
1U7UA72qEd3OTnNL3AGE1Q,Lucky Pet,"Pet Stores, Pet Training, Pet Groomers, Pet Services, Pets",Tampa,FL,33635,4.0
RRir7n_4AfsYw6qguEjCNg,The Modern Paws,"Pets, Pet Stores, Pet Groomers, Pet Services",Tampa,FL,33602,5.0
l7G__JgJviXZ6DEOk2C1EA,Zoom Room Dog Training,"Pet Training, Pet Services, Pets, Pet Stores",Philadelphia,PA,19123,5.0
BqTSoP2uKPGv7eDSj6Mf2Q,Rural King Supply,"Shopping, Farming Equipment, Pets, Home & Garden, Hardware Stores, Pet Stores",Avon,IN,46123,4.0
NdruCRcqAX6fIJ4O7nka7w,"Oh, Behave Pet Training","Pet Stores, Pets, Pet Training, Pet Services",Tucson,AZ,85711,5.0
h98G1QI1yaFdFYczhvhj8A,PetSmart,"Pet Services, Pet Groomers, Pets, Pet Stores, Pet Training",Saint Louis,MO,63129,2.5
g5mT_gT14l1AcbO4XGvAgA,Wild Birds Unlimited,"Pet Stores, Bird Shops, Pets",St. Charles,MO,63303,5.0
159adVTc2HKzeTk0tWPMuQ,Pet Supplies Plus Land O'Lakes,"Pet Stores, Pet Groomers, Pets, Pet Services, Pet Adoption",Land O' Lakes,FL,34639,3.5
NR_Sst7SidDq0PZ2tnTcMQ,Wild Birds Unlimited,"Pets, Pet Stores, Bird Shops",Tampa,FL,33618,3.5
LPQTWBn0f-Rc-fbIvoAmrg,Pets Plus Natural,"Pet Groomers, Pet Services, Pet Adoption, Pets, Pet Stores",Delran,NJ,08075,2.5
Wr6JE38h9Ca32H72pYAEKQ,PetSmart,"Pet Services, Pet Groomers, Pets, Pet Sitting, Pet Training, Pet Stores",O Fallon,IL,62269,3.0
fbtfkxrPyQO4ojZvsMW-Zg,Bucks County SPCA,"Animal Shelters, Pets, Pet Adoption, Pet Stores, Local Services, Community Service/Non-Profit",New Hope,PA,18938,2.5
0kyUsugmubqVcqsPtiobwA,Quality Pet Market,"Pet Services, Pet Groomers, Pet Stores, Pets",Lutz,FL,33548,2.5
1VbH2GihoFZN5pCEv9fBxw,Alley Pets,"Pet Groomers, Pet Stores, Pets, Pet Services",Carpinteria,CA,93013,4.5
urO7cwWPFRZU1MpSt9JIGw,Doggie Style Pets,"Pet Groomers, Pets, Pet Stores, Dog Walkers, Pet Services, Pet Adoption",Philadelphia,PA,19103,4.0
Lang6ZYxOHQA3ihn0QecaQ,PV PETS,"Pet Stores, Pet Groomers, Pets, Pet Services",Pennsville,NJ,08070,3.0
EIRWCl4bhb4oFGcMdCQRww,Pet Pal Animal Shelter,"Local Services, Animal Shelters, Pet Stores, Pet Adoption, Community Service/Non-Profit, Pets",Saint Petersburg,FL,33712,3.0
8FzHRzpAcMaZfGFJwSLiXg,Wag N Style Pet Boutique,"Pets, Pet Stores",Philadelphia,PA,19129,4.5
civtZ0a6aFEOA8hpA3kcYg,The Pet Snobs Boutique,"Pets, Pet Sitting, Pet Services, Pet Stores, Pet Groomers",Philadelphia,PA,19147,4.0
zQWsR6pLINCgkVfAiy2uZA,The Grooming Shop,"Pets, Pet Sitting, Pet Groomers, Pet Stores, Pet Services",Souderton,PA,18964,4.5
6ie9_0MTKFJl5mFVdCtQag,Doggie Style Pets,"Pet Groomers, Pet Adoption, Pet Stores, Pet Services, Pets",Philadelphia,PA,19147,4.0
DUl9WUE8yUVUFdZWd3izCw,Pet Edge,"Pet Groomers, Pet Services, Pet Stores, Pets",Reno,NV,89502,3.5
mnDHdKeIeix26wKzge_8Qw,Digger Dogs Pet Grooming,"Pets, Pet Stores, Pet Services, Pet Groomers, Pet Sitting",Bristol,PA,19007,4.5
8L7ueOQeuQh_aBi3DyD7aw,Petco,"Pets, Pet Stores, Pet Training, Pet Groomers, Pet Services",Indianapolis,IN,46240,3.0
nsUP-dBD5ZEGyPQefIDbJA,Walk It Like A Dog,"Pet Services, Dog Walkers, Pet Sitting, Pet Stores, Pets",Philadelphia,PA,19147,4.5
OX6Or51IlkMWimjrVGDXXA,Pet Supermarket,"Pets, Pet Stores",Tampa,FL,33607,4.0
u8xgBhDEzUvmPmVof6YNZg,Petco,"Pet Groomers, Pet Services, Pets, Pet Stores, Pet Training",Hendersonville,TN,37075,3.5
vDrkfTm2LzFLjQNTVLpxZw,Arizona Feeds Country Stores,"Pets, Pet Stores",Tucson,AZ,85713,3.5
eHbHdWMFNvYf1B_NNOsszw,Pet Valu,"Pets, Pet Stores, Pet Services, Pet Groomers",Marlton,NJ,08053,4.0
riWkkoambT47n3fUjy6gEg,Treats Unleashed,"Pets, Pet Groomers, Pet Stores, Pet Services, Couriers & Delivery Services, Local Services",St. Louis,MO,63144,4.5
NYLwoFp7I2K1z14oOmVuAQ,Rock Road Animal Hospital,"Veterinarians, Pet Boarding, Pet Adoption, Pet Services, Pet Groomers, Pets, Pet Sitting, Pet Stores",St Louis,MO,63114,4.0
l-yRBIxUG9qgvS7FXX_r8w,All Paws Inn Pet Resort and Daycare,"Pets, Pet Training, Pet Services, Pet Stores, Pet Groomers",Belleville,IL,62221,4.0
ZE3aoHsFnTmerDHKbEg4rA,Unleashed,"Pet Training, Pet Groomers, Pet Stores, Pets, Pet Services",Philadelphia,PA,19146,4.5
SEDvBPt8k4c3idF74rlVoA,H3 Pet Foods,"Pet Stores, Pets",Meridian,ID,83642,5.0
ktuSx5bJustrEClFBRDg1w,Petco,"Pet Groomers, Pet Services, Pets, Pet Stores, Pet Training",Exton,PA,19341,3.0
uUUPwhl6CfPG_wLFe1UVVA,Jack's Dog Farm,"Pet Services, Pet Stores, Pets, Pet Sitting",Pipersville,PA,18947,3.0
tNvoBclF-0JxtQndYVmOvQ,Simply Cats Adoption Center,"Pet Adoption, Pets, Pet Stores, Animal Shelters",Boise,ID,83709,4.0
btmB_6-RlOGMHPInyaqmIQ,PetSmart,"Pet Training, Pet Services, Pet Stores, Pets, Pet Groomers",Largo,FL,33771,2.5
iqBqopEJkS5IEvWopL2rKg,Alice's Pet Parlor,"Pet Groomers, Pet Stores, Pets, Pet Services",Reno,NV,89509,4.0
YBIDzotdYRp2h3sRosAPJw,Petco,"Pet Groomers, Pet Services, Pet Sitting, Pets, Pet Stores, Pet Training",Hermitage,TN,37076,2.5
IEQLfPmCLjJU8t_qOnPIxA,Doggie Style Pets,"Pet Stores, Pet Adoption, Pet Groomers, Pet Services, Pets",Philadelphia,PA,19106,3.5
v1vNcKN09xTDkJO49OG5CQ,Petco,"Pets, Pet Stores, Pet Groomers, Pet Training, Pet Services",Kirkwood,MO,63122,4.0
Ez623VxFAP2vAi4cQdR2YQ,Pet Valu,"Pets, Pet Stores",Doylestown,PA,18901,3.5
pdQffUloS4usOeLJTZ8txA,Pet Supplies Plus,"Pet Stores, Pets, Pet Services, Pet Groomers",Tampa,FL,33625,4.5
koW6aCN30gjzQG9L_uaTIA,Petco,"Pet Stores, Pets, Pet Groomers, Pet Services, Pet Training",Upper Darby,PA,19082,2.0
r134FilmYkE0qNEQ02QRcA,Happy Tales Humane,"Pet Services, Pet Groomers, Pet Stores, Animal Shelters, Pets",Franklin,TN,37064,3.0
BXe5B90zjH-sI-8krtLeFQ,Doggie Style,"Pets, Pet Stores",Philadelphia,PA,19103,3.5
g_zxcCZpy5nF5p6cG1QTwA,Pet Supplies Plus - Valrico,"Pets, Pet Stores",Valrico,FL,33594,4.5
q4Gut-Gfb0T_AjgiIn_Yxw,PetSmart,"Pet Training, Pet Services, Pets, Pet Stores, Pet Groomers",Plainfield,IN,46168,3.0
ddv-CXlem1-EM7RGJMjVGA,PetSmart,"Pet Services, Pets, Pet Training, Pet Stores, Pet Groomers",Wilmington,DE,19803,3.0
3nMW3qEAG6etMBaZz2Zgow,Four Muddy Paws,"Pet Stores, Pet Groomers, Pets, Pet Services",Edwardsville,IL,62025,4.0
iKHCGFs4ckQyj1rI16cz2g,Humane Society of Southern Arizona,"Pets, Pest Control, Pet Adoption, Pet Stores, Veterinarians, Local Services, Animal Shelters",Tucson,AZ,85705,3.5
jig0lqUvsY2CGeYMohV5jA,Prada Puppies,"Pet Stores, Pet Adoption, Pets, Pet Services, Pet Breeders",Salem,NJ,08079,2.0
LccNwGun7OGbVjZ4EXs7aQ,Old Town Horse & Pet,"Shopping, Pet Services, Pet Groomers, Pets, Pet Stores, Auto Parts & Supplies, Truck Rental, Livestock Feed & Supply, Automotive",Tucson,AZ,85735,4.5
a_ziLApwzFA01j-6qi66aQ,Moana Nursery & Wild Birds Unlimited,"Pets, Landscaping, Pet Stores, Bird Shops, Shopping, Nurseries & Gardening, Home Services, Home & Garden",Sparks,NV,89431,3.5
fXcOWl4grX3G3SFkxdIAjQ,Doggie Style Pets,"Pet Services, Pets, Pet Stores, Pet Groomers, Pet Adoption",Bala Cynwyd,PA,19004,3.5
WfGUqO5K6OP2yatM1c78jQ,Gulfport Veterinarian,"Pets, Pet Services, Pet Stores, Veterinarians",Gulfport,FL,33707,3.0
WqscKcFp3pq1CmsxzUritQ,Zamzows,"Shopping, Nurseries & Gardening, Pet Stores, Pets, Home & Garden",Meridian,ID,83642,4.0
ipKOlmSwVCQIIiaY2Jt_Fw,Zamzows,"Pet Sitting, Pets, Shopping, Pet Stores, Pet Groomers, Pet Services, Nurseries & Gardening, Home & Garden",Boise,ID,83705,3.0
FziauDDII0yVgAP6cpNa7A,Kennedy's Pet Shop,"Pets, Pet Services, Pet Sitting, Pet Groomers, Dog Walkers, Pet Stores",Saint Louis,MO,63106,4.0
aOabD_Fw_fNQ_GeOAfg2Xw,SPCA Jefferson,"Pet Stores, Pet Services, Pets, Animal Shelters",New Orleans,LA,70123,3.0
1BFNOCthcx9LER5t_cCv4Q,Agway of Dublin,"Shopping, Livestock Feed & Supply, Nurseries & Gardening, Home & Garden, Pets, Pet Stores",Dublin,PA,18917,4.0
2ZYAMRVb_vLhEC4mzb7XTA,Oh So Pretty Pet Spa,"Pet Services, Pet Stores, Pet Groomers, Pets",Glenside,PA,19038,3.5
GG-3p0TNexuyMYqy5ygpzw,PetSmart,"Pet Services, Pet Sitting, Pet Training, Pet Groomers, Pets, Pet Stores",Moorestown,NJ,08057,2.5
jTdKEi62Bjf-G1WlUJg95A,Tractor Supply Co.,"Hardware Stores, Livestock Feed & Supply, Home & Garden, Pets, Shopping, Pet Stores, Farming Equipment",Tucson,AZ,85746,4.0
YP6B1xOHbv3WlvyB7gWwoA,Off The Leash Dog Grooming,"Pet Services, Pets, Pet Stores, Pet Groomers, Pet Sitting",Ballwin,MO,63011,5.0
NuWYqeasNWKnl6kRrFdeNw,Pet Valu,"Pet Stores, Pets",Flourtown,PA,19031,4.5
pbaHlniTL_BrEbUg6hDx4g,Raw Paws Pet Food,"Pets, Pet Stores, Pet Services",Indianapolis,IN,46241,5.0
A9r4xU06Rxb6mQ5LBys-8Q,Foster's Exotic Pet Center,"Pets, Pet Stores",Tarpon Springs,FL,34689,3.0
HNPV8uDz5cnHinABVGCCWQ,Pet Chef Express,"Pet Stores, Pets",Reno,NV,89502,5.0
bEQe27cvFKTVhnHAl3C-JQ,Bentley's Pet Stuff,"Pets, Pet Stores",Indianapolis,IN,46268,4.0
PN1r9sZ2CU5BPI9m6in-mQ,Miss Kitty's Bed & Bath,"Pet Sitting, Pet Stores, Pet Boarding, Pet Groomers, Pets, Pet Services",Nashville,TN,37204,4.0
mN6hGN2Vgz7w5phQl5hNtw,PetSmart,"Pets, Pet Training, Pet Groomers, Pet Services, Pet Stores",Reno,NV,89511,3.5
JwXDlPuzqJ77jrMo-RJuUw,Amber Glen Feed Depot,"Pets, Pet Stores",Pinellas Park,FL,33781,5.0
CZ4Tav_jCcy0ymDFuOXBBQ,Pet Supplies Plus - Avondale,"Pet Adoption, Pet Groomers, Pets, Pet Services, Pet Stores",Avondale,PA,19311,3.5
lbFzqyPfEx4ms9lcQd9HMQ,PetSmart,"Pet Sitting, Pet Training, Pet Stores, Pet Groomers, Pet Services, Pets",Springfield,PA,19064,2.5
5n6vnXc7DusxX2bG1zYFqA,BONEZ,"Pets, Pet Stores",King of Prussia,PA,19406,3.5
lsNakw_fv9gBKzAO5Hzp6g,Tidy Dog Pet Supply and Salon,"Pet Sitting, Pet Services, Pet Boarding, Dog Walkers, Pet Stores, Pets, Pet Groomers",Nashville,TN,37214,3.0
joCLZJlXtBByAfTiWCyrjg,My Second Home,"Pet Sitting, Pet Boarding, Pet Groomers, Pet Stores, Pet Training, Pet Services, Pets",Franklin,TN,37067,3.0
MO6bwEAgTBqxHkWNmW60tw,A-Pampered Pet,"Pet Stores, Pet Groomers, Pets, Pet Sitting, Pet Services",Indianapolis,IN,46231,3.5
0v0OzOuhxmtmv2-SRWJYjQ,Petco,"Pet Training, Pet Groomers, Pets, Pet Services, Pet Stores",Tucson,AZ,85705,3.5
qNpGD0J1-Co7wDjUZgdagw,PetSmart,"Pet Services, Pet Training, Pet Groomers, Pet Sitting, Pet Stores, Pets",Fairless Hills,PA,19030,2.5
zXb_n0-cbsppVXJywaM9wQ,IndyHumane,"Pet Adoption, Pets, Pet Stores, Animal Shelters",Indianapolis,IN,46268,4.0
JcdhFD4MFZXYFWvY0FY5TQ,Encanto Pet Clinic,"Pet Stores, Pet Services, Pet Sitting, Pet Groomers, Veterinarians, Pets",Tucson,AZ,85711,4.5
_X9SsBerAMSTuEwJv-_cng,Cox's Seafood Market,"Books, Mags, Music & Video, Seafood Markets, Pets, Pet Stores, Specialty Food, Shopping, Food, Seafood, Restaurants, Sushi Bars",Tampa,FL,33614,4.5
xOaffmoLi2d7YbfUggNQ3g,Pet Supermarket,"Pet Stores, Pets",Franklin,TN,37067,4.0
4I0QchVwL3o7Ia7yGHeQRA,Wanamaker Feed & Seed,"Arts & Entertainment, Shopping, Home & Garden, Pet Stores, Pets, Hardware Stores, Farms, Nurseries & Gardening, Livestock Feed & Supply",Indianapolis,IN,46239,5.0
QFodscbX3HVqza1W68NbwQ,Pet Supplies Plus - New Port Richey,"Pets, Pet Stores, Pet Services, Pet Groomers",New Port Richey,FL,34654,4.5
ryX7m8H7_nnF3C8gWWQEiQ,World Wide Aquarium & Pets,"Pets, Pet Stores, Local Fish Stores, Active Life, Pet Services, Aquariums, Reptile Shops, Pet Sitting",Philadelphia,PA,19128,4.0
t97cv0MFMwQTxB-EOsuyUg,Petco,"Pet Stores, Pet Services, Pet Groomers, Pets, Pet Training",Bensalem,PA,19020,2.5
RR1k6Sf2Y79ZVUXOHn5CFQ,The Pet Club,"Pet Stores, Pets, Pet Training, Pet Groomers, Pet Adoption, Pet Services",Tucson,AZ,85710,4.0
fWtjtCcbde35egsCatZ1mA,Petco,"Pet Groomers, Pet Stores, Pet Training, Pet Services, Pet Sitting, Pets",Boise,ID,83705,3.0
fs90yt-xsJW2gPq0jGiIHg,Mutts & Meows Pet Supply Store,"Pets, Pet Services, Pet Stores, Pet Groomers",Nashville,TN,37206,5.0
DKGZTo3sL5HTj1JnP3bxRQ,Doggie Style,"Pet Adoption, Pet Stores, Pet Groomers, Pets, Pet Services",Philadelphia,PA,19147,4.5
gOddzD7mEzNlKj8yVGWocw,Oasis Pond Maintenance & Supply,"Landscaping, Shopping, Nurseries & Gardening, Home & Garden, Lakes, Fishing, Active Life, Pool & Hot Tub Service, Pool Cleaners, Hot Tub & Pool, Pet Stores, Local Fish Stores, Pets, Home Services",Sparks,NV,89431,3.0
D5uJt2U8tI7FMxIzvzdGOQ,Pinellas County Reptiles,"Pets, Pet Stores, Pet Services",Largo,FL,33771,4.0
bSaC-1SATRzNSLXd7pFp2A,Delchester Discount Feed and Pet Supply,"Pet Stores, Pets",Holmes,PA,19043,5.0
XBqrCQbNfRc3SmwTaGLoQA,Poochies Pet Boutique & Salon,"Pet Groomers, Pet Stores, Pet Services, Pets",Dunedin,FL,34698,5.0
2wufoActikJKWIqv_CAFhQ,Poodle Palace & Pet Boutique,"Pets, Pet Sitting, Pet Stores, Pet Groomers, Pet Services",St Pete Beach,FL,33706,3.0
PfnKGDF8EonDA5nkLo9SGA,Everything Birds,"Pet Groomers, Pet Boarding, Pet Training, Pet Stores, Bird Shops, Pets, Pet Services, Pet Sitting",Oldsmar,FL,34677,4.0
JXkGyyeo__neQuJoiReYTQ,Creature Castle,"Pet Stores, Pets, Pet Services, Pet Sitting",Brandon,FL,33511,2.0
TGAqVEU71rNbCKqTN3T1tA,Three Dog Bakery - Zionsville,"Pets, Pet Services, Pet Stores",Zionsville,IN,46077,5.0
WhC1Ln41T9wWp2myXbayuA,Bark Avenue,"Pet Services, Pets, Pet Groomers, Pet Stores",Tucson,AZ,85710,4.0
Vg-I8jrrNNiD7qzK7Br9eg,Morris Animal Refuge,"Animal Shelters, Pet Stores, Pets",Philadelphia,PA,19147,4.0
Ta1pgnh3fAlJ5UVhEhZ5LA,Unleashed Pet Spa & Boutique,"Pets, Pet Stores, Pet Services, Pet Groomers",Ardmore,PA,19003,4.5
AbRmomhdmZ4yKDOp0UBhBQ,Double M Feed Garden & Pet Supply,"Pets, Pet Stores, Nurseries & Gardening, Shopping, Home & Garden",Harahan,LA,70123,3.5
J40yh-PlRJQloNzHnd-BNQ,Daisy's Delights,"Pets, Pet Sitting, Pet Stores, Pet Boarding, Pet Services, Pet Groomers",Norwood,PA,19074,4.5
v64LkjwXNVipRL0M65Mt8A,Braxtons Animal Works,"Pet Stores, Pets",Wayne,PA,19087,4.5
Z_l5dmN5AvLDS0KtVEjZZA,Dogs-N-Donuts,"Food, Pet Services, Cafes, Coffee & Tea, Donuts, Pets, Pet Stores, Breakfast & Brunch, Restaurants, Bakeries",Tucson,AZ,85710,5.0
v43sH62YQMO60zIiLR65DA,Unleashed,"Pet Services, Pet Stores, Pets, Pet Training, Veterinarians, Pet Groomers",North Wales,PA,19454,5.0
UJ06Hetdk4Xc0o_e3_5qAw,50 Fathoms Pet Shop,"Aquariums, Pet Stores, Active Life, Aquarium Services, Pets, Pet Services",Metairie,LA,70006,3.0
a6q_-s92vxJ9h0W6Bhjhxw,Pet Supermarket,"Pet Stores, Pets",Clearwater,FL,33764,2.5
kRSxoffFqxuk9KoUWW57Kw,Wags & Whiskers,"Pet Stores, Pet Services, Pet Groomers, Pets",Nashville,TN,37209,4.5
RaX7tHwMlR0HE0zJ-L1LnQ,Dog Day Afternoon,"Pet Sitting, Pet Services, Pet Stores, Pets, Pet Groomers, Pet Adoption",Belleville,IL,62223,4.5
WlxFBnk8q5q4O8S0f7DYBQ,Dogtopia of Chester Springs,"Pet Sitting, Pets, Pet Stores, Pet Services",Chester Springs,PA,19425,4.0
XxSIrbHqVMdEzP30-DN20g,Louisiana SPCA,"Pet Stores, Pets, Veterinarians, Pet Training, Animal Shelters, Pet Services",New Orleans,LA,70114,4.0
u-taAuu1F14QuRuZL78bxA,Bird Paradise,"Pet Services, Pet Stores, Pets, Pet Sitting, Pet Groomers",Burlington,NJ,08016,3.5
2B8g11udE9SVdoIkvdpS7Q,AndrewÂ´s Pack,"Pet Stores, Pet Adoption, Pet Boarding, Pets, Pet Services, Dog Walkers, Pet Sitting",Philadelphia,PA,19130,4.5
wT5tS7QSoOU4XdsgXptgWA,Concord Pet Foods and Supplies,"Pet Stores, Pets",Mount Laurel,NJ,08054,4.5
yubhIZPuGVyb_jRf8VLVuQ,PetSmart,"Pet Training, Pets, Pet Services, Pet Stores, Pet Sitting, Pet Groomers",North Wales,PA,19454,2.0
Lho9M-1QcSG4_oD1lpVtEw,Cat Genie,"Pet Services, Pets, Pet Stores, Pet Training",Norristown,PA,19403,4.0
9AKOTBgiglQzJPW35slibg,Westchase Veterinary Center and Emergency,"Pet Groomers, Pet Services, Pet Stores, Veterinarians, Pets, Animal Shelters, Dog Walkers, Pet Insurance, Pet Cremation Services, Pet Sitting, Pet Boarding, Emergency Pet Hospital",Tampa,FL,33626,4.5
AVSG9vm2hgLeGmdi-b7-8w,City Dogs Grocery,"Pets, Pet Stores",Indianapolis,IN,46205,5.0
NGU_XnGnNNzLzKKz7gpr_g,Inland Aquatics of Indianapolis,"Pets, Pet Stores",Indianapolis,IN,46221,4.5
fR7vMlkAX-lnDe1wQupbiw,Animal Lifeline Thrift Shop,"Pets, Thrift Stores, Local Services, Pet Services, Shopping, Pet Adoption, Pet Stores, Community Service/Non-Profit",Warrington,PA,18976,5.0
EfylzvvNYBuYAYjSXZF0lw,Sportsman's Warehouse,"Hunting & Fishing Supplies, Archery, Pets, Shopping, Guns & Ammo, Active Life, Shoe Stores, Outdoor Gear, Fashion, Sporting Goods, Pet Stores",Reno,NV,89502,3.5
0e_J3XCjMl4mWAuOgslOWw,Sublime Canine,"Pet Services, Pet Training, Pets, Veterinarians, Animal Shelters, Pet Stores, Dog Walkers",Tucson,AZ,85742,4.0
QXo6i8i82DTZzbjy55tDaA,PetSmart,"Pet Training, Pet Groomers, Pet Services, Pets, Pet Sitting, Pet Stores",Marlton,NJ,08053,3.5
pUIcxWcdfKMqXoJA0zuwcw,Spot's Spot Pet Grooming,"Pet Services, Pet Stores, Pet Groomers, Pets",Philadelphia,PA,19123,4.5
4oZu5yaHrf2bw6YVXvkWgA,Pet Valu,"Pets, Pet Stores",Richboro,PA,18954,4.0
UgpDg0LiL_XVi9Sv4XJoFw,PetSmart,"Pet Services, Pets, Pet Training, Pet Stores, Pet Groomers",Spanish Springs,NV,89436,3.5
XPPnz2CvO1wC4aD4mGFtlw,Holly's Grooming & Pet Supplies,"Pet Services, Pet Groomers, Pets, Pet Sitting, Pet Stores",New Orleans,LA,70115,4.5
MbW8007dtzkzk-We6c_5uQ,What's In Your Tank,"Aquarium Services, Pet Stores, Pet Services, Pets, Local Fish Stores",Land O' Lakes,FL,34639,3.0
pjZrxH-U-QhNNofR_1Jy7Q,CARE,"Animal Shelters, Pets, Pet Stores",Ruskin,FL,33570,2.5
9T5RlHT7fY4Okp_g_QWPGQ,Southside Animal Shelter,"Animal Shelters, Community Service/Non-Profit, Local Services, Pets, Pet Stores, Pet Adoption",Indianapolis,IN,46217,3.5
0pq26RuqXGiGSN7sanZBHA,Pawsh,"Pet Adoption, Pets, Pet Stores, Animal Shelters",Tucson,AZ,85711,5.0
o3scBr-ylC8grqS8jTT14Q,Giant Aquarium,"Pet Stores, Pets",Philadelphia,PA,19147,4.0
6-dIoG_AoK-Y2zf5DuVtUw,Dioji K-9 Resort & Athletic Club,"Pet Services, Dog Walkers, Pet Stores, Pet Groomers, Pets, Pet Boarding, Pet Sitting",Goleta,CA,93117,4.5
udHVIrP8z10Y4M0ocziJ6g,PetSmart,"Pet Sitting, Pets, Pet Stores, Pet Services, Pet Training, Pet Groomers",Indianapolis,IN,46227,2.5
IhKGIGNrO4LygkcXXItSCw,Spoiled Petz Grooming,"Pets, Pet Stores, Veterinarians, Pet Groomers, Pet Services, Pet Sitting",Reno,NV,89502,4.5
LCKWURSKqNmuGt8_qljQfA,Accent On Animals,"Pets, Pet Stores, Pet Services",Philadelphia,PA,19147,3.5
7xLzXGmupg5ygljGlqNDaw,Splash and Dash Groomerie & Boutique,"Pet Services, Pet Stores, Pets, Pet Groomers",Meridian,ID,83646,4.5
e5rKX9OQkvwi8u737pG3Fg,Canine Culture,"Pet Sitting, Men's Clothing, Pet Groomers, Fashion, Shopping, Pets, Pet Services, Women's Clothing, Pet Stores",New Orleans,LA,70115,4.5
dMXpsu7SjHXct6oSkVHyyg,come.sit.stay,"Pets, Pet Stores",Nashville,TN,37205,5.0
mPEhOHKNiDUV-hJYdo5s8w,Lemos Feed & Pet Supply,"Pet Services, Pets, Shopping, Pet Stores, Veterinarians, Livestock Feed & Supply",Goleta,CA,93117,5.0
ngqOVRu_YDy7j5jSIpAlYw,Quality Cage Crafters,"Pet Stores, Pets",Boise,ID,83709,2.5
m-yIC2eqc3KewIlhPedahQ,Rural King,"Home & Garden, Shopping, Hardware Stores, Pets, Home Services, Pet Stores, Farming Equipment, Building Supplies",Collinsville,IL,62234,3.0
O9bRqEdTOzPXlb4Y9ES9yg,You Heavenly Dog,"Pet Groomers, Pets, Pet Stores, Pet Services",Fairview,TN,37062,3.5
l6vkPolWvcpvaCVhEMHSNw,Woof Gang Bakery & Grooming,"Pet Groomers, Pets, Pet Stores, Pet Services",Wesley Chapel,FL,33559,4.5
04jw5mV28vTy31Am4QyHIA,Fetch! Mid-City,"Pet Services, Pet Stores, Pet Groomers, Pets",New Orleans,LA,70119,4.5
QyJqZGa1shnOO2ArZifmrw,Bark Life Market & More,"Pets, Pet Groomers, Pet Stores, Pet Services, Pet Sitting, Pet Boarding",Seminole,FL,33772,4.0
XFBsRPkZkv3u4kByzc5MKQ,Burlington County Animal Shelter,"Animal Shelters, Pet Stores, Pets, Pet Adoption",Westampton,NJ,08060,3.5
fGPoWANX6Rse_AkrLCz0cg,PetSmart,"Pet Training, Pet Stores, Pet Services, Pets, Pet Groomers",Meridian,ID,83642,3.0
WBrCOx8hFD1uz6AK2I8LzA,Cool Dog Gear,"Pets, Pet Stores",Warrington,PA,18976,5.0
KhZ-LjzWJcR0MpqWF_VCbw,Pet Kraze,"Pets, Pet Stores",Wilmington,DE,19810,3.0
1BPwKxQ05aL1b8BeTeQICg,Petco,"Pets, Pet Training, Pet Stores, Pet Groomers, Pet Services",Saint Charles,MO,63303,2.5
DFlRfrRw7JP_0voM77XeIA,PetSmart,"Pet Training, Pets, Pet Services, Pet Groomers, Pet Stores",Brandon,FL,33511,3.5
t4sJqooXn3Ko49Fk3Sh4lQ,Pet Supplies Plus - West Chester,"Pet Services, Pets, Pet Groomers, Pet Adoption, Pet Stores",West Chester,PA,19380,4.0
5dDOy0PG_a_bi1Zj9r-OfQ,Ark Pet & Supply,"Pets, Pet Stores",Carpinteria,CA,93013,4.5
YmOOJ6rOHdOhutSmWKX-SQ,Pocket Pets,"Pet Services, Pets, Pet Training, Pet Stores",Goodlettsville,TN,37072,1.5
gpLVP-lJMYQLSi2oVFU6Jw,Doggie Cakes - Pet Bakery and Boutique,"Pet Training, Pets, Pet Stores, Pet Services",Port Richey,FL,34668,5.0
0mmyLE5D-xgV0otnaqODSQ,Angry Fish Sales,"Pet Stores, Local Fish Stores, Pets",Tucson,AZ,85711,3.0
zx2kkJ62o9plFbRsBOKtWQ,Total Animal,"Pet Stores, Pets",Lahaska,PA,18931,2.5
g5VmIGSlKMGQ7VrPfPWY1g,Pet Supermarket,"Pets, Pet Stores",Tampa,FL,33618,3.0
iK_T56DTbThoxtI7mJpzPA,Webster Groves Animal Hospital & Urgent Care Center,"Pet Stores, Veterinarians, Pet Services, Pets, Pet Boarding, Pet Sitting",Saint Louis,MO,63119,2.5
JkJ9Ui_55OyXI04L6JOpjg,Nikko's Dog Barrrrr,"Bars, Coffee & Tea, Nightlife, Food, Pet Stores, Pets, Champagne Bars, Pet Services, Music Venues, Arts & Entertainment, Wine Bars",Saint Pete Beach,FL,33706,5.0
q8Y0xU2vYtac9Jra3d1Qyw,Petco,"Pet Services, Pets, Pet Stores, Pet Training, Pet Groomers",Sewell,NJ,08080,3.0
F6xIsnKX5zotM4OsfYyGkQ,Pet Supermarket,"Pet Stores, Pets",St Petersburg,FL,33711,3.0
uTRCC-xcfUlZR8qG5oouyQ,Clip & Dip Pet Grooming,"Pet Stores, Pet Sitting, Pet Groomers, Pets, Pet Services, Pet Boarding",Metairie,LA,70001,4.0
wCzMMHs6cC5859p470oWWw,Winning Circle Feed & Pet Supplies,"Pets, Livestock Feed & Supply, Shopping, Pet Stores",Hudson,FL,34669,3.5
ynR83FVRDcpPiEMx-Gv7Uw,Jake's Dog House,"Pet Stores, Pets",Cherry Hill,NJ,08003,3.0
0niFN1BolHsI_Wrk03WrcA,Pets Plus Natural,"Pet Stores, Pets, Pet Services, Pet Adoption, Pet Groomers",Lawrenceville,NJ,08648,2.5
aWZgbLakgmAwOQdm2TU9Eg,GiggyBites Bakery for Dogs,"Pet Stores, Pets, Pet Services, Food, Pet Training, Bakeries",Chadds Ford,PA,19317,4.5
FgUinjudH2SwmiyaEyi2Fg,Playful Pets,"Pet Services, Pet Stores, Pets, Pet Sitting",Conshohocken,PA,19428,2.5
Qp9p9n8GHy4wLJv6yk45kw,Moana Nursery,"Bird Shops, Home Services, Shopping, Pets, Home & Garden, Pet Stores, Gardeners, Flowers & Gifts, Nurseries & Gardening, Landscaping",Reno,NV,89509,3.5
VwJ9Cle7WroquYquI_WPtA,Wild Birds Unlimited,"Local Flavor, Bird Shops, Shopping, Pet Stores, Pets, Hobby Shops",Buckingham,PA,18912,5.0
CegE5f2jQGxAgnfXTpBTuw,Pet Supplies Plus - Hendersonville,"Pets, Pet Services, Pet Stores, Pet Groomers",Hendersonville,TN,37075,4.5
tW8-5eqkjnbSWoydRV_0Pg,Doggie Style Pets,"Pet Services, Pets, Pet Adoption, Pet Groomers, Pet Stores",Philadelphia,PA,19146,4.0
Et5GVAFjPzFRZ1IREWu4tg,Rosie's BarkÃ©t OV DIY Dogwash,"Pet Stores, Pets, Pet Groomers, Pet Services",Oro Valley,AZ,85704,5.0
vl8yqlsaXgj9OGxXH16pjA,PetSmart,"Pet Training, Pet Stores, Pets, Pet Services, Pet Groomers",Philadelphia,PA,19152,3.0
OZJsjewEaURqxlCwRDfrrg,Pets Plus Natural,"Pets, Pet Adoption, Pet Groomers, Pet Stores, Pet Services",Fairless Hills,PA,19030,3.0
uMZ8356r7_5ZGNGFTGvOzQ,Doggie Style Pets,"Pet Services, Pet Stores, Pet Groomers, Pet Adoption, Pets",Philadelphia,PA,19123,5.0
UrrDp8Rc3LDRgfrNngNvuw,Three Dog Bakery,"Pet Stores, Pets, Pet Services",Saint Louis,MO,63130,4.0
i3GgnqJTCetWoUVBumnyow,Tobin's Feed & Seed,"Pets, Nurseries & Gardening, Gift Shops, Home & Garden, Farming Equipment, Pet Stores, Flowers & Gifts, Pet Training, Pet Services, Shopping",Media,PA,19063,4.5
vucNkq6W0EilNH03sfYHuQ,Sierra Feed & Saddlery,"Shopping, Pets, Pet Stores, Horse Equipment Shops",Reno,NV,89511,2.5
TlVsvjKsSv81XyZ3WKtGBQ,Pet Supplies Plus,"Pet Stores, Pets, Pet Groomers, Pet Adoption, Pet Services",Marlton,NJ,08053,4.0
5yb_YRF0eIo0PZpOL-O9Mg,Dog House Pet Grooming Salon,"Pets, Shopping Centers, Pet Stores, Shopping, Pet Groomers, Pet Services",Reno,NV,89511,3.5
i41VnJVP3RWS-WPIG5uNzQ,Precious Paws,"Pet Services, Pet Groomers, Pets, Pet Stores",Wilmington,DE,19805,4.5
4rAScYdVRTUfRIdtWDfguQ,Captain Nemo's Aquarium Superstore,"Aquarium Services, Pet Services, Pets, Pet Stores",Norritown,PA,19401,3.5
YddMzqdEpjy5NWbQMXhV-g,Aquatic Critter,"Aquariums, Active Life, Pet Stores, Pet Services, Shopping, Home & Garden, Nurseries & Gardening, Pets, Aquarium Services",Nashville,TN,37211,4.5
F8blTziNfKNbXqVCdVOYjw,Shell's Feed & Garden Supply,"Shopping, Pet Stores, Nurseries & Gardening, Livestock Feed & Supply, Pets, Home & Garden",Tampa,FL,33612,4.0
tpjCpPYmddwD_U7_9zNRHw,PetSmart,"Pet Stores, Pets, Pet Groomers, Pet Services, Pet Training",Glen Carbon,IL,62034,3.5
mUijg4EGH4w3HJFQPdomIw,Dogs & Cats Rule,"Pets, Pet Stores",Maple Glen,PA,19002,5.0
DrZwSdQKS5cep-HnP08uqQ,Dog's Bollocks,"Bars, Pubs, Pet Stores, Automotive, Nightlife, Pets",Tampa,FL,33605,3.5
XVIngUA1WDFPlnYeHmvn-w,Zamzows,"Pet Services, Pet Stores, Nurseries & Gardening, Home & Garden, Shopping, Pets, Pet Sitting",Meridian,ID,83642,3.0
1iom4zvESdprKJuV8Xw5Rg,Pet Supplies Plus - Florissant,"Pet Stores, Pets",Florissant,MO,63031,4.5
HV4573Oo5PYDU5M1jk7yYA,The Dog House,"Pets, Pet Stores, Pet Services, Pet Sitting, Pet Boarding, Pet Training",Boise,ID,83709,4.0
1A4gwQRyGgD3zjUrOiijmQ,Aqua World,"Pet Stores, Pets",Saint Louis,MO,63116,4.0
XD469cx9VeHkCrDXfzc8rg,City of Paws Pet Care,"Pet Services, Pet Sitting, Dog Walkers, Pets, Pet Transportation, Pet Stores",Philadelphia,PA,19127,5.0
m8BIkPp8ieEan0BJ8TZFAg,Pet Supermarket,"Pets, Pet Groomers, Pet Stores, Pet Services",Belleair Bluffs,FL,33770,3.0
6c1IDURFb5tdG9PGV8jGBg,Zamzows,"Shopping, Nurseries & Gardening, Home & Garden, Pet Stores, Pets",Meridian,ID,83646,4.0
qyFbdlajNAJvN2Sd5NQueA,Fins and Skins,"Pets, Reptile Shops, Aquarium Services, Pet Services, Pet Stores",Pinellas Park,FL,33781,3.5
TYQC3EtPU_l6K9ye7IVDoA,Perk Valley Pet Eatery,"Pet Adoption, Pets, Pet Stores",Trappe,PA,19426,4.5
ltR2nVlOhj6RSY0jIdaiKA,Petco,"Pet Groomers, Pets, Pet Services, Pet Training, Pet Stores",Speedway,IN,46224,3.5
8hRqnH20pOvJmaEyQk_2gQ,Shark Reef,"Pets, Pet Services, Active Life, Pet Stores, Aquariums, Local Fish Stores, Zoos",Tucson,AZ,85705,5.0
U8UJ85voIYCAbHwcy8ySSQ,Chi-Wa-Wa Ga-Ga,"Pet Stores, Pet Services, Pets",New Orleans,LA,70116,4.5
rKbTMJ7RMi06I2cW18toog,Street Tails Animal Rescue,"Pet Stores, Local Services, Animal Shelters, Pets, Pet Adoption, Community Service/Non-Profit",Philadelphia,PA,19123,4.5
De3XsIRvLU5Ay7QH4-_quA,PetSmart,"Pet Stores, Pet Services, Pet Sitting, Pets, Pet Groomers, Pet Training",Harvey,LA,70058,3.0
jSmnX115LvN6_KOpYcj9dQ,Atlantis Aquariums,"Pets, Active Life, Pet Stores, Aquariums",Santa Barbara,CA,93105,3.0
eULb3dFmid8VAiLqjdgkAg,PetSmart,"Pet Groomers, Pet Stores, Pet Services, Pets, Pet Training",Florissant,MO,63033,2.5
Jgy5z8RKD4lgqQYwapSTVA,Wholesale Bird And Cage,"Pet Stores, Pets",Saint Charles,MO,63303,4.0
RdRp_XARtjZ9fnT46e5VZw,Humane Society of Pinellas,"Local Services, Animal Shelters, Pet Stores, Pets, Community Service/Non-Profit",Clearwater,FL,33759,3.0
gDxHkwAwGjZiZwkDrn0-9A,Exotic Amphibian & Reptile Center,"Pets, Pet Stores",Saint Louis,MO,63125,2.5
3eKbymT4PuPDVNsrs-y-9w,Top Dog Self Wash,"Pets, Pet Services, Pet Groomers, Pet Stores",Wilmington,DE,19809,5.0
V857YETBSpKXyQ2xeqUAiw,Animalia Health and Wellness,"Veterinarians, Pet Stores, Pets",Franklin,TN,37064,3.5
tYN6H6vtW52aC7LdZLhhwQ,Delaware Humane Association,"Pet Stores, Animal Shelters, Pet Services, Pets",Wilmington,DE,19801,4.0
9I3Wn_NX4LIvBmH38Lq_DQ,Airedale Antics,"Pets, Pet Stores, Pet Services, Pet Groomers",Maplewood,MO,63143,4.5
52aKJGUzVV5JmJop5uAcdQ,Barkadelphia,"Pet Services, Dog Walkers, Pet Training, Pet Stores, Pets, Pet Sitting",Philadelphia,PA,19147,5.0
WZHcx97Znp0AoAOv9veJmg,Monster Pets,"Pet Stores, Pets",Audubon,NJ,08106,3.0
oz3yOwfRHbXvAGpIbzPskA,Pet Station,"Pet Stores, Pets",Reno,NV,89506,3.5
-iOa6EYSeq4oyV028BL50Q,Divas n dudes,"Pet Stores, Pets",Hudson,FL,34667,2.5
iMQP6tUbAhV6GWWfnLsKxw,Dog Gone Holistic,"Pet Stores, Pets, Pet Services",Lithia,FL,33547,4.5
x1OvW2f4mwnr1_4mA3q9Bg,Petco,"Pet Groomers, Pets, Pet Services, Pet Training, Pet Stores",Kenner,LA,70065,3.5
JDLEBMFfrF22154egA2eig,The Kerry Cottage,"Pets, Accessories, Food, Pet Stores, Home Decor, Restaurants, Home & Garden, Imported Food, Arts & Crafts, Jewelry, Shopping, Fashion, Flowers & Gifts, Cosmetics & Beauty Supply, Gift Shops, Beauty & Spas, Irish",Kirkwood,MO,63122,3.5
tbBsWjmbl6zoR5ffGzJ70g,Spot's Pet Supply & Dog Wash Donelson,"Pet Services, Pets, Pet Stores, Pet Groomers",Nashville,TN,37214,2.5
37NV_nJLSLX7MBjsOmSlMQ,Desert Pet Center,"Pets, Pet Stores",Tucson,AZ,85711,3.0
6nRTFCfS3CsIWyqOj-s9Lg,Royal Pets Market & Resort,"Pets, Pet Services, Pet Groomers, Pet Sitting, Pet Stores, Veterinarians",St Petersburg,FL,33710,3.5
yEo_ksS88eguSXR2uNgxfQ,Ma & Paws Pet Supplies,"Pet Groomers, Pets, Pet Services, Pet Stores",Hendersonville,TN,37075,4.5
hrGavs2A4C2EPATMBhAEvA,Canine Connection,"Pet Groomers, Pet Sitting, Pet Stores, Pet Services, Pets",New Orleans,LA,70115,4.5
PnOeyDV881gY-f9RPYw4kg,Dayton Valley Turf,"Landscaping, Pets, Home & Garden, Hotels & Travel, Commercial Truck Dealers, Shopping, Pet Stores, Home Services, Automotive, Transportation, Nurseries & Gardening",Reno,NV,89502,4.5
C3g6I4aGEzz2pb1zPp2sSw,PetSmart,"Pet Training, Pet Stores, Pets, Pet Services, Pet Sitting, Pet Groomers",Downingtown,PA,19335,3.0
AOQjyHJnWkMVPGppYZ463g,Petco,"Pet Training, Pet Services, Pets, Pet Groomers, Pet Stores",Media,PA,19063,3.5
3D9DMan6gtYg-7WAXZmQNw,Gucci Pooch,"Pet Services, Pet Groomers, Pets, Pet Stores",Boise,ID,83716,3.5
WRh6sHVrNTPSddp0nIlgJw,Munchies Natural Pet Foods,"Pets, Pet Stores",Wesley Chapel,FL,33543,4.0
ur8ROdHUlix521NVxS6efQ,Chester County S P C A,"Animal Shelters, Pets, Pet Stores",West Chester,PA,19380,2.5
_0RHG6h4-GKMTg7NCyYOKQ,Woof Gang Bakery & Grooming Carrollwood,"Pet Groomers, Pet Services, Pets, Pet Stores",Tampa,FL,33618,5.0
Yn-tjQPZ3cljzYsZZS0XYA,Vision Ace Hardware,"Hardware Stores, Home & Garden, Shopping, Nurseries & Gardening, Pet Stores, Pets, Paint Stores",Tarpon Springs,FL,34689,4.0
R9EKTpDXQg32wPm7qXWD8A,PetSmart,"Active Life, Pets, Aquariums, Pet Stores, Pet Training, Pet Services, Pet Groomers",Clearwater,FL,33759,2.5
-UPrwz4Ac25g9-drMmrTuQ,Petco,"Pet Sitting, Pet Groomers, Pet Training, Pet Stores, Pets, Pet Services",Carmel,IN,46032,3.5
-dc49jsYqR2zNblJkB9i8w,Homeward Bound Veterinary Services,"Veterinarians, Pets, Pet Services, Pet Stores, Pet Hospice",Reno,NV,89523,5.0
YEDzTXQroppZhaaCU_XeHQ,PetSmart,"Pet Training, Pet Stores, Pet Services, Pet Groomers, Pets",Goleta,CA,93117,2.5
KMcI-zw04Lv22DmIdEub6Q,Sierra Aquatics,"Pet Stores, Aquarium Services, Pets, Pet Services",Reno,NV,89502,3.0
8i5-uFL7TPHjdBAr5Ozovg,The Cat House Hotel,"Pets, Pet Boarding, Pet Sitting, Pet Stores, Pet Groomers, Pet Services",Santa Barbara,CA,93101,5.0
2A6GdwKk9Aq3ZL1iD7Mj0w,PetSmart,"Pets, Pet Services, Pet Stores, Pet Training, Pet Groomers",Tampa,FL,33635,3.5
TnkqPCUEJoAtcIoW75cKyQ,The Puppy Place,"Pets, Pet Stores",Tucson,AZ,85711,3.0
SxH4fSnAE6uFsHkQ1dty9Q,Woof Gang Bakery & Grooming Clearwater,"Pets, Pet Groomers, Pet Services, Pet Stores",Clearwater,FL,33759,4.5
WqG9sL4jU0zw2uttPvNywQ,The Clip Joint,"Beauty & Spas, Pet Services, Nail Salons, Pet Groomers, Pets, Pet Stores",Saint Louis,MO,63125,4.0
xNKpQ6FHtFFcQ1d6anwEPw,Kim's Pet Grooming,"Pet Services, Pet Groomers, Pets, Pet Stores",Boise,ID,83709,5.0
klmsqaRyouJ0lIkA9da8NA,Dog Lovers of Tarpon,"Pets, Pet Adoption, Pet Services, Pet Training, Pet Groomers, Pet Stores",Tarpon Springs,FL,34689,4.5
q3QnACbTOrkTo06SvmPHpA,Petco,"Pet Stores, Pets, Pet Services, Pet Groomers, Pet Training",Tucson,AZ,85750,3.5
kjGZet2BiHt1dQ3jW-9VJg,PetSmart,"Pet Services, Pet Stores, Pets, Pet Groomers, Pet Training",Mount Laurel,NJ,08054,3.5
4gHjgU-2QpCUf5R6dn4yeg,Petsense - Franklin,"Pets, Pet Groomers, Pet Adoption, Pet Services, Pet Stores",Franklin,TN,37064,2.5
p_P19TRefVq5Lm2XKUYsxg,Petco,"Pet Services, Pet Stores, Pets, Pet Training, Pet Groomers",New Orleans,LA,70115,2.5
YPXZROwDFVwusuOE4Wmvzg,Unleashed,"Pet Training, Pet Groomers, Pets, Pet Services, Pet Stores",Philadelphia,PA,19123,5.0
M4UJSqkzKRxuHitfa9yMaA,Cheatham County Animal Clinic,"Pets, Pet Stores, Pet Groomers, Pet Sitting, Veterinarians, Pet Services, Pet Boarding",Ashland City,TN,37015,2.5
QBcYoqQ8NfZw8lBtHiK4ew,Canine Cottage,"Pets, Pet Services, Pet Stores, Pet Sitting, Pet Groomers",Sparks,NV,89431,3.5
1ZZVDsIRVtonMTnXfByOSg,Pet Supplies Plus - Woodlyn,"Local Fish Stores, Pets, Pet Groomers, Pet Services, Aquarium Services, Pet Stores, Reptile Shops",Woodlyn,PA,19094,3.5
5QYy-tp99SN-xqIMdovMyA,PetSmart,"Pet Training, Pet Services, Pet Stores, Pet Groomers, Pets",New Orleans,LA,70115,3.5
WFtd_OVye3r8fgBnN6-Tqg,County Animal Hospital,"Veterinarians, Pet Training, Pet Services, Pet Stores, Pet Groomers, Pet Sitting, Pets",Ballwin,MO,63011,4.0
MAFMTi6tIPrD3ZqAzDUymQ,EarthWise Pet Valrico,"Pet Services, Pet Stores, Pets, Pet Groomers",Valrico,FL,33596,4.5
MBvMuWqROnfholJfInZnXw,Uncle Bill's Pet Centers North,"Pets, Pet Stores",Fishers,IN,46038,2.0
eyzBOd9gKaQ_JHdLGBJrvQ,Reefs2go,"Pet Stores, Pets",Clearwater,FL,33762,1.5
ckZhtxSuiKvO-4FuePUSdg,Rural King,"Home & Garden, Hardware Stores, Fashion, Farming Equipment, Department Stores, Home Services, Pet Stores, Shopping, Building Supplies, Pets",Waterloo,IL,62298,2.5
c2tmgBXEDS489kUoYqNYjg,PetSmart,"Pets, Pet Stores, Pet Services, Pet Groomers, Pet Training",Green Valley,AZ,85614,3.0
_EWIAcznqBcCLon_MBf47Q,The Wagamama,"Restaurants, Food, Pet Photography, Shopping, Gift Shops, Pet Services, Pets, Flowers & Gifts, Pet Stores, Cafes, Coffee & Tea",St. Louis,MO,63109,5.0
_nonQxPbfEksfo0UcSzGlQ,Belladoggie Resort Spa For Dogs,"Pet Services, Pet Stores, Pet Groomers, Pet Boarding, Pet Sitting, Pets",New Orleans,LA,70130,3.0
R7IoE-Th9OOAAPDNKtVRKg,Saved Me,"Pets, Animal Shelters, Pet Stores, Pet Adoption",Philadelphia,PA,19146,4.0
NCG3ErZ3CWUb0M2yOw51qg,Dutton Road Veterinary Clinic,"Pet Stores, Veterinarians, Pet Services, Pets, Pet Cremation Services",Philadelphia,PA,19154,3.5
9l--3jdx3hbyZOxXzkJpLA,Petco,"Pets, Pet Services, Pet Groomers, Pet Training, Pet Stores, Pet Sitting",Feasterville,PA,19053,2.5
ivuDs_fkSYUahm7m0wlEcA,Tractor Supply,"Hardware Stores, Pets, Pet Stores, Shopping, Livestock Feed & Supply, Home & Garden",Tampa,FL,33635,3.5
t_TTEteHLLgz6Gw2nAtuuQ,Causeway Pets,"Aquarium Services, Local Fish Stores, Shopping, Home & Garden, Active Life, Pet Stores, Pets, Aquariums, Pet Services, Nurseries & Gardening",Metairie,LA,70001,5.0
_5j3lZik3p30e9vxUMtoBg,PetSmart,"Pet Training, Pet Stores, Pets, Pet Services, Pet Groomers",Tampa,FL,33625,3.0
_L1RS7Clvvyfvcm9cF6Eaw,The Cat Shoppe,"Shopping, Flowers & Gifts, Pets, Pet Stores, Animal Shelters",Nashville,TN,37215,4.0
eAbG8RYHSukiV4L-dRP2gQ,Vista Feed & Supply,"Pets, Shopping, Livestock Feed & Supply, Pet Stores",Vail,AZ,85641,3.0
3NdaZtH-MV30SS7UPk6s1w,A & R Aquariums,"Pet Services, Local Fish Stores, Pet Stores, Pets, Aquarium Services, Aquariums, Active Life",Saint Petersburg,FL,33708,5.0
X53aAtUUSDzY1PLOr14Dwg,Oliver's Daycare and Boarding,"Pet Groomers, Pet Sitting, Pet Stores, Pets, Pet Services",Nolensville,TN,37135,3.5
tdjwBt4TyQmGZhohoYx2Ig,SPCA Of Northern Nevada,"Leisure Centers, Pets, Active Life, Animal Shelters, Pet Stores",Reno,NV,89512,3.5
ms59L9sYmu_09wPo5XslsQ,Paws and Claws,"Pets, Pet Groomers, Pet Stores, Pet Services, Pet Sitting",Kennett Square,PA,19348,5.0
zgc7Ctq8cRe8o3VS1Vfy5A,Accent On Animals,"Pets, Pet Services, Pet Stores",Philadelphia,PA,19123,4.5
kTYSCRwCH8Cbq-GAI-04EQ,Pit Stop HQ,"Pet Groomers, Pet Stores, Pet Training, Dog Walkers, Pet Services, Pets, Pet Sitting",Philadelphia,PA,19147,4.5
KS9H-WD8vXIE5Jq3VOog_g,Pet Play House,"Pet Boarding, Pet Sitting, Pet Stores, Pet Services, Pets, Dog Walkers, Pet Training, Pet Groomers",Reno,NV,89512,4.0
Q1JK3lsZVFYzjY7oD4YSQA,Dog Gone Holistic,"Pets, Pet Stores",Riverview,FL,33578,5.0
CkUXsSxdQXA1bwxOwrnwqw,Reef To Rift Aquarium Store,"Pet Stores, Pets, Local Fish Stores, Aquariums, Active Life",Hatfield,PA,19440,4.0
VWHjjypYPfznN_tRIPfTvQ,Red Rover Pet Services,"Pet Sitting, Local Services, Pet Stores, Pets, Pet Services, Pet Groomers, Pet Training, Pet Boarding",Nashville,TN,37210,4.5
ozpvbCT2ehTtG1OQI8oSdQ,Best Friends,"Pet Stores, Pets",Reno,NV,89502,1.5
R__YlBMRoZkOa62zweSG2A,Jefferson Feed - Magazine St,"Pet Stores, Pets",New Orleans,LA,70118,4.0
AoEJBYLuNzQG3IGyBV72zA,Zamzows,"Pet Stores, Pets, Nurseries & Gardening, Shopping, Home & Garden, Pet Sitting, Pet Services",Boise,ID,83703,3.0
1o1CpuVhdEmXogEotukltA,Pets Plus,"Pet Adoption, Pet Stores, Pets",Conshohocken,PA,19428,3.0
RTBPRh1YjgPVkad6n6WwOw,PetSmart,"Pet Stores, Pets, Pet Services, Pet Groomers, Pet Training",Tucson,AZ,85704,2.5
R-bs-t16a_9L5N6WTrK_jw,Puppy Love,"Pets, Pet Services, Pet Stores, Pet Breeders",Sparks,NV,89436,1.5
uim-cdOfVqEkPhA25LCp0g,Pet Supermarket,"Pets, Pet Stores",Palm Harbor,FL,34684,4.5
i2PYiMC6zATn-FEuKnZ74A,K-9 Training & Behavioral Therapy,"Pets, Dog Walkers, Pet Services, Pet Stores, Animal Shelters, Pet Training",Philadelphia,PA,19147,5.0
poi1FLqu9eMVy3hiVZ6n1g,Animal Kingdom,"Pets, Pet Stores",Tucson,AZ,85705,4.0
-spcNtB3hITokBUi2uiKzg,Petco,"Pets, Pet Services, Pet Training, Pet Groomers, Pet Stores",Fairview Hts,IL,62208,3.5
Zo3IyrQqPDMQs_HNhzN7yQ,Pets in the City,"Pet Training, Pet Groomers, Pet Stores, Pets, Pet Services",Saint Louis,MO,63104,4.5
iKtA49gEjiWYV7PUljXayg,Pet Station - Reno,"Pet Stores, Pets",Reno,NV,89502,4.5
xL9lXfzAEG6mC34KENfOkA,The Dog House of Safety Harbor,"Pets, Pet Sitting, Pet Stores, Pet Services",Safety Harbor,FL,34695,5.0
rrx56pUXFRnebXW_KMC9mw,Pet Valu,"Pet Stores, Pets",Wayne,PA,19087,3.5
PD04fmtEtVdiXRYl6hEorw,Concord Pet Food and Supplies,"Pet Stores, Pets, Pet Services",Aston,PA,19014,4.0
6luLoOOrdHsX4o2HFXNORg,CleanPup Mobile Dog Grooming,"Pet Services, Pet Stores, Pet Groomers, Pets",Boise,ID,83706,4.0
gPFlQCOVQbhAPWnyMLPchw,Pet Supplies Plus,"Pet Stores, Pet Adoption, Pets, Pet Groomers, Pet Services",Blue Bell,PA,19422,3.0
cda7BnsHIYk2UIr23JAoBw,Petco,"Pets, Pet Groomers, Pet Services, Pet Stores, Pet Training",Wilmington,DE,19808,2.5
w-8IbrmGMRe1l1YHnKrv6A,Kim's Natural Pet Foods,"Pets, Pet Stores",Valrico,FL,33596,5.0
gKmKv0mGYSBQ8yxKdAC6gA,Petco,"Pet Stores, Pet Services, Pet Training, Pet Groomers, Pets",Philadelphia,PA,19128,2.5
c777OcBdsqSqGx0EyuCkAA,Petco,"Pet Training, Pet Groomers, Pet Services, Pet Sitting, Pets, Pet Stores",Indianapolis,IN,46227,3.5
Tg_6vamjotviL98G_dvHDg,Pets R Us,"Pets, Pet Stores",Reno,NV,89502,1.5
zsMYw-oe_wWSbX-qEWh4QA,Pet Valu,"Pets, Pet Stores",Carmel,IN,46032,4.5
R-AdsxlbUBHnrGd5IBcZEQ,Puppyland Idaho,"Pet Stores, Pets",Meridian,ID,83642,1.5
LMsoAFWg3k7DT201D3MUKQ,Petco,"Pet Services, Pets, Pet Stores, Pet Groomers, Pet Training",Manchester,MO,63011,2.5
8FIMgO2chN55Fb6AuXwMMg,K9 Pearly Whites,"Veterinarians, Pets, Pet Services, Pet Groomers, Pet Stores",Cherry Hill,NJ,08003,4.0
Qi9EHOnl_D8kq2O8TPYzHQ,Baxter Bailey & Company,"Pet Stores, Pets",Nashville,TN,37206,5.0
9z2j4vj_5YTdAQhSEUnMWA,The Dog Spa 1,"Pet Sitting, Pet Stores, Pet Groomers, Pet Services, Pets",Saint Charles,MO,63303,4.5
uq1Dihnn_zoRNwAdVDZafA,Brownsburg Ace Hardware,"Home & Garden, Hardware Stores, Paint Stores, Shopping, Pets, Pet Stores",Brownsburg,IN,46112,3.0
QURfr0JK8QrXTqaiEIjuPQ,Petco,"Pet Stores, Pets, Pet Services, Pet Training, Pet Groomers",Newark,DE,19702,1.5
DLzNtpWjwpijEVE0TvOJUQ,Fuzzy & Furries Petstore,"Pet Stores, Pet Groomers, Pet Services, Pets",Saint Petersburg,FL,33710,5.0
6dZhYo_679osV1nNN7DREw,Poochie's Place,"Pet Sitting, Pet Groomers, Pet Services, Pet Training, Pet Stores, Pets",Philadelphia,PA,19123,4.5
RswmJ6uEY7gRwws7aXHVoA,Grande Style Pet Grooming,"Pet Groomers, Pet Sitting, Pets, Pet Services, Pet Stores",Tampa,FL,33618,4.5
os6Z7bqwjAlc3GN-ewP5Bg,Seminole Blvd Animal Hospital,"Pet Sitting, Veterinarians, Pets, Pet Stores, Pet Services",Largo,FL,33778,4.0
Gu7ldQPfYhfEWorhE88Xkw,Mid City Animal House Dog Daycare & Boarding,"Pets, Pet Groomers, Pet Sitting, Pet Stores, Pet Services, Pet Boarding, Dog Walkers",New Orleans,LA,70119,3.5
AJTiwfd0QwT2vyiX50GArQ,Pet Supplies Plus - Broad Ripple,"Pet Services, Pet Groomers, Pet Stores, Pets",Indianapolis,IN,46220,4.0
rKO2kZB--kKG94HGzg5ysQ,Treats Unleashed,"Pet Stores, Local Services, Couriers & Delivery Services, Pet Groomers, Pet Services, Pets",Des Peres,MO,63131,4.5
Cd00JUk-sZAjUhtMxPN6XQ,Concord Pet Foods & Supplies,"Pet Stores, Pets",Chalfont,PA,18914,3.5
HMh66FnmB-Pa_QSfZGHC_A,Value Pet Center,"Local Fish Stores, Pets, Pet Stores, Aquariums, Active Life, Reptile Shops, Bird Shops",Pennsauken Township,NJ,08109,3.0
aJ5-2BOqO0kQfpvSULyg1Q,Belleville Area Humane Society,"Animal Shelters, Pet Stores, Pets",Belleville,IL,62226,3.5
DV8bcvgJ20v1Z8fib-jjxQ,Arizona Ponds & Landscaping,"Professional Services, Home & Garden, Pet Services, Landscape Architects, Indoor Landscaping, Landscaping, Pet Stores, Nurseries & Gardening, Waterproofing, Aquarium Services, Home Services, Shopping, Pets, Tree Services, Local Fish Stores",Tucson,AZ,85705,5.0
LHQCNsF-VEFOV0xRlfLuLQ,Wild Birds Unlimited,"Home & Garden, Pets, Pet Stores, Bird Shops, Shopping",Tucson,AZ,85715,5.0
q8A3Gso0Jtmcd-2O4wtN2w,Uncle Bill's Pet Centers West Indianapolis,"Aquariums, Pet Services, Pet Stores, Active Life, Pet Groomers, Pets",Indianapolis,IN,46254,2.0
nWl4X8PqyL_bJnaOYqqeSw,The Coral Corral,"Active Life, Aquariums, Pet Stores, Local Fish Stores, Pets",Tampa,FL,33635,5.0
iRnW8m3-Z4TB8H2lsVdkcA,PetPeople,"Pet Stores, Pets, Pet Services",Indianapolis,IN,46240,4.5
Qj787pdMF_Yq9ql_uIn20A,Petco,"Pet Stores, Pet Services, Pets, Pet Training, Pet Sitting, Pet Groomers",Arnold,MO,63010,3.5
aLzzDpvHM1zOC_5SQuV2Gg,Petco,"Pet Training, Pet Services, Pet Stores, Pets, Pet Groomers",St Louis,MO,63119,2.5
oA99faTbn2JVzUnqKFjQMg,Three Dog Bakery,"Pets, Pet Stores",Indianapolis,IN,46220,4.5
jJoHPgREItkq7945NRkW9w,Double M Feed Garden & Pet Supply,"Pet Services, Pets, Home & Garden, Arts & Entertainment, Pet Stores, Farms, Shopping, Livestock Feed & Supply",Metairie,LA,70002,3.0
hziG4nselFFifIedqH38FQ,ResQcats,"Animal Shelters, Pets, Pet Stores",Santa Barbara,CA,93130,4.0
Ni6qLvSlIqZ3wNcoPDa7nQ,Pet Club Tucson,"Pet Training, Pets, Pet Services, Pet Stores, Pet Groomers",Tucson,AZ,85712,4.0
tK7XOUtDFHtJlskkxtZF6w,PetSmart,"Pet Training, Pets, Pet Services, Pet Stores, Pet Groomers",Warminster,PA,18974,3.0
o7gLhFInc4Jk0IkHdaHdkA,VCA Clayton Animal Hospital,"Pet Stores, Veterinarians, Pets, Pet Services",St. Louis,MO,63105,5.0
3DUtqTAoCGHy8Q8R3RFkpA,Wag Natural Pet Market & Bathhouse,"Pet Services, Pet Stores, Pets, Pet Training, Pet Groomers",Tampa,FL,33606,4.0
M1dQw-xrDt0SDdqdvxWA2Q,OK Hatchery,"Nurseries & Gardening, Home & Garden, Pets, Shopping, Pet Stores",Saint Louis,MO,63122,4.5
rPJfQbVs9AQjJwjIjQ7fEQ,Petco,"Pet Groomers, Pets, Pet Services, Pet Stores, Pet Training",Palm Harbor,FL,34684,4.0
SQPAzkouAtJaPjmYGZqqVg,Pet Supplies Plus - Telford,"Pet Services, Pet Groomers, Pet Stores, Pets",Telford,PA,18969,3.5
-p-PVSQOpgW3qA5e49lCWw,Holistic Pet,"Pet Services, Pet Groomers, Pet Stores, Pets",Franklin,TN,37067,4.0
ePr10QLxW-vFVJBJ2WQKvg,illexotics,"Nurseries & Gardening, Shopping, Home Decor, Home & Garden, Pets, Pet Stores, Reptile Shops",Philadelphia,PA,19148,5.0
ere4jNLwSb-kSNWO63tyeg,Pupperazi Pet Spa,"Pet Services, Pet Sitting, Pet Stores, Pets, Pet Groomers, Pet Training",Palm Harbor,FL,34684,4.5
8U0qdUYe3_nG7nMug0-YAg,Morris Refuge,"Pet Stores, Animal Shelters, Pets",Philadelphia,PA,19147,4.0
Kxv3R4oNIa3VC0s1zfgXqw,Colleen's Pet Grooming,"Pet Stores, Pets, Pet Services, Pet Groomers",Santa Barbara,CA,93105,4.0
VMaJ-CX9wVfci47RQqnl3A,Precious Pets,"Pet Stores, Pets",Burlington,NJ,08016,3.5
Tq2zdEfXWiBH4j50kSzhFA,Pottstown Roller Mills,"Nurseries & Gardening, Pets, Pet Stores, Home & Garden, Shopping",Pottstown,PA,19464,3.5
_r4z6iMjQX_bu5Jq6mBiRw,PetSmart,"Pet Training, Pet Services, Pet Stores, Pets, Pet Groomers",Woodbury,NJ,08096,2.0
xa6FhYqjOl24lXNsdHBQww,All About Puppies,"Pet Stores, Pets",Brandon,FL,33511,2.0
PZVddUb3c3CSGYonzBxrYw,Cat Hospital of Tucson,"Pets, Pet Services, Pet Stores, Veterinarians",Tucson,AZ,85710,4.0
Q28R7c3GfxzThd9lCY80LQ,Pet Valu,"Pet Groomers, Pet Services, Pet Stores, Pets",Ardmore,PA,19003,4.0
h8-QxkCJAcP7qfbD8RKZ5g,TruDog,"Pet Stores, Pet Services, Pet Groomers, Pets",Oldsmar,FL,34677,2.5
1kegVgPiOyjwWFLNQcscCA,Rancher's Feed & Supply,"Pet Stores, Shopping, Pets, Livestock Feed & Supply",Reno,NV,89506,3.5
9sBG79tBOuV1NO1po4VqIQ,Kimie's Animal Art,"Pet Groomers, Pet Stores, Pets, Pet Sitting, Pet Services",Bryn Mawr,PA,19010,4.0
aP6dwbrS0kozFrRlMEljFw,Herp Hobby Shop,"Shopping, Pets, Reptile Shops, Hobby Shops, Pet Stores",Oldsmar,FL,34677,4.0
mMngbaqAP-g6L-ctKW5OhA,Pet Valu,"Pets, Pet Stores, Pet Adoption",Carmel,IN,46032,5.0
2x6H5oxjcHcvZLCQ3Cv_Fw,Amelie's Bark Shop,"Pet Stores, Pet Services, Pets",Philadelphia,PA,19147,5.0
FUy5n-i3T7OhLfH3Wsch1w,Petco,"Pets, Pet Groomers, Pet Training, Pet Services, Pet Stores",Tampa,FL,33618,2.5
DnBSaJojNOpmwECpxenXzQ,Natural Pet Care,"Pets, Veterinarians, Pet Stores",Metairie,LA,70002,4.5
E3AH8ebmU2kyiog6mqMiMQ,Fishy Bizness,"Pets, Pet Stores",Tucson,AZ,85712,4.5
1mzK-tIGZ-4zu_sAsYYp0A,Foster's Exotic Pet Centers,"Pets, Pet Stores",Port Richey,FL,34668,3.0
aVVCrM3kBh8yPmDyJAUnaQ,Health Mutt,"Pet Services, Pets, Pet Stores, Pet Groomers",Tampa,FL,33604,4.5
-v02dQRa_muuO7Y5IeUrWg,Dog Daze Canine Hair Design and Boutique,"Pet Services, Pet Stores, Pet Sitting, Pet Groomers, Pets",Doylestown,PA,18901,3.0
1nNn3-FJgfukw4xEAQJfCw,Lidl,"Pets, Grocery, Food, Shopping, Bakeries, Pet Stores",Royersford,PA,19468,3.5
vAdCOsEIjJVd0CUwsyM4jw,Petco,"Pet Training, Pet Stores, Pets, Pet Groomers, Pet Services",Brentwood,MO,63144,3.0
VtC3FFUnzbefuk3Yr_mNlw,Canine Cookies N Cream Dog Bakery,"Pets, Pet Stores",Saint Charles,MO,63301,3.5
bmpuMCPLEf3sO23hbLV7Tw,OK Feed & Supply,"Active Life, Pets, Livestock Feed & Supply, Horseback Riding, Pet Stores, Shopping",Tucson,AZ,85716,4.5
dHSLfCEAoCCzmI82bmSnqA,Saint Francis Veterinary Center,"Pets, Veterinarians, Health & Medical, Pet Stores, Urgent Care, Pet Services, Emergency Pet Hospital",Turnersville,NJ,08012,3.0
-oRyTR9br2I3xMbTvGZDXw,Babby Farms Puppy Boutique,"Pets, Pet Stores",Boise,ID,83714,1.0
LPL5AYXsbwxwZ8CixBgDIA,Pooch Parlor,"Pet Services, Pet Groomers, Pets, Pet Stores, Pet Sitting",Saint Louis,MO,63123,3.5
9xHEun3E77KzPmbI5rL33Q,Fluff Pet Salon & Boutique,"Pets, Pet Groomers, Pet Services, Pet Stores",Wilmington,DE,19809,4.5
QcU7EiHFQL8pVnOHZBPs2A,PetSmart,"Pet Groomers, Pet Stores, Pet Training, Pet Services, Pets",Philadelphia,PA,19116,3.0
FR7wkKyz314fNekACrDJOg,PetSmart,"Pet Groomers, Pet Stores, Pets, Pet Services, Pet Training, Pet Sitting",Tampa,FL,33647,2.5
OERhvolP3_gdLt_mCb9CyQ,Gateway Aquatics,"Aquarium Services, Aquariums, Pet Stores, Active Life, Pets, Nurseries & Gardening, Home & Garden, Lakes, Shopping, Local Fish Stores, Pet Services, Home Services, Landscaping, Landscape Architects",Saint Louis,MO,63129,4.5
CG6GQTdewWfyN-jBNx2ouw,Bark Ave Pet Supplies,"Pet Groomers, Pets, Pet Stores, Pet Services",Harleysville,PA,19438,4.5
2B8He9YyhPc2zaNaoYY1wg,Fish Aquariums & Stuff,"Pets, Local Fish Stores, Aquarium Services, Pet Stores, Pet Services, Aquariums, Active Life",Boise,ID,83704,5.0
Kp3eMSeZcX7sRPjD_lFh8w,Speck's Pet Supply,"Pet Stores, Pets",Greenwood,IN,46142,3.5
D55uuencvj3abcS3vMLtZA,Hermitage Cat Shelter,"Pet Stores, Animal Shelters, Local Services, Pets, Community Service/Non-Profit",Tucson,AZ,85711,3.5
aQFc29z49Ykpdq0hH7AJSQ,Menagerie,"Pet Stores, Pets",Summerland,CA,93067,4.5
wUr_OeSGiKxqyefJbbiqgg,Pet Supplies Plus - Warrington,"Pet Groomers, Pets, Pet Services, Pet Stores",Warrington,PA,18976,4.0
YMSQmjLBp5xnoYEioDxTFA,Invisible Fence of Middle Tennessee,"Fences & Gates, Pet Services, Pet Training, Pets, Home Services, Pet Stores",Nashville,TN,37204,3.5
Rkq-wH-Oa8jeYSAHjxphpg,Puppy Barn II,"Pets, Pet Stores",Mount Holly,NJ,08060,2.0
fOquGJdYwCwC7S489g_E9g,Tesson Ferry Veterinary Hospital,"Pet Stores, Veterinarians, Pets, Pet Services",Saint Louis,MO,63128,4.5
RGWJisJkonM7BZF_sq5FLQ,Cutter's Mill,"Pet Stores, Pets",Paoli,PA,19301,3.5
e7XV77p--IOrLE7SqIPZUA,Reigning Cats & Dogs,"Pet Services, Pet Groomers, Pets, Pet Stores",Sparks,NV,89436,4.0
Tcsc7_DL9vTgIm771UobAQ,Spotlight Pet Service,"Pet Stores, Pet Services, Pet Groomers, Pets",Saint Louis,MO,63109,5.0
lDJlXPcSEdEKaD7d0XHoAA,Aquatic Sealife,"Pets, Local Fish Stores, Pet Stores, Pet Services, Aquarium Services",Metairie,LA,70003,4.0
gwJuuy0ONqnAGXFvDfHxjg,Positively Canine,"Pets, Pet Services, Pet Boarding, Pet Training, Pet Groomers, Pet Stores, Pet Sitting",Zionsville,IN,46077,5.0
DVR9O8RKQ6YBdJJ6LyUL7w,Litterpaw Pet Supply,"Pets, Pet Sitting, Pet Stores, Pet Services",Philadelphia,PA,19107,4.5
oImpUwBZlC63aFolRI8k-g,Escape the Crate,"Pet Groomers, Pet Stores, Pet Services, Pet Training, Pet Sitting, Pets, Dog Walkers",Boise,ID,83709,5.0
lNTfMtAz8UE1k7lK8TFhnA,PetSmart,"Pet Stores, Pets, Pet Services, Pet Training, Pet Groomers",King Of Prussia,PA,19406,2.5
ShmPbwf0tIfRltABbiCt6g,Adogable Pet Services,"Dog Walkers, Livestock Feed & Supply, Pet Services, Pet Stores, Pet Sitting, Pet Groomers, Pets, Shopping",Sun City Center,FL,33573,3.0
AYKFEPa6dgJM62wWhelfQA,Kitty Cottage,"Animal Shelters, Pet Stores, Pets",Norristown,PA,19401,4.5
FszwPmUsN_RQ8evj1HSHYw,Bath & Biscuit Pet Boutique,"Pet Services, Pet Groomers, Pets, Pet Sitting, Pet Stores",Kenneth City,FL,33709,4.5
gNMv45b5qO5JJy0D_4Xd3g,Humane Society For Hamilton County,"Pet Services, Pets, Animal Shelters, Pet Stores, Pet Adoption",Fishers,IN,46038,4.5
x-RtERMpbSVfA9MmHD97wg,Paws Pet Market,"Pet Stores, Pet Services, Pets, Pet Groomers",Collinsville,IL,62234,2.5
TqmQ6-_D4ckAyX4SoIb7LQ,The Chic Petique,"Pet Stores, Pets",Philadelphia,PA,19123,4.5
G4WFmJPXGChCf5BiOdplDA,Lemos Feed & Pet Supply,"Livestock Feed & Supply, Shopping, Pet Stores, Pets, Veterinarians, Pet Services",Carpinteria,CA,93013,4.5
AE6jyQmaCB6O9SSSIGsn8A,Pet Friendly Dog Bakery,"Pets, Pet Stores",Philadelphia,PA,19127,5.0
tUV_uu2DMzljoMRyhH8H9Q,Camino Seco Pet Clinic,"Pet Stores, Pet Services, Pets, Veterinarians",Tucson,AZ,85710,3.5
C0f-EAF9mNN7OEWlKHUWQw,Creative Aquariums Of Tampa,"Aquarium Services, Pet Services, Pets, Pet Stores, Shopping",Tampa,FL,33609,4.5
P1pP6RIl-RtbSs_hQJJWpg,Natural Pet by Pets Plus Natural,"Pet Stores, Pet Services, Aquariums, Active Life, Pet Adoption, Pets, Aquarium Services, Local Fish Stores",East Norriton,PA,19401,2.5
zSkxYzu5-dOo5HhUt8-BiA,PetSmart,"Pet Groomers, Pets, Pet Training, Pet Services, Pet Stores",Trinity,FL,34655,1.5
04Ro-oueF2U5hnNyebJdsg,PetSmart,"Pet Training, Pets, Pet Groomers, Pet Stores, Pet Services",Plant City,FL,33563,2.5
1XPprREdklRa7-7wONcwYw,Pets Plus Natural,"Pet Adoption, Pets, Pet Services, Pet Groomers, Pet Stores",Bensalem,PA,19020,2.0
PSFrsQy8ts7NzbwPTz8Wlg,Petco,"Pet Training, Pet Stores, Pet Groomers, Pets, Pet Services",Florissant,MO,63033,3.5
ChAVUpsZ0GTZ4m8T10ACqw,Just Dogs and Cats,"Pets, Pet Stores",Philadelphia,PA,19103,5.0
mhWSIj4lISuz1U9oY4LQAA,The Ruff Life,"Pet Groomers, Pet Services, Pet Stores, Pets, Pet Boarding, Dog Walkers, Pet Sitting",Philadelphia,PA,19106,4.5
YhiUqvhUVE8lEX4GYlnYrQ,PetSmart,"Pet Training, Pet Services, Pet Stores, Pet Groomers, Pets",Newark,DE,19713,3.5
6d2F06nJM1vcjumXudc-8w,Holy Cow Tack & Feed,"Shopping, Livestock Feed & Supply, Pet Stores, Pets, Gift Shops, Flowers & Gifts",Tucson,AZ,85715,3.5
L34JgszP6KjXzCf37-sCdA,Montgomery County SPCA,"Animal Shelters, Pet Stores, Pets, Pet Adoption",Perkiomenville,PA,18074,3.5
OiOr_adxbfSlwfY9NxXDPA,Reptile Specialists,"Pets, Pet Services, Pet Sitting, Pet Stores",Tucson,AZ,85712,3.5
zi7XcylfjXCoJ0KfG24giQ,Pet Valu,"Pet Stores, Pets",Brownsburg,IN,46112,4.0
oKGwMuwBualq_4tgkdr6BQ,Petco,"Pet Groomers, Pets, Pet Stores, Pet Services, Pet Training",Brentwood,TN,37027,2.5
WufsOYPSnUPqMIT2SfSy2A,Indianapolis Animal Care Services,"Pet Adoption, Animal Shelters, Pets, Pet Stores",Indianapolis,IN,46221,3.5
hjyII_vOD7HvEiY1xHrikg,Lemos Feed & Pet Supply,"Pet Stores, Pets, Shopping, Livestock Feed & Supply, Pet Services, Veterinarians",Santa Barbara,CA,93101,4.5
NycQwdopa2hlCwdmfNg4-g,PetSmart,"Pet Training, Pet Groomers, Pet Stores, Pets, Pet Services",Cherry Hill,NJ,08002,3.0
YC0XzFrdF30HBOTqBJtkpw,Arizona Feeds Country Stores,"Pets, Shopping, Pet Stores, Livestock Feed & Supply",Tucson,AZ,85705,4.5
AjupzbR_ZY6ybHBLdHJInw,Speck's Pet Supply Emporium,"Pets, Pet Services, Pet Stores",Avon,IN,46123,4.0
TIL0zzxE9Eus2iXrHBkLQw,Rural King,"Home & Garden, Shopping, Farming Equipment, Sporting Goods, Pet Stores, Hardware Stores, Outdoor Gear, Nurseries & Gardening, Building Supplies, Home Services, Pets",Greenwood,IN,46143,3.5
QXULEu2sCvyuBgL9hMhzLw,PetSmart,"Pet Training, Pets, Pet Groomers, Pet Services, Pet Stores",Levittown,PA,19055,2.5
h1VnQb1XWrIrFKs9xgbybA,Doggie Style Pets,"Pets, Pet Stores, Pet Groomers, Pet Adoption, Pet Services",Philadelphia,PA,19148,4.0
symu9PnxZrW_-JWveGFSDA,PetSmart,"Pet Training, Pets, Pet Groomers, Pet Stores, Pet Services",Delran,NJ,08075,2.5
uxxv6KfVHt1VVgTLnLAUhQ,Tropical World Pets,"Active Life, Home & Garden, Aquariums, Pet Stores, Nurseries & Gardening, Pets, Shopping",Webster Groves,MO,63119,4.0
7iFHyjTi70CjI8zm8q_-oQ,The Principled Pet,"Pets, Pet Stores",Collingswood,NJ,08108,5.0
6gYU4A15Nf_Pa2SNlpUzmQ,PetSmart,"Pet Services, Pet Sitting, Pets, Pet Groomers, Pet Stores, Pet Training",Oro Valley,AZ,85737,2.5
1RGIeoFeJaQFq1_7RFzkBA,Petco,"Pet Training, Pet Sitting, Pet Services, Pet Groomers, Pets, Pet Stores",Fenton,MO,63026,3.5
RsPYdCCV4Bb3K7S-ZYvKiA,PetSmart,"Pet Groomers, Pet Services, Pets, Pet Stores, Pet Training, Pet Sitting",Sewell,NJ,08080,2.5
I-SDICUJmdJev_Zwf-IKbw,Benbow Veterinary Services,"Pet Stores, Pet Services, Veterinarians, Pets, Health & Medical, Acupuncture",Metairie,LA,70005,4.0
XHd-iA_gldP6C88REKwtbw,Lucky Dogz,"Pet Services, Pets, Pet Sitting, Pet Stores, Pet Training, Pet Groomers, Pet Boarding",Wyndmoor,PA,19038,4.5
gx-Pfb9bqt8_llJ33-tiXg,Humane Society of Missouri,"Veterinarians, Animal Shelters, Pet Stores, Pets",Saint Louis,MO,63110,3.0
omjY2XcPZrLHhcdEdLjv3g,Exotics And Aquatics,"Aquarium Services, Pet Services, Pet Stores, Pets",Reno,NV,89503,3.5
D4S2VHDdvejztUD_oqfrAA,Bark Avenue Grooming And Boutique,"Pets, Pet Services, Pet Stores, Pet Groomers",Hendersonville,TN,37075,4.5
amvD7obwChScw4Mpx1jx-A,Voorhees Animal Orphanage,"Pets, Animal Shelters, Pet Stores, Pet Adoption",Voorhees,NJ,08043,3.0
Pi0qov5yI3OgIIuNCYYpMg,Canine Center,"Pet Groomers, Pet Services, Pets, Pet Sitting, Pet Stores",St Louis,MO,63119,4.0
Fm-2YgPFarV5wcsACakKkw,Wag N' Wash,"Pet Services, Pet Stores, Pets, Pet Groomers",Cherry Hill,NJ,08002,4.5
chuO2Jj_3joGqxGLWh8pGg,PetSmart,"Pets, Pet Training, Pet Services, Pet Stores, Pet Groomers",Sicklerville,NJ,08081,2.5
2pxra68rV_-2q8Cs2MqWRw,Pet Supermarket,"Pet Stores, Pets",Brentwood,TN,37027,3.5
iXBv-AQZj7qsGhP2icmqMg,Delchester Discount Feed & Pet Supply,"Pet Stores, Pets",Newtown Square,PA,19073,4.5
ZGD_So3vVlY8DTSopJXstA,Humane Society of Tampa Bay,"Pet Services, Pet Stores, Pets, Pet Adoption, Pet Hospice, Animal Shelters, Veterinarians, Pet Groomers",Tampa,FL,33607,3.5
MmKrgr_LLki4_vPtCJJMfA,ASAP Animal Shelter Assistance Program,"Animal Shelters, Pet Stores, Pets, Community Service/Non-Profit, Local Services, Pet Services, Pet Adoption",Santa Barbara,CA,93111,4.5
xS9xsMIV0gnC4b_VRLb0KQ,PetSmart,"Pet Groomers, Pet Services, Pets, Pet Stores, Pet Training",Tucson,AZ,85741,2.5
GOXTg6rVIVKPpRFl7D13jg,Lola and Penelopes,"Pet Stores, Pet Services, Pets, Pet Groomers",Clayton,MO,63105,3.5
uNTdImRJjNYTfG56hAi46g,Bow Wow Meow Boutique,"Pet Groomers, Pet Services, Pets, Pet Stores, Pet Training",Indianapolis,IN,46203,5.0
iDBNClapO1L5ybWbbrMQTQ,Top Tails,"Pet Stores, Dog Walkers, Pets, Pet Services, Pet Sitting",Philadelphia,PA,19127,4.5
rCXBILLkjEWQsNpsDo4oeQ,Max Impact Carpet Cleaning,"Rugs, Home & Garden, Local Services, Carpet Cleaning, Pets, Furniture Reupholstery, Damage Restoration, Home Cleaning, Professional Services, Home Services, Carpeting, Shopping, Tiling, Grout Services, Office Cleaning, Air Duct Cleaning, Pet Stores",Philadelphia,PA,19148,5.0
OQyk8yuzaZ1VQAxfiJjfqQ,Pettin Place,"Pet Stores, Pets",Reno,NV,89502,4.0
xu_OTULsVAdGdrdwXbRRZw,Noah's Pet Motel,"Pet Groomers, Pet Stores, Pet Sitting, Pet Services, Pets",Pottstown,PA,19465,1.5
TAGMFpj4NwOiWjuHl-0Ntw,Ahead of the Pack,"Pet Services, Pet Stores, Pet Groomers, Pets",Haddonfield,NJ,08033,4.5
TKr7e9UHn3M2arbhO-A-ww,Rose Garden & Pet Store,"Nurseries & Gardening, Shopping, Active Life, Aquariums, Pet Stores, Local Fish Stores, Pets, Home & Garden",Marrero,LA,70072,5.0
ahpLj4hNo2-2w_xf2sNE3g,Four Muddy Paws,"Pet Groomers, Pet Services, Pets, Pet Stores",St. Louis,MO,63104,4.0
Tp0czfqRle-13Fc9h-SJ4g,Tom's Pet Outlet,"Pet Stores, Pets, Pet Services, Pet Sitting",Norristown,PA,19403,3.0
BMU3o0SeDIhY4Zjd9MuX3g,Petland Largo,"Pets, Pet Stores",Largo,FL,33771,1.5
p6fimSTHNJkfpBd4zew6pw,Pickypaws,"Pet Stores, Pets",Lambertville,NJ,08530,3.0
fTisP-jU5gU6H4KuT57rYQ,Petco,"Pet Stores, Pets, Pet Groomers, Pet Training, Pet Services",Meridian,ID,83646,3.5
0D8HH75BxydR_ZKTBpC2CA,Bird Fever,"Pet Stores, Bird Shops, Pets",Indianapolis,IN,46250,4.5
9MMkz5p6a0LvGFjXiq8D4g,Oceanside Aquariums,"Pet Services, Active Life, Pets, Pet Stores, Aquariums, Aquarium Services",Mount Juliet,TN,37122,4.0
qwxYnfJoCm3JRR-Em6k9jQ,Todd Marcus Birds Exotic,"Bird Shops, Pet Sitting, Pet Stores, Pet Boarding, Pets, Pet Services, Pet Groomers",Delran,NJ,08075,4.0
N4JusRqrEpSaNR04nPmbCg,PetSmart,"Pet Stores, Pet Training, Pet Services, Pets, Pet Groomers",Jenkintown,PA,19046,2.5
pInplqyHFT_WHALE7xBLEg,Petco,"Pet Stores, Pet Services, Pet Groomers, Pet Training, Pets",Reno,NV,89512,2.5
kJzbXdQLmU3thUEExzUPEw,Uncle Bill's Pet Centers Greenwood,"Marketing, Pets, Professional Services, Pet Stores",Greenwood,IN,46142,2.0
ZvHcTYz0vZBquMbXXVk8XQ,PetSmart,"Pet Groomers, Pet Training, Pet Stores, Pets, Pet Services",Nashville,TN,37204,3.0
7S6CfTTNIkC-gs-ttUn3ig,Gone To the Dogs Boutique,"Pet Services, Pets, Pet Groomers, Pet Stores",St. Pete Beach,FL,33706,4.0
EH1tNp2IpSUVezH_UaruTQ,Country Pet Lodge & Salon,"Pet Transportation, Pet Sitting, Pet Boarding, Pets, Pet Groomers, Pet Services, Pet Stores",Lindenwold,NJ,08021,4.0
VEoqI5nI1lj56SVUvhufuA,The Philly Pack,"Local Services, Shopping, Pet Services, Pet Training, Pet Stores, Pets, Dog Walkers",Philadelphia,PA,19145,5.0
dYydy7SnRPNY9WN1zdFhlQ,Park Feed Store & Pet Supply,"Livestock Feed & Supply, Shopping, Pet Stores, Pets, Pet Groomers, Pet Services",Pinellas Park,FL,33781,4.0
AjS886mX1vuG8WvEhNmJSg,Nashville Pet Products Center,"Pets, Pet Stores",Franklin,TN,37064,4.5
AHk4fr1_TmNCUQ_mOoCT4A,Off Leash,"Pets, Pet Stores",Santa Barbara,CA,93101,4.0
GEVzaM6ZIdcYEbqIX706hQ,1-Stop Ranch & Feed,"Outdoor Gear, Pet Stores, Shopping, Fashion, Used, Vintage & Consignment, Pets, Sporting Goods",Sparks,NV,89431,5.0
k2N4V0-8dy-kzgwP5V6CKA,Friends of Stray's,"Pets, Pet Stores, Animal Shelters",Saint Petersburg,FL,33714,3.0
V39qQwMPY7vvrOf_GTM0uw,Woof Gang Bakery & Grooming South Tampa,"Pets, Pet Services, Pet Stores, Pet Groomers",Tampa,FL,33629,4.0
t7Ik_GRgER2M7Fu_gW5oDw,Pet Supplies Plus - Palm Harbor,"Pet Stores, Pets, Pet Groomers, Pet Services",Palm Harbor,FL,34685,3.0
Cz0uDCbNZYn2n0bQJmI8xw,WashPaw,"Pet Stores, Pet Services, Pets, Pet Groomers",Nashville,TN,37220,3.5
-cw57dNUcgodhNaLi2TCgA,PetSmart,"Pet Sitting, Pet Groomers, Pet Training, Pets, Pet Stores, Pet Services",Saint Louis,MO,63127,2.5
296HEgWmS4Cu2usoax8eNA,Anderson's Mrs Pet Grooming,"Pet Sitting, Pet Stores, Pet Services, Pet Groomers, Pets",Saint Louis,MO,63119,4.0
npgwQ6nrjk2h16YLea4JEw,Pets in the City,"Pet Stores, Pets, Pet Training, Pet Services, Pet Groomers",Saint Louis,MO,63110,4.5
Kl-kb3kgs0LGM3jMb1kQJw,Petco,"Pet Groomers, Pet Services, Pet Training, Pet Stores, Pets",Tampa,FL,33609,3.0
Qb04abWbrqByq5v7ksW-KQ,V Fine Thai,"Pet Stores, Thai, Restaurants, Pets",Tucson,AZ,85701,2.5
EJrp58IPEomiYeYW3uTkOQ,Moana Nursery,"Landscape Architects, Home & Garden, Christmas Trees, Landscaping, Pet Stores, Home Services, Pets, Bird Shops, Shopping, Nurseries & Gardening",South Reno,NV,89511,3.5
pFqYBC9fPEwnxGf-5vnYow,Bill's Wonderland of Pets,"Pet Stores, Pets, Pet Adoption",Magnolia,NJ,08049,4.0
fnZFSmfyS1tLdp-X8w8SkA,Sunshine Puppies,"Pets, Pet Adoption, Pet Stores, Pet Services, Pet Breeders",Largo,FL,33771,2.0
RJcX7pgwMe2MHRmtRgXr0A,Pet Supplies Plus,"Pets, Pet Stores, Pet Adoption, Pet Services, Pet Groomers",Phoenixville,PA,19460,4.0
GQXeK-CdSb9D4QOfS9tYQg,The Catio,"Restaurants, Themed Cafes, Cafes, Bakeries, Pets, Food, Vegan, Pet Adoption, Pet Stores",Nashville,TN,37216,4.0
rZh3HQb8um-0A2mb2z1w3Q,Purina,"Pet Stores, Pets",Saint Louis,MO,63102,4.0
JP_rsltH7RsN3ffp2SPnaQ,Suncoast Animal League,"Pets, Animal Shelters, Pet Stores",Palm Harbor,FL,34683,4.5
oNxJ5KAtGnS5-IWHAQc7Pw,PetSmart,"Pet Groomers, Pet Training, Pets, Pet Services, Veterinarians, Pet Sitting, Pet Stores",Saint Charles,MO,63303,3.5
pKL3n45S2gaThk57Ml-Veg,PetSmart,"Pets, Pet Sitting, Pet Services, Pet Training, Pet Stores, Pet Groomers",Broomall,PA,19008,2.5
Z_YxF0eB5QZWPjMY-myKaw,Treats Unleashed,"Pet Services, Pet Groomers, Local Services, Couriers & Delivery Services, Pets, Pet Stores",Oakville,MO,63129,3.5
UUlBiDrGVluI_joj3tkeAA,Petco,"Pet Training, Pet Groomers, Pet Services, Pets, Pet Stores",Tucson,AZ,85747,3.5
kNdmM1WR-bTVhUoskh75cw,PetSmart,"Pet Stores, Pet Services, Pet Training, Pet Groomers, Pet Sitting, Pets",Lawnside,NJ,08045,3.0
mXgBFquLmdnBCJK9HFXLkg,"Pets ""N"" More","Pet Stores, Pet Adoption, Pet Services, Pets, Pet Groomers",Palm Harbor,FL,34685,3.5
C238kQBau5DKeBEXt6X8wg,Maddie's Castle,"Pets, Pet Stores",Phoenixville,PA,19460,4.5
RPP1gSNTsVitEo4p4n_D-A,The Farm at Natchez Trace,"Pets, Pet Services, Pet Groomers, Pet Sitting, Pet Stores, Shopping, Pet Boarding",Franklin,TN,37064,4.5
D3dH-PFJT82D7tk8ZokHdQ,Gloucester County Animal Shelter,"Pets, Animal Shelters, Pet Stores",Clayton,NJ,08312,2.5
50CQ0djtMTKuBjluxLmPpg,Three Dog Bakery St Pete,"Pet Stores, Pet Services, Pets",St Petersburg,FL,33701,5.0
n9XqLjYkZvXKpOcT6hjJVA,PetSmart,"Pet Stores, Pet Services, Pet Training, Pets, Pet Groomers",Pottstown,PA,19465,1.5
VmFX8coOKNN7eoStpmT1-A,Lola & Penelopes,"Pets, Pet Services, Pet Groomers, Pet Stores",Town and Country,MO,63017,5.0
Zp4X56N9m4klDAPb0UhzJQ,Legacy Feed and Fuel,"Shopping, Grilling Equipment, Restaurants, Pet Stores, Southern, Pet Services, Livestock Feed & Supply, Home & Garden, Pets",Meridian,ID,83642,4.5
pnZBmmQzR7bBwjhALksMjg,Monster Pets,"Pet Groomers, Pet Services, Pets, Pet Stores",Philadelphia,PA,19131,2.5
32Uj-20cs-JWhxJKYRzCtg,Petco,"Pets, Pet Training, Pet Stores, Pet Services, Pet Groomers",Tucson,AZ,85743,2.5
is9QogkUGhtcEALtHMyLwg,Three Dog Bakery,"Pets, Pet Stores",Chesterfield,MO,63017,5.0
Q_oI5lo51dDcP3GreEvfmQ,Nancy Crane's Family Pet Care,"Pet Groomers, Pet Stores, Pets, Pet Sitting, Pet Boarding, Pet Services",High Ridge,MO,63049,4.5
boPXfBCG5P62kCnpyTARmw,PetSmart,"Pets, Pet Services, Pet Stores, Pet Training, Pet Groomers",Nashville,TN,37209,3.0
S0UJxUiqCsT6VHbKGPn-UQ,Bentley's Pet Stuff,"Pet Stores, Pets",Rock Hill,MO,63119,5.0
tGnRCFvDip0lerDKtRSa6A,Downtown Dogs,"Pet Stores, Pets",Tampa,FL,33606,4.0
2n5wx0SQN8GRLXAagHR0VA,Pet Supermarket,"Pets, Pet Stores",Hendersonville,TN,37075,3.0
s7rA-y_J-XGRm_h3kn4XdA,Poochies Dog Grooming Salon,"Pet Groomers, Pet Stores, Pet Sitting, Pets, Pet Services",Prospect Park,PA,19076,5.0
OK2ZX7Wl93Y5jwwrydKEzQ,Exceptional Pets,"Pet Sitting, Pet Boarding, Pet Services, Pet Groomers, Pets, Veterinarians, Pet Stores",Green Valley,AZ,85614,4.5
MnpMn0jfeRxwnHTNJjVmZQ,The Pennsylvania SPCA,"Pet Stores, Pets, Veterinarians, Animal Shelters",Philadelphia,PA,19134,3.0
8LaVvL_1loxooSNXm5vbAQ,Nashville Holistic Pet,"Pet Stores, Pets, Food, Pet Services, Pet Groomers",Nashville,TN,37205,3.0
dHCiTwOwpWNMkmUxOCUMFQ,Super Pet Grooming Salon,"Pet Services, Reptile Shops, Pets, Pet Groomers, Pet Stores",Town 'n' Country,FL,33615,4.0
bs9-DgHqLi6zH0R0KJlgrg,PetSmart,"Pets, Pet Services, Pet Stores, Pet Training, Pet Sitting, Pet Groomers",Indianapolis,IN,46278,2.5
oWTBu4s1v6ELNy6UkRsYdQ,Pet Supplies Plus,"Pets, Pet Services, Pet Adoption, Pet Groomers, Pet Stores",Wilmington,DE,19803,4.0
8HnSrZaU9IaH2URuPclZnQ,Aquarium Center,"Pet Services, Aquariums, Pets, Active Life, Aquarium Services, Pet Stores",Clementon,NJ,08021,3.5
xLMyv36N3HNXmtE1L7L2fA,St Petersbark,"Pet Stores, Pets",Saint Petersburg,FL,33704,5.0
gx52i4wecBoIxRZt-Ixqyg,Aquatic Treasures,"Pet Services, Pet Stores, Aquariums, Local Fish Stores, Aquarium Services, Pets, Active Life",Collinsville,IL,62234,4.0
ns7_h4FmALuO6C4WUiOeHQ,Animal Welfare Association,"Pet Stores, Pet Services, Animal Shelters, Veterinarians, Pets",Voorhees,NJ,08043,3.5
i47Zx76krRLArp3Hoid6gw,Petco,"Pet Sitting, Pet Training, Pets, Pet Stores, Pet Services, Pet Groomers",King Of Prussia,PA,19406,3.5
gOrSeiLIzieKkYANbJE54w,Lidl,"Shopping, Pets, Grocery, Food, Pet Stores, Bakeries",Trooper,PA,19403,4.0
qpWccu3QYfdPQTk1BntqEg,Pet Valu,"Pet Groomers, Pet Stores, Pet Services, Pets",Bala Cynwyd,PA,19004,4.5
jrtbx-IWjzI8-vDzG7Px5Q,Canine Cloud Nine,"Pet Groomers, Pet Stores, Shopping, Pet Services, Pets",Carmel,IN,46032,4.0
qJglI8CU27H6p5OrEH-K8Q,Big Green Earth Store,"Fashion, Hobby Shops, Pet Stores, Accessories, Pets, Home & Garden, Shopping",Philadelphia,PA,19147,4.5
v_2RVI0eEPtZu5NIiNtdFA,PetSmart,"Pet Groomers, Pet Stores, Pets, Pet Services, Pet Training",Hermitage,TN,37076,2.5
pe7T3vCOU3d5rSIJV2ijwg,Groomers Choice,"Pet Stores, Pets, Pet Services",Philadelphia,PA,19154,3.5
zlxhWhCQM3ZAN4I99Vo1jg,Kazoodles,"Dog Walkers, Pet Groomers, Pet Stores, Pet Adoption, Pet Services, Pets, Pet Training",Jenkintown,PA,19046,3.0
Phw-eBIsXhIYuXDCQ4_-yg,Pawtology Grooming & Pet Market,"Pets, Pet Services, Pet Stores, Pet Groomers",Tampa,FL,33602,4.5
4BScN5wQ4q0zxeGzaYNwMQ,Precious Pets,"Pets, Pet Stores",Trenton,NJ,08618,3.0
AyaHKopQoc6S2EOlW9qzUQ,Treats Unleashed,"Pet Services, Pets, Pet Stores, Pet Groomers, Local Services, Couriers & Delivery Services",Creve Coeur,MO,63017,4.5
pTGm1JK_E18_8Tvv89VwLQ,Ace Hardware Of Sun City Center,"Local Services, Pets, Pet Stores, Propane, Hardware Stores, Shopping, Home & Garden, Home Services, Paint Stores, Building Supplies",Wimauma,FL,33598,4.0
s96P81Kebfqv3R4cf3QYGQ,Crescent City Cat Club,"Pet Stores, Pet Adoption, Pets, Animal Shelters, Arts & Entertainment",New Orleans,LA,70117,5.0
YiOWSsOJi-2OValwv9qitw,Montecito Pet Shop,"Pet Stores, Pets",Santa Barbara,CA,93109,4.0
oQ8fiMZRCTAdkxweeo_D5Q,Little House of Dogs,"Pet Services, Pet Groomers, Pets, Pet Stores",Saint Louis,MO,63122,4.5
gk2uLn4NSUzProTt2JqG1w,Jefferson Feed Pet & Garden Center,"Pets, Pet Services, Pet Sitting, Home & Garden, Shopping, Nurseries & Gardening, Pet Stores",Jefferson,LA,70121,4.0
KRbH_2cg5qiIKkUVfMBiAQ,Treats Unleashed,"Pet Groomers, Pet Services, Pets, Local Services, Couriers & Delivery Services, Pet Stores",St. Louis,MO,63108,4.5
L3yhZyB1Y2U1dYVxTnpQvg,PetSmart,"Pets, Pet Training, Pet Groomers, Pet Services, Pet Stores",Tucson,AZ,85716,3.0
IfanLxG3s9Jqik5bR9lOTQ,Hollywood Feed,"Pets, Pet Groomers, Pet Services, Pet Stores",Carmel,IN,46032,5.0
WAMa_7erHFDYHtk3CtzhWQ,Rural King,"Hardware Stores, Home & Garden, Guns & Ammo, Automotive, Shopping, Men's Clothing, Home Services, Pets, Department Stores, Fashion, Farming Equipment, Pet Stores, Building Supplies",Spring Hill,FL,34606,3.5
agr3K1wTD6azIDyY6PtlrQ,Pet Supplies Plus - Pinellas Park,"Pet Stores, Pets, Pet Services, Pet Groomers",Pinellas Park,FL,33781,4.0
FgnNJt32BcXz7u4Nyfs_og,Species Pet Supply,"Pets, Bird Shops, Local Fish Stores, Reptile Shops, Pet Stores",Brandon,FL,33511,2.5
vEYum1jnT0rUsZowJ-FdhA,The Hidden Reef,"Active Life, Aquariums, Local Fish Stores, Pets, Pet Stores, Reptile Shops",Levittown,PA,19056,3.0
NtHK9CYFU4urjKG8M460iA,All About Puppies,"Pet Stores, Pets, Home Services, Financial Services",Tampa,FL,33618,2.0
8REjg7DzvyCw5QDNEi6_5A,Max's Pet Market & Salon,"Pet Training, Food, Pet Groomers, Pet Services, Pets, Pet Stores",Wesley Chapel,FL,33543,4.0
QGkbm-f8vXWRXZ_VivtZCA,P & A Feed and Pet,"Pet Sitting, Pet Groomers, Pets, Pet Services, Pet Stores",Doylestown,PA,18902,3.0
qnEptTv8V6bztl_ds6gvZA,Doggie Style Pets,"Pet Services, Pet Training, Pet Stores, Pet Groomers, Pets",Philadelphia,PA,19130,3.5
84scXzOq1tkdnGWLAv0hgw,PetSmart,"Pet Groomers, Pets, Pet Services, Pet Stores, Pet Training",Newtown,PA,18940,3.5
jfjJNPRx3YycAuIGUaxaaQ,Dogs & Cats Rule,"Pets, Pet Stores",Newtown,PA,18940,3.5
ld10nBHYNol7A3pg8afFSQ,Banfield Pet Hospital,"Veterinarians, Pets, Pet Stores",Harahan,LA,70123,3.0
-YgNZVufVWrGHd5vD6AyOA,Grooming by Pam,"Pet Sitting, Pet Stores, Pet Services, Pet Groomers, Pets",O Fallon,IL,62269,4.0
VZKgw_0qDGWFkZKjG2tTrQ,Rittenhouse Square Pet Supply,"Pets, Pet Stores",Philadelphia,PA,19103,4.0
Yw4uYpNs-sXtMHoGwuvR9A,The Pawfect Puppy,"Pet Stores, Pets",Franklin,TN,37067,2.0
z6nSFHzXXe0HTJY3MQ_Ryg,Fancy Feathers Exotic Birds,"Bird Shops, Pet Stores, Pet Groomers, Pets, Pet Boarding, Pet Sitting, Pet Services",Blackwood,NJ,08012,4.0
jsT7y1jXP3zLslz6GLL3SQ,Northwest Pets,"Pets, Pet Services, Pet Stores",Eagle,ID,83616,4.5
CSA4_HIcVDgqj3TP7zsaaw,Faithful Friends Animal Society,"Veterinarians, Pets, Local Services, Community Service/Non-Profit, Animal Shelters, Pet Stores",Wilmington,DE,19804,3.0
hwBv0H_LqBfyVVZB7ebzRw,Petco,"Pet Training, Pet Services, Pet Stores, Pet Groomers, Pets",Port Richey,FL,34668,4.5
GbrfMh-DKrXc0JEXgUC1hg,Exotic Fish Bowl,"Pets, Pet Stores, Home & Garden, Shopping, Aquariums, Active Life, Nurseries & Gardening",Terrytown,LA,70056,2.5
bZ-ffxBu2v44_6HA8C0fpw,Wags & Whiskers,"Pets, Pet Stores",Nashville,TN,37204,4.5
-fTcu-OMSpM_8vjUEbh1Dg,PetSmart,"Pets, Pet Stores, Pet Training, Pet Services, Pet Groomers",Tampa,FL,33607,3.0
wW2Ngy4BYITjYy7pTY_ACA,Rose Garden Center,"Home & Garden, Pet Stores, Shopping, Pets, Aquariums, Nurseries & Gardening, Active Life",Marrero,LA,70072,4.5
kLRPD8kdwNHau-LIR97CGQ,Spike and Chester's Scrub Tub,"Pets, Pet Groomers, Pet Stores, Pet Services",Tucson,AZ,85742,3.0
te1gknizXa1JNMKn--fqhw,Bath N Doggie Works,"Pet Groomers, Pet Services, Pets, Pet Stores",St Petersburg,FL,33710,5.0
YpKIjKgmnYM73dy9bS8wMg,Seaside Seabird Sanctuary,"Pet Stores, Community Service/Non-Profit, Parks, Pets, Zoos, Animal Shelters, Active Life, Local Services",Indian Shores,FL,33785,4.5
k5KDx-EpumH_tRmRaFDuRA,Muddy Mutts,"Pet Services, Toy Stores, Shopping, Pet Groomers, Pets, Pet Stores",New Orleans,LA,70124,4.5
HdVk5kYSR6mXj-Tjg31F5Q,We Love Pets,"Pets, Pet Stores",Springfield,PA,19064,2.0
jHP_IVm12hn5TU5aabaQZw,PetSmart,"Pet Stores, Pet Services, Pet Training, Pets, Pet Groomers",Clearwater,FL,33761,3.5
2uYYreZ90a7oyK7u2_NT8w,Gomez Pet Shop,"Pets, Pet Stores",Tampa,FL,33614,3.0
v8Cw_BK8z8Mb1A691WP9aw,Paws & Claws,"Pet Groomers, Pet Stores, Pet Services, Pets",Tucson,AZ,85719,3.5
NkI7i0O9wL-BfOR8VNuc5w,Humane Society of Missouri,"Pet Stores, Pet Adoption, Animal Shelters, Veterinarians, Pet Training, Pet Services, Pets",Maryland Heights,MO,63146,2.5
-BjiftPB0ZIFL-7OzE7Xgw,Pet Supplies Plus - Clearwater,"Pets, Pet Adoption, Pet Services, Pet Groomers, Pet Stores",Clearwater,FL,33759,4.0
eTr317YHFNbXNBmD9eX5wA,Fins Feathers Paws & Claws,"Pet Services, Pet Stores, Pets, Pet Sitting, Pet Groomers",Harleysville,PA,19438,3.5
17lqqiJaoGq_Zt2B_NEH2w,George,"Pets, Pet Stores",Santa Barbara,CA,93108,5.0
VDdCCLUcx0qCA39pqTAO-Q,Hinde's Animal Safe Haven,"Pets, Pet Adoption, Animal Shelters, Pet Stores",Lima,PA,19037,3.0
z_dwE_CsYtFHb898o7Qevw,PetSmart,"Pet Services, Pets, Pet Groomers, Pet Stores, Pet Training",Spring Hill,FL,34607,3.5
1WLjgmdlOULUKLEjrAIj2A,4th Street Pet Hospital,"Pet Stores, Veterinarians, Pets, Pet Services",St. Petersburg,FL,33704,4.0
SfD6hOIAaBV2ctvcOhuocA,Silver State Corgis,"Pet Services, Pet Stores, Pets, Pet Breeders",Reno,NV,89501,1.0
6Z7Duh2Ub8H_zKBJkTmUdw,Uncle Bill's Pet Centers East Indianapolis,"Pets, Pet Stores",Indianapolis,IN,46229,2.5
MvL5bC_eUM-rpSHZUwQOrw,French Creek Outfitters,"Guns & Ammo, Gun/Rifle Ranges, Pets, Pet Stores, Sporting Goods, Local Fish Stores, Shopping, Outdoor Gear, Active Life",Phoenixville,PA,19460,4.0
w5F3h8Nji_y4LO33iU5SQg,All Breed Grooming By Justine,"Pet Groomers, Pets, Pet Stores, Pet Services",Spring Hill,FL,34609,4.5
qPT87IZihWT8i7hCluIQAQ,Pet Connection,"Pet Stores, Pets, Pet Services",Saint Louis,MO,63110,4.5
jV5AY0ww6_q86c_0DYPZ3A,Nashville Pet Products,"Pet Stores, Pets",Hermitage,TN,37076,5.0
Av_a5M66tZChU8XfC5plYw,Ruff Dog Daycare & Boarding,"Pet Stores, Pet Sitting, Pets, Pet Services",Nashville,TN,37209,5.0
b0Izv8mjNHp_oSw5PLQK9Q,Precious Paws,"Pet Sitting, Pet Groomers, Pets, Pet Stores, Pet Services",Fishers,IN,46038,4.5
pAEKmj65UOv_EBdc7Wu5RQ,Island Seed & Feed,"Shopping, Nurseries & Gardening, Home & Garden, Livestock Feed & Supply, Fruits & Veggies, Pet Stores, Food, Pets, Specialty Food",Goleta,CA,93117,5.0
CEXx9C64BrMLCUHhau9DaQ,VCA A Plus Animal Hospital,"Veterinarians, Pets, Pet Stores, Pet Services, Pet Groomers, Pet Boarding, Pet Sitting",Reno,NV,89511,3.5
hvhIxQ8Nb5pR2ZChWniCSg,City Dogs Grocery,"Pets, Pet Stores",Indianapolis,IN,46220,4.0
wZ2hxqMCr4aFT-UL_V-hTw,Southshore Animal Hospital,"Veterinarians, Pets, Pet Stores, Pet Sitting, Pet Boarding, Pet Services, Pet Groomers",Metairie,LA,70005,4.5
t4KUmm310aMb_HOfYah1zQ,Pets Plus Natural,"Pet Stores, Pet Services, Pet Groomers, Pets, Pet Adoption",Lansdale,PA,19446,1.5
Pr3fLHMjOEl2IS3Z7sflhg,Klassy K9,"Pet Stores, Pet Services, Pets, Pet Groomers",Ballwin,MO,63011,4.5
dg3TGH6Jag1IRU9i4QZ2_g,PawRageous,"Pet Services, Pet Stores, Pets, Pet Groomers",Lutz,FL,33558,4.0
-bAOqLOVE20BjkZkpx9jrw,Feed World,"Pet Stores, Pets",Reno,NV,89512,4.5
PDI0Pd9HYjlmPdsGGa0gdA,Pet Planet Grooming,"Pet Groomers, Pets, Pet Stores, Pet Services, Pet Sitting",Florissant,MO,63033,4.5
3f7FpQqjROo495uN_2W4uA,Petco,"Pet Stores, Pet Services, Pet Groomers, Pet Training, Pets",Brandon,FL,33511,4.5
zpnE6awjWKS3R346OWissg,Whitney's Grooming & Pet Supplies,"Pet Services, Pet Groomers, Pet Stores, Pets",Pinellas Park,FL,33781,3.5
swaFsUDehhJrq5HA06lCYA,Ever Evolving Exotics,"Aquarium Services, Pets, Pet Services, Pet Stores",Tucson,AZ,85712,5.0
h0MyHnBmuVIE9D8R88fCxw,Treats Unleashed,"Pet Groomers, Local Services, Couriers & Delivery Services, Pets, Pet Stores, Pet Services, Pet Training",Kirkwood,MO,63122,5.0
ifosycPwE7IysP00pO-Ujw,Petpeople - Greenwood,"Pet Stores, Pets, Pet Groomers, Pet Services",Greenwood,IN,46142,4.5
q80fw4Bg3Boo0wsqF_DbgA,Just4Birds,"Pet Groomers, Pet Stores, Pet Services, Bird Shops, Shopping, Pets",Valrico,FL,33594,5.0
xS8TGGF9TFQfyO_4_EyAPA,Tailwagger Pet Doors,"Pets, Pet Stores, Pet Services",Holiday,FL,34691,4.5
KjUAwVQTRI3hnAXhbl2ZYA,Avalon Animal Clinic,"Pet Services, Pets, Pet Stores, Veterinarians",Indianapolis,IN,46250,5.0
90YSYkeocJdZwwSo5mAqow,PetSmart,"Pet Services, Pets, Pet Stores, Pet Training, Pet Groomers",Tucson,AZ,85714,2.5
gh6gaCvOGnXKeV_-BaqFMQ,The Hound's Meow,"Pet Stores, Pets",Lutz,FL,33549,4.5
l2AV01to2FQ3ib-oox7C6Q,K-9 Kakes Pet Bakery,"Pets, Pet Stores",Sicklerville,NJ,08081,5.0
749_wD7uVPIpKx4U7Qh5qg,Pet Supermarket,"Pet Stores, Pets",Tampa,FL,33612,2.5
4zn49VG25pvLH_wMA7s9Yg,Animal House Pet Center,"Pet Stores, Pets",Saint Petersburg,FL,33713,3.5
HA3xRTHLs3J-poYrRveDIg,Pet Supplies Plus - Mooresville,"Pet Stores, Pets",Mooresville,IN,46158,4.5
fwtoETw6e5KlbZlWn8DlYQ,Dandy's Pet Grooming,"Pet Groomers, Pet Stores, Pets, Pet Services",Saint Petersburg,FL,33712,4.5
CTLG5fikyrKr-nv35qMAZA,The Tye-Dyed Iguana,"Reptile Shops, Pet Stores, Pets",Fairview Heights,IL,62208,4.5
LNDo4lbFwcIu01PpZJDNCA,Bob's Feathered Friends,"Pet Transportation, Pet Services, Pet Stores, Pet Groomers, Pets",Port Richey,FL,34668,2.5
c3gWuplROSWk4DOkdjWPYA,Countryside Animal Hospital,"Pet Groomers, Veterinarians, Pet Services, Pets, Pet Sitting, Pet Stores",Clearwater,FL,33761,4.0
EH25hIn3p1TX56vK6KFYLA,Philly Pet Supply,"Pet Groomers, Pets, Pet Stores, Pet Services",Philadelphia,PA,19135,4.0
kZnnTOM8qRBX4doqzvPwSA,Launder Mutt Pet Stylin,"Pet Groomers, Pet Stores, Pet Services, Pets",Reno,NV,89512,4.5
1ONelye3BXY-0BtJuFbxBA,The Hairy Hound,"Pets, Pet Sitting, Pet Stores, Pet Groomers, Pet Services",Clearwater,FL,33763,5.0
wP2Bz_FsxiYUI8xnP6FpEQ,Wild Birds Unlimited,"Bird Shops, Pets, Pet Stores",Warson Woods,MO,63122,4.5
OzrBOmgKMm-DfP0c8UiBNg,Natural Paws,"Pets, Pet Stores",Reno,NV,89511,5.0
7QdjDfzcFKI2cfMRHFipFw,Biggest Aqua Life Aquarium,"Pet Services, Aquarium Services, Local Fish Stores, Pet Stores, Pets",Reno,NV,89509,5.0
7nDUQkNX0aw9gc_9nlVPwQ,Wolfgang's Pet Stop,"Pet Groomers, Pets, Pet Services, Pet Sitting, Pet Stores, Pet Training",St Louis,MO,63108,4.5
xJ0ZURkJ8WdgKGgaL08WkA,Tampa Bay Ponds & Rocks,"Shopping, Home Services, Landscape Architects, Landscaping, Pet Stores, Home & Garden, Pets, Local Fish Stores, Nurseries & Gardening",Dunedin,FL,34698,4.5
DJoqY13LXK7Q5i2EdvMDZg,National Humane Society,"Pet Stores, Pets, Animal Shelters",Tampa,FL,33618,3.0
INag06syfTBIyDZJixO0yg,All Creatures Great and Groomed,"Pets, Pet Services, Pet Adoption, Pet Sitting, Pet Stores, Pet Groomers",Indianapolis,IN,46203,4.5
BqOFuYlf7wUgUvjEuefxOg,Zamzows,"Pet Sitting, Florists, Shopping, Home & Garden, Nurseries & Gardening, Pet Stores, Pets, Flowers & Gifts, Pet Services",Eagle,ID,83616,3.5
6nUl1ZQ8jcn8V3maNDaZ1A,Medford Pet Supplies,"Pets, Pet Stores",Medford,NJ,08055,4.5
8SQXRmsKKhNwqKSVJGtQ8g,Cuboid Nature Aquarium,"Pet Stores, Aquarium Services, Local Fish Stores, Pets, Pet Services, Aquariums, Active Life",Lahaska,PA,18931,5.0
vuMGNwO2ySUyU-gDjzYnxA,Pawsitively Purrfect,"Pet Sitting, Pet Services, Pet Boarding, Pets, Pet Groomers, Pet Stores",Nashville,TN,37211,4.5
E_QZX_Yq77bBxtHrkT1JpA,Nola Bark Market,"Pet Groomers, Pet Training, Pets, Pet Stores, Pet Services",New Orleans,LA,70117,3.0
b-qg0Itl3ibJBd7UdpMdqA,Scraps Dog Company,"Shopping Centers, Pet Stores, Pet Groomers, Pet Services, Pets, Shopping",Reno,NV,89512,4.5
3FgFDaHATA7XbSVSIM8I0Q,Chalily,"Gardeners, Pet Stores, Home Decor, Home Services, Nurseries & Gardening, Landscape Architects, Landscaping, Shopping, Home & Garden, Pets, Local Fish Stores",St Louis,MO,63011,4.0
qgzck6YAB-a9C72UVY4oFA,Petco,"Pets, Pet Groomers, Pet Stores, Pet Training, Pet Services",Green Valley,AZ,85614,3.5
F0R1baPgv0W0m3rmk7BA1A,Bella Dog Bakery & Biscuit Company,"Pet Stores, Pets",Indianapolis,IN,46227,5.0
6m2OFWnIBgGYaPV_YEIVhw,Best Friends Pet Hotel,"Pet Stores, Pet Groomers, Pets, Pet Training, Pet Services, Pet Boarding, Pet Sitting",Carmel,IN,46032,3.5
wqPAAUdlJ8lBVAfpiAtT7Q,Pet Supplies Plus - Fishers,"Pets, Pet Stores, Pet Groomers, Pet Services",Fishers,IN,46038,4.5
mTdH5q_iVZ30rkVBUouMyg,Petco,"Pet Training, Pet Services, Pet Groomers, Pet Stores, Pet Sitting, Pets",Wesley Chapel,FL,33544,3.0
Um1zF9uGCDRG8A7wr4Kspg,Paws Stop,"Pet Training, Pet Services, Pets, Pet Stores",Indianapolis,IN,46226,4.0
Tv-HxZPRmJDGSVfvYmulKA,Pet Station,"Pet Stores, Pets, Pet Services, Pet Groomers, Veterinarians",Reno,NV,89521,3.5
crK0_lPWZov0lVAV2W8CAw,PetSmart,"Pet Stores, Pet Training, Pet Groomers, Pets, Pet Services",Smyrna,TN,37167,2.5
IyAX1xpscnoSeyrpPDuJjQ,Dog's Day Out Pet Salon,"Pets, Pet Stores, Pet Services, Pet Groomers",Reno,NV,89511,5.0
gzOzSBOdyWTZhBf8Ly1aEg,Westside Aquarium & Pets,"Active Life, Pet Stores, Aquariums, Pets",Tampa,FL,33629,4.5
j3GyNqxKcOcQfjCSgtI0lA,Dizzy's Dog Wash & Corner Store,"Pet Services, Pet Stores, Pets, Pet Groomers",Nashville,TN,37204,4.5
geWUsomkOnF5LF4jdpJw0w,Arizona Nature Aquatics,"Pet Services, Art Galleries, Pets, Aquarium Services, Shopping, Arts & Entertainment, Pet Stores",Tucson,AZ,85719,4.5
OtV8oojv0v8Yy0bHXPIgGg,Idaho Pet Door,"Door Sales/Installation, Fences & Gates, Pet Services, Home Services, Pet Stores, Pets",Boise,ID,83709,5.0
zWjmrSZysrAUaDaHelLNEg,Pet Supplies Plus- Zephyrhills,"Pet Stores, Pets, Pet Groomers, Pet Services",Zephyrhills,FL,33542,5.0
h8CvZt1ms8qTJnlh6ydl1g,Pet Food Warehouse,"Pets, Discount Store, Shopping, Pet Stores",Saint Petersburg,FL,33714,5.0
NMUp06Tg7TiWda44RJ3NLg,PetSmart,"Pet Services, Pet Training, Pet Stores, Pets, Pet Groomers",Glen Mills,PA,19342,3.0
kQPL9ZzUexp46A_1YbKgvg,Pet Supplies Plus Greenwood,"Pets, Pet Stores, Pet Groomers, Pet Services",Indianapolis,IN,46237,4.5
vAGYinB2OUITPFIs2S59Jw,Paw Paws,"Pet Stores, Pets",Madeira Beach,FL,33708,5.0
9bueVwMa5HQCsbe_4Xg_1g,Tractor Supply Company Tsc,"Pet Stores, Pets",Pottstown,PA,19464,2.0
LPbBte6u5N0P94p1J2FRbw,Salty Bottom Reef Company,"Active Life, Pets, Pet Stores, Aquariums",New Port Richey,FL,34652,4.0
G4SwpFTN0211k4VkNVi52Q,Art's Animals & Supplies,"Pet Stores, Pets",Holmes,PA,19043,1.5
kC6LrcrRuml9wi5NsgK4aw,Your CBD Store,"Pets, Beauty & Spas, Shopping, Alternative Medicine, Cannabis Dispensaries, Health & Medical, Vitamins & Supplements, Pet Stores, Skin Care",Santa Barbara,CA,93105,5.0
UHyculLt-04wbzQ-hUwLoQ,Pickering Valley Feed & Farm Store,"Pets, Pet Stores, Active Life, Lakes, Home & Garden, Livestock Feed & Supply, Shopping, Nurseries & Gardening",Lionville,PA,19353,3.0
emnwJoK6hjg1NpUudnkNjQ,Five Acres Animal Shelter,"Animal Shelters, Pet Stores, Pet Adoption, Pets",St. Charles,MO,63303,3.0
meAm3QqWM6Yp8xuoogoIqw,Dover Saddlery - Warrington,"Fashion, Pets, Horse Equipment Shops, Shopping, Pet Stores, Men's Clothing, Sporting Goods, Sports Wear",Warrington,PA,18976,4.0
FUWzAI-8GjKmczn9c3oZ_A,Maplewood Stables,"Pets, Active Life, Pet Stores, Pet Services, Horseback Riding, Horse Boarding",Reno,NV,89521,4.5
OV2dsQ_utpWUVxurmLGMfA,Humane Society Of Sumner County,"Pets, Animal Shelters, Pet Stores",Hendersonville,TN,37075,4.0
-1dARtemb2Gy7XlftvtNXQ,New Hope Pet Center,"Pet Stores, Pet Groomers, Pet Services, Pets",New Hope,PA,18938,4.5
sCTAnYVJrzzwxaxqUqpJmQ,Ready to Paw-ty,"Pets, Pet Services, Pet Training, Pet Groomers, Pet Stores",Trinity,FL,34653,4.0
l_jB0htIl7TL2t5J4Y3fuw,PetSmart,"Pet Stores, Pet Groomers, Pet Sitting, Pet Services, Pet Training, Pets",New Orleans,LA,70123,3.0
Y97nW37slYWzI3MXu1TP_g,PetSmart,"Pets, Pet Stores, Pet Training, Pet Services, Pet Groomers",Avon,IN,46123,3.5
U9aazZoxiji07BhKlpwTEQ,Cutter's Mill Pet Store,"Pets, Pet Stores",Chalfont,PA,18914,3.5
uXjKG2gSEV9JbMnhqSdx8A,PetSmart,"Pet Groomers, Pet Services, Pets, Pet Sitting, Pet Training, Pet Stores",Manchester,MO,63011,2.5
_7LPHpXK4RvXDc_q-7okvA,Wild Birds Unlimited,"Home & Garden, Shopping, Hobby Shops, Pets, Home Decor, Bird Shops, Sporting Goods, Pet Stores",Indianapolis,IN,46240,5.0
2HrzUH4bPX5er4xZU21z0A,Concord Pet Foods & Supplies,"Pets, Pet Stores",Cherry Hill,NJ,08034,3.0
ns7gzXXBbB2-nLZJgfmFrQ,PetSmart,"Pet Stores, Pets, Pet Groomers, Pet Services, Pet Training",Nashville,TN,37221,2.5
UqMGC18FJ_3VdWKGUVNBBQ,Massage Envy - Warrington,"Acupuncture, Skin Care, Pets, Pet Stores, Beauty & Spas, Medical Spas, Massage Therapy, Day Spas, Massage, Health & Medical",Warrington,PA,18976,4.0
1UdzZebeswfJGnSpxsju3Q,Fluffy Puppies of Pinellas,"Pets, Pet Stores",Clearwater,FL,33756,3.0
78zTLuWcovifbB1q5SPc9Q,Three Dog Bakery,"Pet Stores, Pets",Indianapolis,IN,46204,4.5
BcKlspU8oWv31Q4TuRoBVQ,Tropical Kingdom,"Pet Stores, Aquarium Services, Pets, Pet Services",Tucson,AZ,85719,3.0
Jp6HAsl7tNqBh3PEXNMDbg,Petco,"Pet Stores, Pet Groomers, Pets, Pet Training, Pet Services",Wynnewood,PA,19096,2.5
LTatNOrEyUbK9w-xqssSrA,Paw Street Bakery,"Pets, Pet Stores",Plainfield,IN,46168,4.5
tBjVnQffEYSpWS78y-nVLA,The Stone Dog Grooming Salon,"Pet Groomers, Pet Stores, Pets, Pet Services",Reno,NV,89519,3.5
kf_zkLFxfVpRUBFUTww2gw,"Fins, Feathers, Paws and Claws","Pet Services, Pet Sitting, Pet Groomers, Food, Pet Stores, Specialty Food, Pets, Fruits & Veggies",Quakertown,PA,18951,2.0
09aZ4Vhravt9E5x-OFchxg,A Tropical Reef,"Pet Services, Pet Stores, Active Life, Pets, Aquarium Services, Local Fish Stores, Aquariums",Largo,FL,33771,4.0
dEZ1cuy89qDfFjy12tJ-Ng,The Bone Appetite,"Pet Services, Pet Stores, Pets",Philadelphia,PA,19118,3.5
EBiY06T54h1L0wxU5Jkzng,Pet Supplies Plus,"Pet Services, Pets, Pet Stores, Pet Adoption, Pet Groomers",Wayne,PA,19087,3.0
eC1szLhOMz11QURm9yswVA,Scraps Dog Company,"Pet Stores, Pets",Reno,NV,89523,3.5
FNrV0iVay6cBUDWP8_mdNA,Treats Unleashed,"Pets, Pet Services, Local Services, Pet Groomers, Couriers & Delivery Services, Pet Stores",Saint Louis,MO,63124,4.5
Z4B6wQfzRUVqwokyJO5Ycw,Critter Control Of Hamilton County Dinkerton,"Pet Stores, Pets, Animal Shelters, Local Services, Home Services, Pest Control, Insulation Installation, Wildlife Control",Indianapolis,IN,46032,2.0
xjT3YN1zTCKCB-wymeBa-g,PetSmart,"Pet Services, Pet Training, Pet Groomers, Pet Stores, Pets",Mount Juliet,TN,37122,3.5
2c6z6zw1reb8olUHwN4JpA,Seascape Studio,"Aquariums, Pets, Active Life, Pet Stores",Saint Louis,MO,63127,4.5
F4G7vxdsEItD9JDuHVScfA,Munchies Natural Pet Foods,"Pets, Pet Stores",Oldsmar,FL,34677,4.5
t3cW0UFDOP7APM-7lrSYMA,Pet Station,"Pet Services, Pet Stores, Pet Groomers, Veterinarians, Pets",Sparks,NV,89441,4.5
GUhAJNBfzlRe4F-BBI1EOw,Best Friends Pet Hotel,"Pet Stores, Pet Groomers, Pet Sitting, Pet Training, Pets, Pet Boarding, Pet Services",West Berlin,NJ,08091,3.5
qnHI3dqtO1tqKI5LvPk-Jg,El Jefe Cat Lounge,"Pet Adoption, Pet Stores, Pets, Pet Services, Fitness & Instruction, Active Life, Meditation Centers",Tucson,AZ,85719,5.0
Dt3ZSxjhkFSbS1Mn-B26LA,Paw Spa,"Pet Stores, Pet Services, Pet Breeders, Pets, Pet Groomers",Meridian,ID,83642,4.0
IAd6SjsS3pQqYeS0jcrRFw,Terry's Pet Grooming,"Pet Groomers, Pets, Pet Services, Pet Stores",Tucson,AZ,85747,2.0
RqUxMacm3SOLtN9IfppGqg,The Wood Thrush Shop,"Gift Shops, Pet Stores, Active Life, Hobby Shops, Nurseries & Gardening, Home & Garden, Flowers & Gifts, Shopping, Parks, Pets, Home Decor",Nashville,TN,37205,4.5
eFLhp3y2BjuZAE7cUZB_Kg,BONeJOUR,"Pet Groomers, Pet Services, Pet Stores, Shopping, Pets",Philadelphia,PA,19106,4.5
DzbIqwWRxE9fSqP9ciVJcQ,Backyard Birds,"Pets, Pet Stores",Indianapolis,IN,46220,4.5
6QeJMWJtpGtlAnbiNtildQ,PetPeople,"Pet Stores, Pets",Brentwood,TN,37027,5.0
G4giHMSxslApUb2kAtQq5g,All About Puppies,"Pets, Pet Stores",Largo,FL,33771,2.0
snU2pyEMCfwCAlDFolrBNA,Pet Supermarket,"Pets, Pet Stores",Ruskin,FL,33573,2.0
c58E5EZqT422NJjGDufZIQ,Cutter's Mill Pet Store,"Pets, Pet Stores",Cherry Hill,NJ,08034,3.0
cvTBcJttO_XQ8jJO6Oyp0w,PetSmart,"Pet Groomers, Pet Services, Pets, Pet Stores, Pet Training",Reno,NV,89523,2.5
vkPfTX9aja-XTb2PfpA2SQ,Petco,"Pets, Pet Training, Pet Stores, Pet Services, Pet Groomers",Philadelphia,PA,19114,3.5
RbQE8ENDP7BufAPEt_GNgA,The Reef Aquarium Shop,"Aquarium Services, Pet Services, Local Fish Stores, Pets, Pet Stores",Indianapolis,IN,46220,4.0
0B_Jz2FacRGu7eOTMuR9Fg,PetSmart,"Pet Training, Pet Groomers, Pet Stores, Pets, Pet Services",Metairie,LA,70003,2.5
E9Giic93KYeQifULCK2rwA,Le Petite Pooch- Plant City,"Pets, Pet Groomers, Pet Stores, Pet Services",Plant City,FL,33567,4.0
0ZLZW5jaGBFlEPutkVPG5Q,Wild Bird Store,"Pets, Pet Stores, Bird Shops, Shopping, Home & Garden",Tucson,AZ,85716,4.5
sqXTTl4A8RWxiN65LR2VKg,PetSmart,"Pet Stores, Pet Groomers, Pet Training, Pets, Pet Services",Oldsmar,FL,34677,2.0
2xE9q-WOf0jJ1UQ6q8TdMw,Emerald Bay Fish & Reptiles,"Reptile Shops, Pets, Local Fish Stores, Pet Stores",Nashville,TN,37138,5.0
1pVacUgOZgaOl6WIAqhK1g,Animal House,"Fences & Gates, Shopping, Shopping Centers, Pets, Home Services, Pet Groomers, Pet Services, Pet Stores",Tampa,FL,33615,2.5
0IT4p1OhiXU1sPVVY1na7A,Bonsai Koi Ponds,"Active Life, Pet Services, Pets, Lakes, Aquariums, Aquarium Services, Pet Stores, Local Fish Stores",Pinellas Park,FL,33781,4.5
Hi4PnyhVCWarM_SMhXKlug,Precious Pets Hotel,"Pet Stores, Pets, Pet Sitting, Pet Services",Somerdale,NJ,08083,4.5
B0ZpiUplf38gTUOC9XRObA,Petco,"Pet Groomers, Pet Services, Pet Training, Pet Stores, Pets",Edwardsville,IL,62025,2.5
N6F0uS3VVUMMWxxSi0Y63w,Doggie Style,"Pet Services, Pet Stores, Pets",Philadelphia,PA,19127,3.5
FycGiFkvD5U0lsrKHiBpaQ,Natural Paws,"Pet Stores, Pets",Tampa,FL,33626,5.0
wnmI03cNKRZsrHvAWjORng,Rawhide Feed & Supply,"Pets, Pet Stores, Shopping, Livestock Feed & Supply",Tucson,AZ,85739,5.0
sjGg_N4RxE4bUY6zkoysKA,Three Dog Bakery,"Pets, Pet Stores, Pet Services",Mt Juliet,TN,37122,5.0
psvWadxTjzAqA6oQOf2r5g,Nashboro Animal Hospital,"Veterinarians, Pet Boarding, Pet Services, Pet Stores, Pet Sitting, Pets",Nashville,TN,37217,4.5
JqmCBRv0sWxexD4grjMn3Q,Idaho Humane Society,"Pet Stores, Pets, Veterinarians, Public Services & Government, Local Services, Community Service/Non-Profit, Animal Shelters",Boise,ID,83705,2.5
rD4iQXrpTBTIwgCPZIYzQA,Diane's Discount Pets and Adoption Center,"Pet Adoption, Pets, Pet Stores",Pottstown,PA,19465,2.5
JpDjO1aloLRNnY_d20optg,The Dashing Pooch,"Pet Stores, Pet Services, Pet Groomers, Pets, Pet Sitting",Tampa,FL,33629,4.5
pQ5AODOKckvFhqlTI4D0nQ,Paradise Pet Salon,"Pet Services, Pets, Pet Groomers, Pet Stores",Riverview,FL,33578,4.0
3DBVtZv24u05knh1pPp8NA,Love At First Sight Pet Adoption Center,"Pet Stores, Animal Shelters, Pet Adoption, Pets",Nashville,TN,37209,3.5
Qx0GsXEGIIn1S533wsSi2w,Petco,"Pet Stores, Pet Services, Pets, Pet Training, Pet Groomers",Antioch,TN,37013,3.5
X_k8I0ryx6-Ujct5g0vE0A,Molly's Healthy Pet Food Market,"Pets, Pet Stores",Boise,ID,83702,4.5
lonahlT28I4cMqRNzsqtWw,Deerwood Animal Hospital,"Pet Services, Pet Stores, Pet Groomers, Pets, Veterinarians",Hamilton Township,NJ,08619,4.0
ZjK6-LaGCehoB4Z_s9Lc1A,Garvin's Divine Dog Training,"Pets, Pet Stores, Pet Training, Pet Services",Tucson,AZ,85711,4.5
HxXDHVc7SLrPdPNjVNaQyA,Fox's Feed Depot,"Pets, Local Services, Pet Stores",Odessa,FL,33556,4.0
wEQVTtUP0TtHw4sMGDgqVA,Bark n' Purr Boise,"Health & Medical, Specialty Food, Health Markets, Pets, Nutritionists, Pet Services, Food, Pet Stores, Shopping",Boise,ID,83705,5.0
bvzqoN1dM5vBCjD1lY5snw,Petco,"Pet Services, Pets, Pet Training, Pet Stores, Pet Groomers",Carmel,IN,46032,3.0
mY4odPHkJp3eZsrlT8u0sg,Invisible Fence,"Contractors, Pets, Pet Services, Pet Training, Pet Stores, Home Services",Paoli,PA,19301,4.5
yY83HNF6ANY8YQLMHJYGpg,Petco,"Pets, Pet Stores, Pet Adoption, Pet Training, Pet Services, Pet Groomers",Eagle,ID,83616,2.5
c8GjPIOTGVmIemT7j5_SyQ,Wild Birds Unlimited,"Pets, Nurseries & Gardening, Pet Stores, Hobby Shops, Bird Shops, Home & Garden, Shopping",Nashville,TN,37204,4.0
